{
  "type": "FeatureCollection",
  "name": "leg4_provisional_alignment_public_osm",
  "crs": {
    "type": "name",
    "properties": {
      "name": "urn:ogc:def:crs:OGC:1.3:CRS84"
    }
  },
  "features": [
    {
      "type": "Feature",
      "properties": {
        "alignment_id": "TRUNK-LEG-4-PROVISIONAL",
        "public_name": "Leg 4 provisional public-source alignment",
        "status": "provisional; not MCG/NAS verified",
        "source_basis": "Public reports describe Leg 4 along SPR from Vatika Chowk/Sohna Road to NH-8/NH-48; road geometry from local OSM layer",
        "model_use": "display and screening only until NAS/as-built geometry, invert levels and tie-in nodes are verified",
        "likely_flow_direction": "westward toward NH-8/NH-48 and main drain system",
        "public_tie_candidate": "Leg III near sectors 74-75 reported by public infrastructure note; verify before model use",
        "length_km_osm_screening": 5.058
      },
      "geometry": {
        "type": "LineString",
        "coordinates": [
          [
            77.0438106,
            28.4011956
          ],
          [
            77.0415106,
            28.4011677
          ],
          [
            77.0406805,
            28.4011552
          ],
          [
            77.0405527,
            28.4011571
          ],
          [
            77.040346,
            28.4011549
          ],
          [
            77.0398739,
            28.4011266
          ],
          [
            77.0390198,
            28.4010447
          ],
          [
            77.0388244,
            28.4010183
          ],
          [
            77.03845,
            28.4009795
          ],
          [
            77.0371537,
            28.4008329
          ],
          [
            77.0368163,
            28.4008006
          ],
          [
            77.0362363,
            28.4007502
          ],
          [
            77.0348635,
            28.400631
          ],
          [
            77.0348511,
            28.4006299
          ],
          [
            77.034792,
            28.4006258
          ],
          [
            77.0325762,
            28.4004655
          ],
          [
            77.0314361,
            28.4003921
          ],
          [
            77.0310528,
            28.4003716
          ],
          [
            77.0308385,
            28.4003796
          ],
          [
            77.0306885,
            28.4003873
          ],
          [
            77.0299816,
            28.400412
          ],
          [
            77.0273338,
            28.4005109
          ],
          [
            77.0257433,
            28.4004987
          ],
          [
            77.0239623,
            28.4005797
          ],
          [
            77.0238323,
            28.4005787
          ],
          [
            77.0229091,
            28.4005712
          ],
          [
            77.0228454,
            28.4005713
          ],
          [
            77.0227251,
            28.4005716
          ],
          [
            77.0224632,
            28.4005721
          ],
          [
            77.0205131,
            28.400576
          ],
          [
            77.0188031,
            28.4005957
          ],
          [
            77.018681,
            28.4005949
          ],
          [
            77.01697840000001,
            28.4006138
          ],
          [
            77.0163611,
            28.4006206
          ],
          [
            77.0162933,
            28.4006214
          ],
          [
            77.0161771,
            28.4006226
          ],
          [
            77.0158235,
            28.4006263
          ],
          [
            77.0153603,
            28.40063119999999
          ],
          [
            77.0152317,
            28.4006326
          ],
          [
            77.0147616,
            28.4006399
          ],
          [
            77.0108726,
            28.4007128
          ],
          [
            77.0103586,
            28.4007517
          ],
          [
            77.0102006,
            28.4007566
          ],
          [
            77.0091967,
            28.4007772
          ],
          [
            77.007743,
            28.4009539
          ],
          [
            77.0071985,
            28.4010342
          ],
          [
            77.0069732,
            28.4010636
          ],
          [
            77.0065679,
            28.4011242
          ],
          [
            77.0064206,
            28.4011462
          ],
          [
            77.0047121,
            28.4013957
          ],
          [
            77.0044764,
            28.4014411
          ],
          [
            77.0041917,
            28.4014777
          ],
          [
            77.0039369,
            28.401506
          ],
          [
            77.0033032,
            28.401591
          ],
          [
            77.002506,
            28.4017449
          ],
          [
            77.0014679,
            28.4019555
          ],
          [
            77.0011074,
            28.402032
          ],
          [
            76.999868,
            28.4022952
          ],
          [
            76.9988863,
            28.4025524
          ],
          [
            76.9983512,
            28.4027164
          ],
          [
            76.9959669,
            28.4034039
          ],
          [
            76.9959489,
            28.4034091
          ],
          [
            76.9948805,
            28.4037783
          ],
          [
            76.9936153,
            28.4043214
          ],
          [
            76.992821,
            28.4046536
          ]
        ]
      }
    },
    {
      "type": "Feature",
      "properties": {
        "point_id": "LEG4-UPSTREAM-VATIKA-CHOWK",
        "role": "Upstream / capture start",
        "note": "Sohna Road / Vatika Chowk side; approximate from OSM corridor",
        "confidence": "medium",
        "status": "provisional public-source screening point"
      },
      "geometry": {
        "type": "Point",
        "coordinates": [
          77.0438106,
          28.4011956
        ]
      }
    },
    {
      "type": "Feature",
      "properties": {
        "point_id": "LEG4-DISCHARGE-LEG3-SECTORS74-75",
        "role": "Reported Leg III tie candidate",
        "note": "Approximate corridor point near sectors 74-75; public note says discharge to Leg III",
        "confidence": "medium",
        "status": "provisional public-source screening point"
      },
      "geometry": {
        "type": "Point",
        "coordinates": [
          77.01697840000001,
          28.4006138
        ]
      }
    },
    {
      "type": "Feature",
      "properties": {
        "point_id": "LEG4-DOWNSTREAM-NH8",
        "role": "NH-8/NH-48 corridor end",
        "note": "Western corridor end near Delhi-Gurugram Expressway / NH-8 side; exact node not verified",
        "confidence": "medium",
        "status": "provisional public-source screening point"
      },
      "geometry": {
        "type": "Point",
        "coordinates": [
          76.992821,
          28.4046536
        ]
      }
    }
  ]
}