{
"type": "FeatureCollection",
"name": "probable_outfalls",
"crs": { "type": "name", "properties": { "name": "urn:ogc:def:crs:EPSG::32643" } },
"features": [
{ "type": "Feature", "properties": { "outfall_id": "PO-001", "outfall_class": "probable nallah/creek connection", "source_layer": "MCG storm-water points", "source_id": "SWD-POINT-146", "basis": "1 CREEKS", "city_side": "eastern side", "terrain_elev_m": 241.91, "model_use": "receiving-location evidence only; not used for current model discharge", "field_status": "needs field check before design use", "longitude": 77.097505, "latitude": 28.424488, "x_utm43n": 705443.45, "y_utm43n": 3146017.08 }, "geometry": { "type": "Point", "coordinates": [ 705443.447343304171227, 3146017.080826791934669 ] } },
{ "type": "Feature", "properties": { "outfall_id": "PO-002", "outfall_class": "probable nallah/creek connection", "source_layer": "MCG storm-water points", "source_id": "SWD-POINT-145", "basis": "1 CREEKS", "city_side": "eastern side", "terrain_elev_m": 241.966, "model_use": "receiving-location evidence only; not used for current model discharge", "field_status": "needs field check before design use", "longitude": 77.097591, "latitude": 28.424636, "x_utm43n": 705451.6, "y_utm43n": 3146033.58 }, "geometry": { "type": "Point", "coordinates": [ 705451.596322980709374, 3146033.583137046545744 ] } },
{ "type": "Feature", "properties": { "outfall_id": "PO-003", "outfall_class": "probable nallah/creek connection", "source_layer": "MCG storm-water points", "source_id": "SWD-POINT-142", "basis": "1 CREEKS", "city_side": "eastern side", "terrain_elev_m": 242.0, "model_use": "receiving-location evidence only; not used for current model discharge", "field_status": "needs field check before design use", "longitude": 77.100327, "latitude": 28.426363, "x_utm43n": 705716.3, "y_utm43n": 3146229.67 }, "geometry": { "type": "Point", "coordinates": [ 705716.304218736244366, 3146229.672314126044512 ] } },
{ "type": "Feature", "properties": { "outfall_id": "PO-004", "outfall_class": "probable nallah/creek connection", "source_layer": "MCG storm-water points", "source_id": "SWD-POINT-144", "basis": "1 CREEKS", "city_side": "eastern side", "terrain_elev_m": 243.0, "model_use": "receiving-location evidence only; not used for current model discharge", "field_status": "needs field check before design use", "longitude": 77.10171, "latitude": 28.426976, "x_utm43n": 705850.63, "y_utm43n": 3146299.95 }, "geometry": { "type": "Point", "coordinates": [ 705850.625522911548615, 3146299.954340972006321 ] } },
{ "type": "Feature", "properties": { "outfall_id": "PO-005", "outfall_class": "probable nallah/creek connection", "source_layer": "MCG storm-water points", "source_id": "SWD-POINT-143", "basis": "1 CREEKS", "city_side": "eastern side", "terrain_elev_m": 244.561, "model_use": "receiving-location evidence only; not used for current model discharge", "field_status": "needs field check before design use", "longitude": 77.102221, "latitude": 28.42762, "x_utm43n": 705899.38, "y_utm43n": 3146372.22 }, "geometry": { "type": "Point", "coordinates": [ 705899.375307095237076, 3146372.222617000341415 ] } },
{ "type": "Feature", "properties": { "outfall_id": "PO-006", "outfall_class": "probable trunk-drain connection", "source_layer": "MCG storm-water points", "source_id": "SWD-POINT-140", "basis": "2 END POINT LAST GMDA", "city_side": "eastern side", "terrain_elev_m": 240.703, "model_use": "receiving-location evidence only; not used for current model discharge", "field_status": "needs field check before design use", "longitude": 77.091309, "latitude": 28.42989, "x_utm43n": 704825.99, "y_utm43n": 3146605.17 }, "geometry": { "type": "Point", "coordinates": [ 704825.991309365956113, 3146605.167495811358094 ] } },
{ "type": "Feature", "properties": { "outfall_id": "PO-007", "outfall_class": "probable trunk-drain connection", "source_layer": "MCG storm-water points", "source_id": "SWD-POINT-141", "basis": "2 END POINT LAST GMDA", "city_side": "eastern side", "terrain_elev_m": 243.869, "model_use": "receiving-location evidence only; not used for current model discharge", "field_status": "needs field check before design use", "longitude": 77.094665, "latitude": 28.430905, "x_utm43n": 705152.83, "y_utm43n": 3146723.29 }, "geometry": { "type": "Point", "coordinates": [ 705152.82769949734211, 3146723.288774717599154 ] } },
{ "type": "Feature", "properties": { "outfall_id": "PO-008", "outfall_class": "probable nallah/creek connection", "source_layer": "MCG storm-water points", "source_id": "SWD-POINT-147", "basis": "1 CREEKS", "city_side": "eastern side", "terrain_elev_m": 250.5, "model_use": "receiving-location evidence only; not used for current model discharge", "field_status": "needs field check before design use", "longitude": 77.108989, "latitude": 28.430923, "x_utm43n": 706556.07, "y_utm43n": 3146749.83 }, "geometry": { "type": "Point", "coordinates": [ 706556.071085640694946, 3146749.831391794607043 ] } },
{ "type": "Feature", "properties": { "outfall_id": "PO-009", "outfall_class": "probable trunk-drain connection", "source_layer": "MCG storm-water points", "source_id": "SWD-POINT-139", "basis": "2 END POINT LAST GMDA", "city_side": "eastern side", "terrain_elev_m": 243.337, "model_use": "receiving-location evidence only; not used for current model discharge", "field_status": "needs field check before design use", "longitude": 77.090967, "latitude": 28.431493, "x_utm43n": 704789.44, "y_utm43n": 3146782.18 }, "geometry": { "type": "Point", "coordinates": [ 704789.437881196849048, 3146782.183136861771345 ] } },
{ "type": "Feature", "properties": { "outfall_id": "PO-010", "outfall_class": "probable nallah/creek connection", "source_layer": "MCG storm-water points", "source_id": "SWD-POINT-202", "basis": "1 CREEKS", "city_side": "eastern side", "terrain_elev_m": 244.702, "model_use": "receiving-location evidence only; not used for current model discharge", "field_status": "needs field check before design use", "longitude": 77.090685, "latitude": 28.450146, "x_utm43n": 704725.87, "y_utm43n": 3148848.91 }, "geometry": { "type": "Point", "coordinates": [ 704725.868357988074422, 3148848.912941532209516 ] } },
{ "type": "Feature", "properties": { "outfall_id": "PO-011", "outfall_class": "probable nallah/creek connection", "source_layer": "MCG storm-water points", "source_id": "SWD-POINT-201", "basis": "1 CREEKS", "city_side": "eastern side", "terrain_elev_m": 249.179, "model_use": "receiving-location evidence only; not used for current model discharge", "field_status": "needs field check before design use", "longitude": 77.089621, "latitude": 28.455902, "x_utm43n": 704610.55, "y_utm43n": 3149484.94 }, "geometry": { "type": "Point", "coordinates": [ 704610.548175477422774, 3149484.944564988836646 ] } },
{ "type": "Feature", "properties": { "outfall_id": "PO-012", "outfall_class": "probable trunk-drain connection", "source_layer": "MCG storm-water points", "source_id": "SWD-POINT-203", "basis": "1 GMDA LINE NOT SHOWN", "city_side": "eastern side", "terrain_elev_m": 250.0, "model_use": "receiving-location evidence only; not used for current model discharge", "field_status": "needs field check before design use", "longitude": 77.096785, "latitude": 28.459066, "x_utm43n": 705306.06, "y_utm43n": 3149847.85 }, "geometry": { "type": "Point", "coordinates": [ 705306.063135138712823, 3149847.850131712853909 ] } },
{ "type": "Feature", "properties": { "outfall_id": "PO-013", "outfall_class": "probable trunk-drain connection", "source_layer": "MCG storm-water points", "source_id": "SWD-POINT-229", "basis": "1 GMDA LINE NOT SHOWN", "city_side": "central city", "terrain_elev_m": 245.209, "model_use": "receiving-location evidence only; not used for current model discharge", "field_status": "needs field check before design use", "longitude": 77.068869, "latitude": 28.454941, "x_utm43n": 702579.89, "y_utm43n": 3149343.32 }, "geometry": { "type": "Point", "coordinates": [ 702579.892457973212004, 3149343.315995685756207 ] } },
{ "type": "Feature", "properties": { "outfall_id": "PO-014", "outfall_class": "probable nallah/creek connection", "source_layer": "MCG storm-water points", "source_id": "SWD-POINT-187", "basis": "1 (CREEKS)", "city_side": "eastern side", "terrain_elev_m": 247.828, "model_use": "receiving-location evidence only; not used for current model discharge", "field_status": "needs field check before design use", "longitude": 77.089835, "latitude": 28.462463, "x_utm43n": 704618.87, "y_utm43n": 3150212.51 }, "geometry": { "type": "Point", "coordinates": [ 704618.866875175386667, 3150212.514972599223256 ] } },
{ "type": "Feature", "properties": { "outfall_id": "PO-015", "outfall_class": "probable nallah/creek connection", "source_layer": "MCG storm-water points", "source_id": "SWD-POINT-186", "basis": "1 CREEKS", "city_side": "eastern side", "terrain_elev_m": 248.98, "model_use": "receiving-location evidence only; not used for current model discharge", "field_status": "needs field check before design use", "longitude": 77.092424, "latitude": 28.462536, "x_utm43n": 704872.27, "y_utm43n": 3150224.94 }, "geometry": { "type": "Point", "coordinates": [ 704872.270919309929013, 3150224.936545260250568 ] } },
{ "type": "Feature", "properties": { "outfall_id": "PO-016", "outfall_class": "probable nallah/creek connection", "source_layer": "MCG storm-water points", "source_id": "SWD-POINT-188", "basis": "1 (CREEKS)", "city_side": "eastern side", "terrain_elev_m": 246.67, "model_use": "receiving-location evidence only; not used for current model discharge", "field_status": "needs field check before design use", "longitude": 77.087884, "latitude": 28.467818, "x_utm43n": 704417.49, "y_utm43n": 3150802.65 }, "geometry": { "type": "Point", "coordinates": [ 704417.492740157060325, 3150802.646498987451196 ] } },
{ "type": "Feature", "properties": { "outfall_id": "PO-017", "outfall_class": "probable trunk-drain connection", "source_layer": "MCG storm-water points", "source_id": "SWD-POINT-205", "basis": "1 (PIPE DRAIN GMDA SIZE 1200 MM)", "city_side": "eastern side", "terrain_elev_m": 245.804, "model_use": "receiving-location evidence only; not used for current model discharge", "field_status": "needs field check before design use", "longitude": 77.088275, "latitude": 28.468055, "x_utm43n": 704455.32, "y_utm43n": 3150829.54 }, "geometry": { "type": "Point", "coordinates": [ 704455.316107431426644, 3150829.544637814164162 ] } },
{ "type": "Feature", "properties": { "outfall_id": "PO-018", "outfall_class": "probable nallah/creek connection", "source_layer": "MCG storm-water points", "source_id": "SWD-POINT-204", "basis": "1 (CREEKS)", "city_side": "eastern side", "terrain_elev_m": 247.152, "model_use": "receiving-location evidence only; not used for current model discharge", "field_status": "needs field check before design use", "longitude": 77.087733, "latitude": 28.468118, "x_utm43n": 704402.09, "y_utm43n": 3150835.64 }, "geometry": { "type": "Point", "coordinates": [ 704402.087320708669722, 3150835.635723749175668 ] } },
{ "type": "Feature", "properties": { "outfall_id": "PO-019", "outfall_class": "probable pond connection", "source_layer": "MCG storm-water points", "source_id": "SWD-POINT-134", "basis": "2 IN POND", "city_side": "central city", "terrain_elev_m": 231.18, "model_use": "receiving-location evidence only; not used for current model discharge", "field_status": "needs field check before design use", "longitude": 77.025685, "latitude": 28.375268, "x_utm43n": 698499.03, "y_utm43n": 3140441.94 }, "geometry": { "type": "Point", "coordinates": [ 698499.034545928472653, 3140441.941446680109948 ] } },
{ "type": "Feature", "properties": { "outfall_id": "PO-020", "outfall_class": "probable trunk-drain connection", "source_layer": "MCG storm-water points", "source_id": "SWD-POINT-161", "basis": "1 GMDA LINE NOT SHOWN", "city_side": "central city", "terrain_elev_m": 226.256, "model_use": "receiving-location evidence only; not used for current model discharge", "field_status": "needs field check before design use", "longitude": 77.032145, "latitude": 28.448907, "x_utm43n": 698994.42, "y_utm43n": 3148613.23 }, "geometry": { "type": "Point", "coordinates": [ 698994.421692197793163, 3148613.231059702113271 ] } },
{ "type": "Feature", "properties": { "outfall_id": "PO-021", "outfall_class": "probable trunk-drain connection", "source_layer": "MCG storm-water points", "source_id": "SWD-POINT-162", "basis": "1 GMDA LINE NOT SHOWN", "city_side": "central city", "terrain_elev_m": 226.356, "model_use": "receiving-location evidence only; not used for current model discharge", "field_status": "needs field check before design use", "longitude": 77.028681, "latitude": 28.456597, "x_utm43n": 698640.74, "y_utm43n": 3149459.79 }, "geometry": { "type": "Point", "coordinates": [ 698640.740854918956757, 3149459.79112420976162 ] } },
{ "type": "Feature", "properties": { "outfall_id": "PO-022", "outfall_class": "probable trunk-drain connection", "source_layer": "MCG storm-water points", "source_id": "SWD-POINT-163", "basis": "1 GMDA LINE NOT SHOWN", "city_side": "central city", "terrain_elev_m": 224.838, "model_use": "receiving-location evidence only; not used for current model discharge", "field_status": "needs field check before design use", "longitude": 77.027758, "latitude": 28.457861, "x_utm43n": 698548.04, "y_utm43n": 3149598.34 }, "geometry": { "type": "Point", "coordinates": [ 698548.036514135077596, 3149598.343940373510122 ] } },
{ "type": "Feature", "properties": { "outfall_id": "PO-023", "outfall_class": "probable trunk-drain connection", "source_layer": "MCG storm-water points", "source_id": "SWD-POINT-112", "basis": "1 GMDA LINE NOT SHOWN", "city_side": "western side", "terrain_elev_m": 223.5, "model_use": "receiving-location evidence only; not used for current model discharge", "field_status": "needs field check before design use", "longitude": 77.015999, "latitude": 28.456928, "x_utm43n": 697398.13, "y_utm43n": 3149475.54 }, "geometry": { "type": "Point", "coordinates": [ 697398.133635494858027, 3149475.544878091663122 ] } },
{ "type": "Feature", "properties": { "outfall_id": "PO-024", "outfall_class": "probable open-drain exit", "source_layer": "MCG storm-water points", "source_id": "SWD-POINT-44", "basis": "2 END POINT", "city_side": "western side", "terrain_elev_m": 219.571, "model_use": "receiving-location evidence only; not used for current model discharge", "field_status": "needs field check before design use", "longitude": 76.979577, "latitude": 28.462518, "x_utm43n": 693820.86, "y_utm43n": 3150035.78 }, "geometry": { "type": "Point", "coordinates": [ 693820.856938182376325, 3150035.780578728765249 ] } },
{ "type": "Feature", "properties": { "outfall_id": "PO-025", "outfall_class": "probable trunk-drain connection", "source_layer": "MCG storm-water points", "source_id": "SWD-POINT-2", "basis": "1 CONNECTED TO GMDA LEG-3 THROUGH ROAD SIDE DRAIN", "city_side": "western side", "terrain_elev_m": 215.193, "model_use": "receiving-location evidence only; not used for current model discharge", "field_status": "needs field check before design use", "longitude": 76.960495, "latitude": 28.470075, "x_utm43n": 691938.46, "y_utm43n": 3150842.5 }, "geometry": { "type": "Point", "coordinates": [ 691938.457316911779344, 3150842.49934765137732 ] } },
{ "type": "Feature", "properties": { "outfall_id": "PO-026", "outfall_class": "probable trunk-drain connection", "source_layer": "MCG storm-water points", "source_id": "SWD-POINT-160", "basis": "1 GMDA LINE NOT SHOWN", "city_side": "western side", "terrain_elev_m": 222.148, "model_use": "receiving-location evidence only; not used for current model discharge", "field_status": "needs field check before design use", "longitude": 77.023084, "latitude": 28.470281, "x_utm43n": 698067.09, "y_utm43n": 3150967.0 }, "geometry": { "type": "Point", "coordinates": [ 698067.087334219599143, 3150966.997677856590599 ] } },
{ "type": "Feature", "properties": { "outfall_id": "PO-027", "outfall_class": "probable trunk-drain connection", "source_layer": "MCG storm-water points", "source_id": "SWD-POINT-135", "basis": "1 GMDA LINE NOT SHOWN", "city_side": "western side", "terrain_elev_m": 221.745, "model_use": "receiving-location evidence only; not used for current model discharge", "field_status": "needs field check before design use", "longitude": 77.019828, "latitude": 28.472577, "x_utm43n": 697743.93, "y_utm43n": 3151216.08 }, "geometry": { "type": "Point", "coordinates": [ 697743.925236647250131, 3151216.080397699493915 ] } },
{ "type": "Feature", "properties": { "outfall_id": "PO-028", "outfall_class": "probable trunk-drain connection", "source_layer": "MCG storm-water points", "source_id": "SWD-POINT-152", "basis": "1 GMDA LINE", "city_side": "western side", "terrain_elev_m": 220.085, "model_use": "receiving-location evidence only; not used for current model discharge", "field_status": "needs field check before design use", "longitude": 77.021077, "latitude": 28.477615, "x_utm43n": 697856.88, "y_utm43n": 3151776.41 }, "geometry": { "type": "Point", "coordinates": [ 697856.881014095619321, 3151776.41349595412612 ] } },
{ "type": "Feature", "properties": { "outfall_id": "PO-029", "outfall_class": "probable trunk-drain connection", "source_layer": "MCG storm-water points", "source_id": "SWD-POINT-153", "basis": "1 GMDA LINE", "city_side": "western side", "terrain_elev_m": 220.155, "model_use": "receiving-location evidence only; not used for current model discharge", "field_status": "needs field check before design use", "longitude": 77.022635, "latitude": 28.479898, "x_utm43n": 698005.14, "y_utm43n": 3152032.03 }, "geometry": { "type": "Point", "coordinates": [ 698005.14086695201695, 3152032.031845659017563 ] } },
{ "type": "Feature", "properties": { "outfall_id": "PO-030", "outfall_class": "probable trunk-drain connection", "source_layer": "MCG storm-water points", "source_id": "SWD-POINT-148", "basis": "1 (LEG-2)", "city_side": "western side", "terrain_elev_m": 219.008, "model_use": "receiving-location evidence only; not used for current model discharge", "field_status": "needs field check before design use", "longitude": 77.023452, "latitude": 28.48166, "x_utm43n": 698081.86, "y_utm43n": 3152228.67 }, "geometry": { "type": "Point", "coordinates": [ 698081.856285560876131, 3152228.668644808232784 ] } },
{ "type": "Feature", "properties": { "outfall_id": "PO-031", "outfall_class": "probable trunk-drain connection", "source_layer": "MCG storm-water points", "source_id": "SWD-POINT-71", "basis": "1 (LEG 1)", "city_side": "central city", "terrain_elev_m": 225.983, "model_use": "receiving-location evidence only; not used for current model discharge", "field_status": "needs field check before design use", "longitude": 77.052796, "latitude": 28.505776, "x_utm43n": 700909.42, "y_utm43n": 3154949.99 }, "geometry": { "type": "Point", "coordinates": [ 700909.415481101721525, 3154949.986781474202871 ] } },
{ "type": "Feature", "properties": { "outfall_id": "PO-032", "outfall_class": "probable trunk-drain connection", "source_layer": "MCG storm-water points", "source_id": "SWD-POINT-70", "basis": "1 (LEG 1)", "city_side": "central city", "terrain_elev_m": 225.808, "model_use": "receiving-location evidence only; not used for current model discharge", "field_status": "needs field check before design use", "longitude": 77.052152, "latitude": 28.506172, "x_utm43n": 700845.57, "y_utm43n": 3154992.72 }, "geometry": { "type": "Point", "coordinates": [ 700845.572850343538448, 3154992.724646292626858 ] } },
{ "type": "Feature", "properties": { "outfall_id": "PO-033", "outfall_class": "probable trunk-drain connection", "source_layer": "MCG storm-water points", "source_id": "SWD-POINT-76", "basis": "1 (LEG 1)", "city_side": "central city", "terrain_elev_m": 225.258, "model_use": "receiving-location evidence only; not used for current model discharge", "field_status": "needs field check before design use", "longitude": 77.051737, "latitude": 28.506431, "x_utm43n": 700804.55, "y_utm43n": 3155020.78 }, "geometry": { "type": "Point", "coordinates": [ 700804.549034430645406, 3155020.781119560822845 ] } },
{ "type": "Feature", "properties": { "outfall_id": "PO-034", "outfall_class": "probable trunk-drain connection", "source_layer": "MCG storm-water points", "source_id": "SWD-POINT-69", "basis": "1 (LEG 1)", "city_side": "central city", "terrain_elev_m": 225.094, "model_use": "receiving-location evidence only; not used for current model discharge", "field_status": "needs field check before design use", "longitude": 77.049054, "latitude": 28.507623, "x_utm43n": 700539.6, "y_utm43n": 3155148.37 }, "geometry": { "type": "Point", "coordinates": [ 700539.599671524949372, 3155148.369940929114819 ] } },
{ "type": "Feature", "properties": { "outfall_id": "PO-035", "outfall_class": "probable trunk-drain connection", "source_layer": "MCG storm-water points", "source_id": "SWD-POINT-75", "basis": "1 (LEG 1)", "city_side": "central city", "terrain_elev_m": 221.953, "model_use": "receiving-location evidence only; not used for current model discharge", "field_status": "needs field check before design use", "longitude": 77.048071, "latitude": 28.50797, "x_utm43n": 700442.69, "y_utm43n": 3155185.23 }, "geometry": { "type": "Point", "coordinates": [ 700442.693669428117573, 3155185.230440504848957 ] } },
{ "type": "Feature", "properties": { "outfall_id": "PO-036", "outfall_class": "probable trunk-drain connection", "source_layer": "MCG storm-water points", "source_id": "SWD-POINT-72", "basis": "1 (LEG 1)", "city_side": "central city", "terrain_elev_m": 222.783, "model_use": "receiving-location evidence only; not used for current model discharge", "field_status": "needs field check before design use", "longitude": 77.046501, "latitude": 28.508514, "x_utm43n": 700288.03, "y_utm43n": 3155242.93 }, "geometry": { "type": "Point", "coordinates": [ 700288.026895644143224, 3155242.930305067449808 ] } },
{ "type": "Feature", "properties": { "outfall_id": "PO-037", "outfall_class": "probable trunk-drain connection", "source_layer": "MCG storm-water points", "source_id": "SWD-POINT-77", "basis": "1 (LEG 1)", "city_side": "central city", "terrain_elev_m": 227.56, "model_use": "receiving-location evidence only; not used for current model discharge", "field_status": "needs field check before design use", "longitude": 77.05659, "latitude": 28.503448, "x_utm43n": 701285.26, "y_utm43n": 3154698.31 }, "geometry": { "type": "Point", "coordinates": [ 701285.261168112978339, 3154698.307733992114663 ] } },
{ "type": "Feature", "properties": { "outfall_id": "PO-038", "outfall_class": "probable open-drain exit", "source_layer": "MCG storm-water points", "source_id": "SWD-POINT-7", "basis": "2 END POINT", "city_side": "western side", "terrain_elev_m": 215.797, "model_use": "receiving-location evidence only; not used for current model discharge", "field_status": "needs field check before design use", "longitude": 76.990642, "latitude": 28.50143, "x_utm43n": 694832.95, "y_utm43n": 3154365.81 }, "geometry": { "type": "Point", "coordinates": [ 694832.951855902560055, 3154365.813816156238317 ] } },
{ "type": "Feature", "properties": { "outfall_id": "PO-039", "outfall_class": "probable trunk-drain connection", "source_layer": "MCG storm-water points", "source_id": "SWD-POINT-79", "basis": "1 (LEG 1)", "city_side": "central city", "terrain_elev_m": 217.411, "model_use": "receiving-location evidence only; not used for current model discharge", "field_status": "needs field check before design use", "longitude": 77.029523, "latitude": 28.510822, "x_utm43n": 698621.66, "y_utm43n": 3155470.41 }, "geometry": { "type": "Point", "coordinates": [ 698621.658502436475828, 3155470.41450177738443 ] } },
{ "type": "Feature", "properties": { "outfall_id": "PO-040", "outfall_class": "probable trunk-drain connection", "source_layer": "MCG storm-water points", "source_id": "SWD-POINT-81", "basis": "1 (LEG 1)", "city_side": "central city", "terrain_elev_m": 217.868, "model_use": "receiving-location evidence only; not used for current model discharge", "field_status": "needs field check before design use", "longitude": 77.030894, "latitude": 28.510894, "x_utm43n": 698755.77, "y_utm43n": 3155480.62 }, "geometry": { "type": "Point", "coordinates": [ 698755.768920186674222, 3155480.620895374566317 ] } },
{ "type": "Feature", "properties": { "outfall_id": "PO-041", "outfall_class": "probable trunk-drain connection", "source_layer": "MCG storm-water points", "source_id": "SWD-POINT-74", "basis": "1 (LEG 1)", "city_side": "central city", "terrain_elev_m": 220.749, "model_use": "receiving-location evidence only; not used for current model discharge", "field_status": "needs field check before design use", "longitude": 77.044019, "latitude": 28.509374, "x_utm43n": 700043.42, "y_utm43n": 3155334.04 }, "geometry": { "type": "Point", "coordinates": [ 700043.416867845691741, 3155334.035564316436648 ] } },
{ "type": "Feature", "properties": { "outfall_id": "PO-042", "outfall_class": "probable trunk-drain connection", "source_layer": "MCG storm-water points", "source_id": "SWD-POINT-73", "basis": "1 (LEG 1)", "city_side": "central city", "terrain_elev_m": 219.77, "model_use": "receiving-location evidence only; not used for current model discharge", "field_status": "needs field check before design use", "longitude": 77.042954, "latitude": 28.509741, "x_utm43n": 699938.43, "y_utm43n": 3155372.94 }, "geometry": { "type": "Point", "coordinates": [ 699938.430861038155854, 3155372.941043371334672 ] } },
{ "type": "Feature", "properties": { "outfall_id": "PO-043", "outfall_class": "probable trunk-drain connection", "source_layer": "MCG storm-water points", "source_id": "SWD-POINT-90", "basis": "2 GMDA LINE", "city_side": "central city", "terrain_elev_m": 220.849, "model_use": "receiving-location evidence only; not used for current model discharge", "field_status": "needs field check before design use", "longitude": 77.04235, "latitude": 28.51081, "x_utm43n": 699877.29, "y_utm43n": 3155490.44 }, "geometry": { "type": "Point", "coordinates": [ 699877.291644915356301, 3155490.440246756188571 ] } },
{ "type": "Feature", "properties": { "outfall_id": "PO-044", "outfall_class": "probable trunk-drain connection", "source_layer": "MCG storm-water points", "source_id": "SWD-POINT-88", "basis": "2 GMDA LINE", "city_side": "central city", "terrain_elev_m": 220.916, "model_use": "receiving-location evidence only; not used for current model discharge", "field_status": "needs field check before design use", "longitude": 77.044219, "latitude": 28.512967, "x_utm43n": 700056.23, "y_utm43n": 3155732.55 }, "geometry": { "type": "Point", "coordinates": [ 700056.225804900750518, 3155732.548420256003737 ] } },
{ "type": "Feature", "properties": { "outfall_id": "PO-045", "outfall_class": "probable trunk-drain connection", "source_layer": "MCG storm-water points", "source_id": "SWD-POINT-89", "basis": "2 GMDA LINE", "city_side": "central city", "terrain_elev_m": 220.969, "model_use": "receiving-location evidence only; not used for current model discharge", "field_status": "needs field check before design use", "longitude": 77.044768, "latitude": 28.513614, "x_utm43n": 700108.72, "y_utm43n": 3155805.18 }, "geometry": { "type": "Point", "coordinates": [ 700108.719100001268089, 3155805.177200002595782 ] } },
{ "type": "Feature", "properties": { "outfall_id": "PO-046", "outfall_class": "probable nallah/creek connection", "source_layer": "MCG master storm-water line", "source_id": "219", "basis": "Creeks", "city_side": "eastern side", "terrain_elev_m": 253.404, "model_use": "receiving-location evidence only; not used for current model discharge", "field_status": "needs field check before design use", "longitude": 77.112676, "latitude": 28.432561, "x_utm43n": 706914.02, "y_utm43n": 3146937.71 }, "geometry": { "type": "Point", "coordinates": [ 706914.019929562229663, 3146937.709599797148257, 0.0 ] } },
{ "type": "Feature", "properties": { "outfall_id": "PO-047", "outfall_class": "probable nallah/creek connection", "source_layer": "MCG master storm-water line", "source_id": "219", "basis": "Creeks", "city_side": "eastern side", "terrain_elev_m": 235.66, "model_use": "receiving-location evidence only; not used for current model discharge", "field_status": "needs field check before design use", "longitude": 77.087982, "latitude": 28.416519, "x_utm43n": 704525.83, "y_utm43n": 3145117.64 }, "geometry": { "type": "Point", "coordinates": [ 704525.828788917511702, 3145117.635361971333623, 0.0 ] } },
{ "type": "Feature", "properties": { "outfall_id": "PO-048", "outfall_class": "probable nallah/creek connection", "source_layer": "MCG master storm-water line", "source_id": "220", "basis": "Creeks", "city_side": "eastern side", "terrain_elev_m": 253.05, "model_use": "receiving-location evidence only; not used for current model discharge", "field_status": "needs field check before design use", "longitude": 77.10577, "latitude": 28.442919, "x_utm43n": 706217.38, "y_utm43n": 3148073.82 }, "geometry": { "type": "Point", "coordinates": [ 706217.383423978462815, 3148073.820034736767411, 0.0 ] } },
{ "type": "Feature", "properties": { "outfall_id": "PO-049", "outfall_class": "probable nallah/creek connection", "source_layer": "MCG master storm-water line", "source_id": "220", "basis": "Creeks", "city_side": "eastern side", "terrain_elev_m": 245.827, "model_use": "receiving-location evidence only; not used for current model discharge", "field_status": "needs field check before design use", "longitude": 77.093275, "latitude": 28.43995, "x_utm43n": 704999.2, "y_utm43n": 3147723.41 }, "geometry": { "type": "Point", "coordinates": [ 704999.202350597130135, 3147723.414661112707108, 0.0 ] } },
{ "type": "Feature", "properties": { "outfall_id": "PO-050", "outfall_class": "probable nallah/creek connection", "source_layer": "MCG master storm-water line", "source_id": "221", "basis": "Creeks", "city_side": "eastern side", "terrain_elev_m": 278.193, "model_use": "receiving-location evidence only; not used for current model discharge", "field_status": "needs field check before design use", "longitude": 77.115785, "latitude": 28.453806, "x_utm43n": 707177.23, "y_utm43n": 3149297.54 }, "geometry": { "type": "Point", "coordinates": [ 707177.233882045373321, 3149297.541443915572017, 0.0 ] } },
{ "type": "Feature", "properties": { "outfall_id": "PO-051", "outfall_class": "probable nallah/creek connection", "source_layer": "MCG master storm-water line", "source_id": "221", "basis": "Creeks", "city_side": "eastern side", "terrain_elev_m": 245.369, "model_use": "receiving-location evidence only; not used for current model discharge", "field_status": "needs field check before design use", "longitude": 77.087955, "latitude": 28.45003, "x_utm43n": 704458.71, "y_utm43n": 3148831.44 }, "geometry": { "type": "Point", "coordinates": [ 704458.712216832325794, 3148831.435123450122774, 0.0 ] } },
{ "type": "Feature", "properties": { "outfall_id": "PO-052", "outfall_class": "probable nallah/creek connection", "source_layer": "MCG master storm-water line", "source_id": "222", "basis": "Creeks", "city_side": "eastern side", "terrain_elev_m": 251.323, "model_use": "receiving-location evidence only; not used for current model discharge", "field_status": "needs field check before design use", "longitude": 77.097255, "latitude": 28.462891, "x_utm43n": 705344.74, "y_utm43n": 3150272.54 }, "geometry": { "type": "Point", "coordinates": [ 705344.737133489921689, 3150272.537340689450502, 0.0 ] } },
{ "type": "Feature", "properties": { "outfall_id": "PO-053", "outfall_class": "probable nallah/creek connection", "source_layer": "MCG master storm-water line", "source_id": "222", "basis": "Creeks", "city_side": "eastern side", "terrain_elev_m": 248.305, "model_use": "receiving-location evidence only; not used for current model discharge", "field_status": "needs field check before design use", "longitude": 77.089804, "latitude": 28.462379, "x_utm43n": 704615.96, "y_utm43n": 3150203.06 }, "geometry": { "type": "Point", "coordinates": [ 704615.95632849726826, 3150203.063396962359548, 0.0 ] } },
{ "type": "Feature", "properties": { "outfall_id": "PO-054", "outfall_class": "probable nallah/creek connection", "source_layer": "MCG master storm-water line", "source_id": "154", "basis": "Khachha Drain Running", "city_side": "western side", "terrain_elev_m": 213.198, "model_use": "receiving-location evidence only; not used for current model discharge", "field_status": "needs field check before design use", "longitude": 76.958793, "latitude": 28.480298, "x_utm43n": 691753.26, "y_utm43n": 3151972.69 }, "geometry": { "type": "Point", "coordinates": [ 691753.260874968604185, 3151972.69253444718197, 0.0 ] } },
{ "type": "Feature", "properties": { "outfall_id": "PO-055", "outfall_class": "probable nallah/creek connection", "source_layer": "MCG master storm-water line", "source_id": "154", "basis": "Khachha Drain Running", "city_side": "western side", "terrain_elev_m": 211.429, "model_use": "receiving-location evidence only; not used for current model discharge", "field_status": "needs field check before design use", "longitude": 76.947026, "latitude": 28.504779, "x_utm43n": 690557.11, "y_utm43n": 3154666.94 }, "geometry": { "type": "Point", "coordinates": [ 690557.110869315685704, 3154666.939556080847979, 0.0 ] } },
{ "type": "Feature", "properties": { "outfall_id": "PO-056", "outfall_class": "probable open-drain exit", "source_layer": "MCG storm-water line", "source_id": "SWD-LINE-2722", "basis": "OPEN DRAIN terminal on western side", "city_side": "western side", "terrain_elev_m": 215.136, "model_use": "receiving-location evidence only; not used for current model discharge", "field_status": "needs field check before design use", "longitude": 76.999531, "latitude": 28.466711, "x_utm43n": 695767.21, "y_utm43n": 3150532.74 }, "geometry": { "type": "Point", "coordinates": [ 695767.214941268786788, 3150532.742914067581296 ] } },
{ "type": "Feature", "properties": { "outfall_id": "PO-057", "outfall_class": "probable open-drain exit", "source_layer": "MCG storm-water line", "source_id": "SWD-LINE-2722", "basis": "OPEN DRAIN terminal on western side", "city_side": "western side", "terrain_elev_m": 214.785, "model_use": "receiving-location evidence only; not used for current model discharge", "field_status": "needs field check before design use", "longitude": 76.995419, "latitude": 28.465501, "x_utm43n": 695366.8, "y_utm43n": 3150392.0 }, "geometry": { "type": "Point", "coordinates": [ 695366.799634165130556, 3150391.999475169926882 ] } },
{ "type": "Feature", "properties": { "outfall_id": "PO-058", "outfall_class": "probable open-drain exit", "source_layer": "MCG storm-water line", "source_id": "SWD-LINE-1065", "basis": "OPEN DRAIN terminal on western side", "city_side": "western side", "terrain_elev_m": 218.645, "model_use": "receiving-location evidence only; not used for current model discharge", "field_status": "needs field check before design use", "longitude": 77.006387, "latitude": 28.473154, "x_utm43n": 696426.7, "y_utm43n": 3151257.98 }, "geometry": { "type": "Point", "coordinates": [ 696426.703090528026223, 3151257.980152720585465 ] } },
{ "type": "Feature", "properties": { "outfall_id": "PO-059", "outfall_class": "probable open-drain exit", "source_layer": "MCG storm-water line", "source_id": "SWD-LINE-1065", "basis": "OPEN DRAIN terminal on western side", "city_side": "western side", "terrain_elev_m": 216.76, "model_use": "receiving-location evidence only; not used for current model discharge", "field_status": "needs field check before design use", "longitude": 77.003951, "latitude": 28.472311, "x_utm43n": 696189.68, "y_utm43n": 3151160.6 }, "geometry": { "type": "Point", "coordinates": [ 696189.684540891088545, 3151160.599180810153484 ] } },
{ "type": "Feature", "properties": { "outfall_id": "PO-060", "outfall_class": "probable open-drain exit", "source_layer": "MCG storm-water line", "source_id": "SWD-LINE-1063", "basis": "OPEN DRAIN terminal on western side", "city_side": "western side", "terrain_elev_m": 217.362, "model_use": "receiving-location evidence only; not used for current model discharge", "field_status": "needs field check before design use", "longitude": 77.010568, "latitude": 28.473818, "x_utm43n": 696834.87, "y_utm43n": 3151338.43 }, "geometry": { "type": "Point", "coordinates": [ 696834.86609516851604, 3151338.429958123713732 ] } },
{ "type": "Feature", "properties": { "outfall_id": "PO-061", "outfall_class": "probable open-drain exit", "source_layer": "MCG storm-water line", "source_id": "SWD-LINE-1063", "basis": "OPEN DRAIN terminal on western side", "city_side": "western side", "terrain_elev_m": 217.48, "model_use": "receiving-location evidence only; not used for current model discharge", "field_status": "needs field check before design use", "longitude": 77.006734, "latitude": 28.47238, "x_utm43n": 696462.12, "y_utm43n": 3151172.69 }, "geometry": { "type": "Point", "coordinates": [ 696462.120349674485624, 3151172.694626655429602 ] } },
{ "type": "Feature", "properties": { "outfall_id": "PO-062", "outfall_class": "probable open-drain exit", "source_layer": "MCG storm-water line", "source_id": "SWD-LINE-1064", "basis": "OPEN DRAIN terminal on western side", "city_side": "western side", "terrain_elev_m": 218.157, "model_use": "receiving-location evidence only; not used for current model discharge", "field_status": "needs field check before design use", "longitude": 77.005907, "latitude": 28.474242, "x_utm43n": 696377.67, "y_utm43n": 3151377.69 }, "geometry": { "type": "Point", "coordinates": [ 696377.671795359812677, 3151377.694203317165375 ] } },
{ "type": "Feature", "properties": { "outfall_id": "PO-063", "outfall_class": "probable open-drain exit", "source_layer": "MCG storm-water line", "source_id": "SWD-LINE-1062", "basis": "OPEN DRAIN terminal on western side", "city_side": "western side", "terrain_elev_m": 220.003, "model_use": "receiving-location evidence only; not used for current model discharge", "field_status": "needs field check before design use", "longitude": 77.011784, "latitude": 28.47131, "x_utm43n": 696958.65, "y_utm43n": 3151062.49 }, "geometry": { "type": "Point", "coordinates": [ 696958.648025973699987, 3151062.490108914673328 ] } },
{ "type": "Feature", "properties": { "outfall_id": "PO-064", "outfall_class": "probable open-drain exit", "source_layer": "MCG storm-water line", "source_id": "SWD-LINE-1062", "basis": "OPEN DRAIN terminal on western side", "city_side": "western side", "terrain_elev_m": 217.235, "model_use": "receiving-location evidence only; not used for current model discharge", "field_status": "needs field check before design use", "longitude": 77.009331, "latitude": 28.475486, "x_utm43n": 696710.7, "y_utm43n": 3151521.16 }, "geometry": { "type": "Point", "coordinates": [ 696710.69688849709928, 3151521.155983297154307 ] } },
{ "type": "Feature", "properties": { "outfall_id": "PO-065", "outfall_class": "probable open-drain exit", "source_layer": "MCG storm-water line", "source_id": "SWD-LINE-1060", "basis": "OPEN DRAIN terminal on western side", "city_side": "western side", "terrain_elev_m": 219.593, "model_use": "receiving-location evidence only; not used for current model discharge", "field_status": "needs field check before design use", "longitude": 77.015678, "latitude": 28.473152, "x_utm43n": 697336.5, "y_utm43n": 3151273.01 }, "geometry": { "type": "Point", "coordinates": [ 697336.503869281150401, 3151273.011598123237491 ] } },
{ "type": "Feature", "properties": { "outfall_id": "PO-066", "outfall_class": "probable open-drain exit", "source_layer": "MCG storm-water line", "source_id": "SWD-LINE-1060", "basis": "OPEN DRAIN terminal on western side", "city_side": "western side", "terrain_elev_m": 220.879, "model_use": "receiving-location evidence only; not used for current model discharge", "field_status": "needs field check before design use", "longitude": 77.01489, "latitude": 28.474832, "x_utm43n": 697256.24, "y_utm43n": 3151457.87 }, "geometry": { "type": "Point", "coordinates": [ 697256.242354589514434, 3151457.871933121234179 ] } },
{ "type": "Feature", "properties": { "outfall_id": "PO-067", "outfall_class": "probable open-drain exit", "source_layer": "MCG storm-water line", "source_id": "SWD-LINE-1061", "basis": "OPEN DRAIN terminal on western side", "city_side": "western side", "terrain_elev_m": 217.804, "model_use": "receiving-location evidence only; not used for current model discharge", "field_status": "needs field check before design use", "longitude": 77.010971, "latitude": 28.473098, "x_utm43n": 696875.64, "y_utm43n": 3151259.3 }, "geometry": { "type": "Point", "coordinates": [ 696875.638468378223479, 3151259.301744312047958 ] } }
]
}
