{
"type": "FeatureCollection",
"name": "source_listed_outfalls",
"crs": { "type": "name", "properties": { "name": "urn:ogc:def:crs:EPSG::32643" } },
"features": [
{ "type": "Feature", "properties": { "outfall_id": "SO-01", "outfall_class": "raw source-listed outfall node", "source_layer": "SWMM nodes", "source_id": "Node_16501", "source_type": "OUTFALL", "source_out_type": "FREE", "source_invert_elev": 0.0, "city_side": "western side", "terrain_elev_m": 211.429, "model_use": "reference only; not used for model discharge", "field_status": "source says outfall, but current model discharges only through main drain legs", "longitude": 76.947026, "latitude": 28.504779, "x_utm43n": 690557.11, "y_utm43n": 3154666.94 }, "geometry": { "type": "Point", "coordinates": [ 690557.110869317082688, 3154666.939556076191366 ] } },
{ "type": "Feature", "properties": { "outfall_id": "SO-02", "outfall_class": "raw source-listed outfall node", "source_layer": "SWMM nodes", "source_id": "Node_17015", "source_type": "OUTFALL", "source_out_type": "FREE", "source_invert_elev": 0.0, "city_side": "western side", "terrain_elev_m": 212.253, "model_use": "reference only; not used for model discharge", "field_status": "source says outfall, but current model discharges only through main drain legs", "longitude": 76.965178, "latitude": 28.512943, "x_utm43n": 692319.24, "y_utm43n": 3155600.6 }, "geometry": { "type": "Point", "coordinates": [ 692319.239393564523198, 3155600.603090072982013 ] } },
{ "type": "Feature", "properties": { "outfall_id": "SO-03", "outfall_class": "raw source-listed outfall node", "source_layer": "SWMM nodes", "source_id": "Node_17136", "source_type": "OUTFALL", "source_out_type": "FREE", "source_invert_elev": 0.0, "city_side": "western side", "terrain_elev_m": 212.338, "model_use": "reference only; not used for model discharge", "field_status": "source says outfall, but current model discharges only through main drain legs", "longitude": 76.972729, "latitude": 28.515838, "x_utm43n": 693053.11, "y_utm43n": 3155933.52 }, "geometry": { "type": "Point", "coordinates": [ 693053.109442044165917, 3155933.522810950409621 ] } },
{ "type": "Feature", "properties": { "outfall_id": "SO-04", "outfall_class": "raw source-listed outfall node", "source_layer": "SWMM nodes", "source_id": "Node_17286", "source_type": "OUTFALL", "source_out_type": "FREE", "source_invert_elev": 0.0, "city_side": "western side", "terrain_elev_m": 211.363, "model_use": "reference only; not used for model discharge", "field_status": "source says outfall, but current model discharges only through main drain legs", "longitude": 77.000946, "latitude": 28.531385, "x_utm43n": 695786.35, "y_utm43n": 3157702.25 }, "geometry": { "type": "Point", "coordinates": [ 695786.346327785868198, 3157702.245626694522798 ] } }
]
}
