{
"type": "FeatureCollection",
"name": "trunk_drain_legs",
"crs": { "type": "name", "properties": { "name": "urn:ogc:def:crs:EPSG::32643" } },
"features": [
{ "type": "Feature", "properties": { "trunk_id": "TRUNK-LEG-3", "trunk_name": "Leg 3 / Badshahpur Drain", "source_name": "Badshapur Drain (Leg 3)", "source_length": 24.770677110299999, "source_discharge": null, "model_role": "main downstream carrier; assign capacity and tailwater scenario before coupled runs", "field_status": "source layer present; confirm cross-section, blockage and tailwater in field" }, "geometry": { "type": "LineString", "coordinates": [ [ 690473.231172978295945, 3154752.062228405848145 ], [ 690758.219606114318594, 3154409.448704607784748 ], [ 691260.474613156518899, 3153613.152743769343942 ], [ 691753.260874967323616, 3151972.692534448113292 ], [ 692177.359246333129704, 3151231.851297079119831 ], [ 692165.524459828156978, 3151203.860426146071404 ], [ 692146.032901025842875, 3151172.186643106862903 ], [ 692135.01719381660223, 3151126.92645473126322 ], [ 692107.640825587208383, 3151014.445289640221745 ], [ 692084.388228024588898, 3150905.120411548763514 ], [ 692029.756028782110661, 3150648.270498727448285 ], [ 692031.900752416462637, 3149893.548696628306061 ], [ 692067.037672283244319, 3149168.787842567078769 ], [ 692111.377361613558605, 3148968.334257931448519 ], [ 692115.057523577241227, 3148951.696132960729301 ], [ 692120.234918634640053, 3148933.705613375641406 ], [ 692226.402512035681866, 3148564.80302893044427 ], [ 692312.914199498714879, 3148491.836184320505708 ], [ 692499.898326980648562, 3148347.714990614913404 ], [ 692580.690543742850423, 3148282.569134774152189 ], [ 692682.433101858827285, 3148219.349154083523899 ], [ 692864.479555209632963, 3148121.046371179167181 ], [ 693066.288096782052889, 3148011.992321150377393 ], [ 693170.106878224061802, 3147964.6358034722507 ], [ 693317.804921637172811, 3147885.821780787780881 ], [ 693390.143720657913946, 3147853.248356317169964 ], [ 693430.50849620543886, 3147837.030712411273271 ], [ 693467.04033209127374, 3147827.080456600058824 ], [ 693558.680331645649858, 3147811.705744428094476 ], [ 693638.114331498043612, 3147801.406210255809128 ], [ 693693.222606556955725, 3147795.98226571129635 ], [ 693776.264506941311993, 3147793.128270193468779 ], [ 693802.125204137177207, 3147808.324402220081538 ], [ 693839.572437872411683, 3147799.445376805961132 ], [ 693866.608421708457172, 3147799.890431814827025 ], [ 693945.128014918067493, 3147788.522844867780805 ], [ 694022.854542483226396, 3147768.702369056176394 ], [ 694049.835748282028362, 3147740.691725946031511 ], [ 694116.436694913194515, 3147692.171449825167656 ], [ 694176.422799427993596, 3147617.197302559856325 ], [ 694302.3317222452024, 3147503.219188239425421 ], [ 694392.780469240969978, 3147390.767028417438269 ], [ 694408.602740115718916, 3147336.165912408381701 ], [ 694429.879759867209941, 3147290.09520272212103 ], [ 694423.343967457301915, 3147234.070004355162382 ], [ 694431.220410339999944, 3147208.878972778562456 ], [ 694459.660310160252266, 3147180.862282762303948 ], [ 694476.154207218671218, 3147142.097974890377373 ], [ 694495.748238659463823, 3147085.027110033668578 ], [ 694498.675272472202778, 3147020.717769565526396 ], [ 694510.507763394969516, 3146981.876527961343527 ], [ 694568.338868734426796, 3146924.804169351235032 ], [ 694583.430659142555669, 3146914.503006468061358 ], [ 694590.139814554946497, 3146847.091006618458778 ], [ 694634.622664785478264, 3146807.734183301683515 ], [ 694652.267778977751732, 3146699.356157694477588 ], [ 694645.38392654620111, 3146664.425962629262358 ], [ 694800.238270000321791, 3146575.412955177947879 ], [ 694831.697029362083413, 3146557.385306105948985 ], [ 694854.630897551076487, 3146545.235920175909996 ], [ 694861.667353474884294, 3146542.714683180674911 ], [ 694871.231026808847673, 3146528.365989319048822 ], [ 694888.854921441990882, 3146520.085258201230317 ], [ 694907.257880357909016, 3146499.948176389094442 ], [ 694914.457964037312195, 3146487.538622112479061 ], [ 694942.920315539464355, 3146458.336359765846282 ], [ 694980.717604180565104, 3146428.629231146071106 ], [ 695051.960707905935124, 3146385.628361798357219 ], [ 695080.281757293385454, 3146364.996306112967432 ], [ 695114.34305175987538, 3146349.734599982388318 ], [ 695153.153773900354281, 3146329.276413964573294 ], [ 695202.9822728211293, 3146312.297893825452775 ], [ 695250.469002874568105, 3146295.940173442475498 ], [ 695260.485003724927083, 3146289.512103285640478 ], [ 695274.798776240204461, 3146269.967170062940568 ], [ 695388.516052105231211, 3146196.680125847458839 ], [ 695394.114046880509704, 3146210.620462267193943 ], [ 695416.513507487252355, 3146230.77408164460212 ], [ 695506.120289321057498, 3146170.276370586827397 ], [ 695578.004483580123633, 3146123.992044702172279 ], [ 695603.777231406071223, 3146116.506964348722249 ], [ 695620.68822319956962, 3146116.128286991268396 ], [ 695671.502999354270287, 3146180.274982682429254 ], [ 695717.425227296655066, 3146258.188215313479304 ], [ 695797.871468281606212, 3146328.103040494956076 ], [ 695884.604537062812597, 3146370.427898122463375 ], [ 695937.495576036628336, 3146449.776843369472772 ], [ 695989.080023630987853, 3146537.544773807749152 ], [ 696034.456306450418197, 3146525.441234833095223 ], [ 696070.217451878590509, 3146513.177847597748041 ], [ 696096.248218300519511, 3146507.676396809518337 ], [ 696109.291942491428927, 3146507.075835554394871 ], [ 696121.288115251576528, 3146521.782504564616829 ], [ 696141.84977581910789, 3146547.182320419698954 ], [ 696152.174473637714982, 3146557.245340255554765 ], [ 696157.375230869627558, 3146559.969563148450106 ], [ 696171.932751631364226, 3146560.871354538947344 ], [ 696192.31767025613226, 3146561.870202511083335 ], [ 696219.112726866733283, 3146562.975842692423612 ], [ 696244.10466027003713, 3146567.348554991185665 ], [ 696263.291146193165332, 3146570.305792230181396 ], [ 696284.830548815662041, 3146571.983442929573357 ], [ 696310.383219580398872, 3146577.68445956427604 ], [ 696335.561859258450568, 3146570.85052090510726 ], [ 696363.775092713884078, 3146556.813705874141306 ], [ 696396.188465288025327, 3146535.593461018521339 ], [ 696418.9044044688344, 3146536.631555591709912 ], [ 696440.160306147998199, 3146544.544145754072815 ], [ 696537.401168075273745, 3146519.616646070964634 ], [ 696604.981984358746558, 3146493.840232222806662 ], [ 696665.464532871148549, 3146474.276041456498206 ], [ 696717.318006505374797, 3146468.811345831956714 ], [ 696784.556049814564176, 3146463.603817099239677 ], [ 696831.976004471885972, 3146472.308855940587819 ], [ 696911.880779285100289, 3146462.565903419628739 ], [ 697008.568855019519106, 3146453.104102228302509 ], [ 697077.417546295095235, 3146435.264439807273448 ], [ 697138.03370858868584, 3146407.791875882539898 ], [ 697218.416004859260283, 3146369.572300867177546 ], [ 697273.703329398646019, 3146326.185280153062195 ], [ 697313.9242127337493, 3146263.555082952138036 ], [ 697328.519803591654636, 3146227.399894325528294 ], [ 697366.998145943623967, 3146185.314354902599007 ], [ 697402.546967197093181, 3146151.092807526700199 ], [ 697411.903103684540838, 3146135.42368695884943 ], [ 697421.259335813811049, 3146119.754451860208064 ], [ 697425.40548302908428, 3146108.877652315888554 ], [ 697460.979043219704181, 3146101.033214327413589 ], [ 697518.930902751279064, 3146093.563962424639612 ], [ 697586.171762202400714, 3146088.360865318682045 ], [ 697619.279244690202177, 3146116.347679366823286 ], [ 697824.483766835997812, 3146115.570610242430121 ], [ 697908.93361309019383, 3146085.336712288670242 ], [ 698074.069520038901828, 3146026.917503245174885 ], [ 698179.672955060028471, 3145959.058638239279389 ], [ 698309.592244179802947, 3145887.389520709402859 ], [ 698457.330508062150329, 3145871.379119613673538 ], [ 698457.340794240357354, 3145871.378004947677255 ], [ 698953.356236449093558, 3145633.805999852251261 ], [ 699033.789730650838464, 3145544.905822056811303 ], [ 699098.273211990483105, 3145339.725017090793699 ], [ 699098.335464959498495, 3145339.526936731301248 ], [ 699220.056769839720801, 3144952.237970049958676 ], [ 699177.723351840628311, 3144596.63725884212181 ], [ 699287.790238642133772, 3144300.303332854062319 ], [ 699352.560368177830242, 3144227.913188059814274 ], [ 699534.170731413410977, 3144105.992944225668907 ], [ 699540.520744109759107, 3143860.882454000879079 ], [ 699604.020871106069535, 3143793.572319382335991 ], [ 699609.100881265243515, 3143664.032060301862657 ], [ 699635.770934609114192, 3143611.961956166662276 ], [ 699767.851198768010363, 3143507.821747887413949 ], [ 699863.10138926608488, 3143496.391725013498217 ], [ 699887.338490713736974, 3143345.49622253049165 ], [ 699890.698836736148223, 3143345.829554433934391 ], [ 699930.890779090463184, 3143345.465751615352929 ], [ 700023.164401144487783, 3143312.72349864570424 ], [ 700061.198331377119757, 3143295.856277401559055 ], [ 700212.664055102970451, 3143304.75880650896579 ], [ 700332.259785758797079, 3143360.086471222341061 ], [ 700448.641710434691049, 3143402.88706438569352 ], [ 700685.285517045878805, 3143491.152240911033005 ], [ 700810.777643025969155, 3143546.60901849437505 ], [ 700991.223837269237265, 3143644.505047625396401 ], [ 701226.17430715658702, 3143749.015673308167607 ], [ 701435.46014239359647, 3143842.149192911107093 ], [ 701697.530333763454109, 3143959.410865454003215 ], [ 702082.367686211830005, 3144131.603938479442149 ], [ 702403.307911432464607, 3144274.479224238544703 ], [ 702746.73776495992206, 3144427.937864501494914 ], [ 702962.902780617820099, 3144523.717222714796662 ], [ 703184.359473528456874, 3144619.231997068971395 ], [ 703194.602551601361483, 3144623.583684506360441 ], [ 703212.72439286543522, 3144631.282599661033601 ], [ 703518.793475725571625, 3144761.313531246967614 ], [ 703717.760540334740654, 3144845.186615643557161 ], [ 703778.879412581911311, 3144866.353324657771736 ], [ 703827.827427137643099, 3144879.84710164135322 ], [ 704117.282172719016671, 3144976.420211451593786 ], [ 704342.707623559748754, 3145053.94328316161409 ], [ 704438.222397931618616, 3145087.545433701947331 ], [ 704525.828788917511702, 3145117.635361971799284 ], [ 704586.124777055578306, 3145138.345535301137716 ], [ 704716.564621271914802, 3145184.383127390407026 ], [ 704822.133582410635427, 3145217.456110191065818 ], [ 704829.806514414376579, 3145217.985277903731912 ], [ 704897.607669384917244, 3145217.114238237962127 ], [ 704978.061451561748981, 3145216.081156050320715 ], [ 705251.641165385488421, 3145217.139491498470306 ], [ 705449.549894542433321, 3145220.57908172160387 ], [ 705474.156193747883663, 3145226.399926692247391 ], [ 705602.21478319785092, 3145270.056263995822519 ], [ 705682.626242014113814, 3145297.635976511985064 ], [ 705721.012937460793182, 3145310.8021788187325 ], [ 705814.711224709055386, 3145341.434311178978533 ], [ 705913.629989368608221, 3145373.773138109594584 ], [ 705947.23302012111526, 3145385.830511620733887 ], [ 706048.567759245401248, 3145422.191984938457608 ], [ 706099.175626275944524, 3145428.964479003101587 ], [ 706137.872719957260415, 3145434.143190864939243 ], [ 706152.204550956841558, 3145435.618401122279465 ], [ 706249.352707269717939, 3145441.090310117695481 ], [ 706281.063390826806426, 3145441.693701750598848 ], [ 706371.487286366056651, 3145425.817467317450792 ], [ 706451.693864084780216, 3145398.177110828924924 ], [ 706490.658958235988393, 3145381.790772834792733 ] ] } },
{ "type": "Feature", "properties": { "trunk_id": "TRUNK-LEG-2", "trunk_name": "Leg 2", "source_name": "Leg 2", "source_length": 16.6905898933, "source_discharge": null, "model_role": "main downstream carrier; assign capacity and tailwater scenario before coupled runs", "field_status": "source layer present; confirm cross-section, blockage and tailwater in field" }, "geometry": { "type": "LineString", "coordinates": [ [ 704491.343038161285222, 3150169.173936132341623 ], [ 704402.675561176612973, 3150144.230952221900225 ], [ 704274.510589982382953, 3150108.178341200575233 ], [ 703927.32308619376272, 3150012.655853377655149 ], [ 703714.597660752013326, 3149953.124484302476048 ], [ 703531.770211765542626, 3149903.647302029654384 ], [ 703332.009395567700267, 3149849.143026351928711 ], [ 703162.994765214622021, 3149802.747791286557913 ], [ 703156.008210239000618, 3149800.830013053491712 ], [ 703104.020079815760255, 3149794.75962033495307 ], [ 703087.062396110966802, 3149792.779608065262437 ], [ 703048.487915286794305, 3149777.612241832539439 ], [ 702834.715537266805768, 3149693.560659620910883 ], [ 702820.908559125848114, 3149715.411758875474334 ], [ 702786.248073142021894, 3149748.220157835632563 ], [ 702691.791634230874479, 3149827.330732721835375 ], [ 702650.684993196278811, 3149861.862864382565022 ], [ 702595.883384614251554, 3149907.899619422852993 ], [ 702521.399626763537526, 3149970.470602337270975 ], [ 702503.380136074498296, 3149985.653691325336695 ], [ 702354.976377259008586, 3150110.700049458071589 ], [ 702193.315637280233204, 3150246.960738640278578 ], [ 702095.985224229283631, 3150328.937878575176001 ], [ 702095.941692306660116, 3150328.975102996453643 ], [ 701962.535087790340185, 3150440.804402502253652 ], [ 701701.717998567968607, 3150659.446857469156384 ], [ 701613.347810667008162, 3150733.530461775138974 ], [ 701552.420440735295415, 3150765.122167453169823 ], [ 701484.760053501464427, 3150800.205595141276717 ], [ 701440.731173719279468, 3150854.209503509104252 ], [ 701411.22155318595469, 3150895.365109566599131 ], [ 701372.274808619171381, 3151126.505571853369474 ], [ 701307.928013261407614, 3151261.972509449347854 ], [ 701231.572353222407401, 3151369.80277643352747 ], [ 701029.635369498282671, 3151636.468634137883782 ], [ 700714.413492886349559, 3152052.760757690295577 ], [ 700705.171396373771131, 3152067.779164530336857 ], [ 700577.719280446879566, 3152261.471784731373191 ], [ 700543.855217799544334, 3152313.176997179165483 ], [ 700479.297582193277776, 3152280.241953920572996 ], [ 700447.097611472010612, 3152274.325998492538929 ], [ 700405.99249411560595, 3152269.26091293990612 ], [ 700153.118891628459096, 3152202.182884402573109 ], [ 699927.201536533422768, 3152142.260658927261829 ], [ 699646.530975185334682, 3152000.867042819038033 ], [ 699562.749764477834105, 3151977.512733994051814 ], [ 699261.296871401369572, 3151904.346849761903286 ], [ 699202.285976227372885, 3151899.919558834284544 ], [ 699072.913161290809512, 3151903.92351558431983 ], [ 698982.74298095330596, 3151918.740211889147758 ], [ 698951.061196847818792, 3151930.236713919788599 ], [ 698868.288282155059278, 3151960.27337072044611 ], [ 698852.474691870622337, 3151966.011893048882484 ], [ 698750.992911303415895, 3152002.838788222521544 ], [ 698685.13905240315944, 3152023.727088524028659 ], [ 698641.466607773676515, 3152036.355707731097937 ], [ 698527.23540326487273, 3152049.127139337360859 ], [ 698489.981995420530438, 3152063.097167262807488 ], [ 698448.918579963035882, 3152076.643861034885049 ], [ 698318.531652526929975, 3152112.627266328781843 ], [ 698181.516646929085255, 3152180.099591599777341 ], [ 698114.368965098634362, 3152213.167016491293907 ], [ 698101.767443742603064, 3152219.175399105995893 ], [ 698034.897751929238439, 3152251.057543195784092 ], [ 698009.921035313047469, 3152264.604236949235201 ], [ 697953.617589363828301, 3152319.637680344283581 ], [ 697942.4218056993559, 3152332.467039488255978 ], [ 697934.574771498329937, 3152340.356413329020143 ], [ 697828.310672086663544, 3152463.147967370226979 ], [ 697751.687185505405068, 3152586.338213752955198 ], [ 697707.051156398840249, 3152650.991729402914643 ], [ 697708.709325219504535, 3152732.242002310231328 ], [ 697708.95157824922353, 3152926.814267540350556 ], [ 697693.959640691056848, 3153144.319026155397296 ], [ 697533.164265866391361, 3153198.816619837656617 ], [ 697392.371980582363904, 3153257.276025250554085 ], [ 697289.747112364508212, 3153299.88765531219542 ], [ 697332.609698090702295, 3153416.833722537383437 ], [ 697193.438586413860321, 3153469.750495037063956 ], [ 697399.398527092300355, 3153757.804131360724568 ], [ 697546.229778519831598, 3153958.257961183786392 ], [ 697498.027528923936188, 3153991.086537709459662 ], [ 697345.627224124036729, 3153995.31987950950861 ], [ 697348.167229204438627, 3154211.220311306416988 ], [ 696774.972749481908977, 3154209.526974590495229 ], [ 696722.586522170342505, 3154206.616628628224134 ], [ 696590.754396966658533, 3154199.292621675878763 ], [ 696520.566546223126352, 3154198.520285909995437 ], [ 696159.256107348017395, 3154197.738405343145132 ], [ 695947.158546209335327, 3154197.154114540666342 ], [ 695903.579723194241524, 3154197.034062689170241 ], [ 695828.397522997111082, 3154196.826949188485742 ], [ 695504.970209476538002, 3154520.254262713715434 ], [ 695342.409884357824922, 3154616.77445575222373 ], [ 695338.458765341900289, 3154641.327838189899921 ], [ 695161.505078101530671, 3154712.447980429977179 ], [ 694983.704722502268851, 3154685.354592913761735 ], [ 694697.53081682138145, 3154879.241647351533175 ], [ 694571.528407674282789, 3154907.847599698230624 ], [ 694231.832350699231029, 3155122.356293305754662 ], [ 694197.149816057644784, 3155090.062068991363049 ], [ 694114.17631677724421, 3155134.088823715224862 ], [ 693852.681231725029647, 3155209.392788078635931 ], [ 693683.222121535800397, 3155217.062322996556759 ], [ 693606.175300776027143, 3155239.075700355693698 ], [ 693518.968459697440267, 3155007.935238072648644 ], [ 692319.239393570460379, 3155600.603090075775981 ] ] } },
{ "type": "Feature", "properties": { "trunk_id": "TRUNK-LEG-1", "trunk_name": "Leg 1", "source_name": "Leg 1", "source_length": 13.927583221800001, "source_discharge": null, "model_role": "main downstream carrier; assign capacity and tailwater scenario before coupled runs", "field_status": "source layer present; confirm cross-section, blockage and tailwater in field" }, "geometry": { "type": "MultiLineString", "coordinates": [ [ [ 699848.512881263159215, 3155406.262646747753024 ], [ 700002.460152384825051, 3155349.213212117552757 ], [ 700104.286269863136113, 3155311.478717770427465 ], [ 700436.183635577559471, 3155187.657230257987976 ], [ 700436.223184263333678, 3155187.642431164160371 ], [ 700526.468930892646313, 3155154.001692827790976 ], [ 700547.835171301849186, 3155146.036955615505576 ], [ 700709.54882805980742, 3155083.806831158697605 ], [ 700790.828990614041686, 3155030.043390301987529 ], [ 700912.791878076270223, 3154947.707408076152205 ], [ 701125.939446681179106, 3154804.98251348733902 ], [ 701359.032478167675436, 3154648.910193856805563 ], [ 701449.237844506278634, 3154606.576233401894569 ], [ 701540.906827642582357, 3154609.623511806130409 ], [ 701627.287699003703892, 3154612.495658352971077 ], [ 701721.475168318487704, 3154615.628098778426647 ], [ 701805.876554604619741, 3154618.435721969231963 ], [ 701893.229678046889603, 3154621.342175552621484 ], [ 702088.267357391305268, 3154627.833910951390862 ], [ 702157.557952735573053, 3154630.140997035428882 ], [ 702233.744783473201096, 3154631.940524144098163 ], [ 702308.420972900465131, 3154627.227991500869393 ], [ 702361.904113502241671, 3154552.190933458507061 ], [ 702355.119589309208095, 3154529.710407903417945 ], [ 702364.461655654013157, 3154501.636228838935494 ], [ 702418.657754397019744, 3154473.422647140920162 ], [ 702479.043948645703495, 3154446.251300187781453 ], [ 702591.93065850622952, 3154448.857090044766665 ], [ 702738.631994162686169, 3154459.30134004727006 ], [ 702786.659259721636772, 3154444.303674282506108 ], [ 703037.681660652160645, 3154413.689102880656719 ], [ 703071.156412948854268, 3154403.648806462064385 ], [ 703079.257908679544926, 3154401.218873063102365 ], [ 703216.937067104503512, 3154389.751424968242645 ], [ 703298.753738625906408, 3154360.039175570011139 ], [ 703337.261476665735245, 3154344.353406092151999 ], [ 703365.372964874841273, 3154335.739660555496812 ], [ 703382.067772971466184, 3154335.273112047463655 ], [ 703391.600404689088464, 3154335.00671574100852 ], [ 703411.106582161039114, 3154338.905462017282844 ], [ 703425.122000412084162, 3154336.88731593824923 ], [ 703441.426063469611108, 3154333.125839952379465 ], [ 703449.015894653275609, 3154328.818719627335668 ], [ 703457.228034813888371, 3154321.258778933435678 ], [ 703464.984248663298786, 3154309.108271537348628 ], [ 703482.247702328488231, 3154284.297354767099023 ], [ 703495.144549627788365, 3154262.941843677312136 ], [ 703512.218572597019374, 3154245.828213917091489 ], [ 703541.748722880147398, 3154236.052434422075748 ], [ 703557.767606067471206, 3154239.49532731436193 ], [ 703587.242981160990894, 3154232.884054839611053 ], [ 703591.90224950760603, 3154206.059357151389122 ], [ 703588.726159987971187, 3154191.795665051788092 ], [ 703581.063496648333967, 3154145.729964062571526 ], [ 703603.84764810744673, 3154108.404426584020257 ], [ 703647.515676812268794, 3154076.188916329294443 ], [ 703696.711726199835539, 3153993.951394110918045 ], [ 703731.427911277860403, 3153940.478636393323541 ], [ 703814.722831108607352, 3153907.63196562230587 ], [ 703884.604965400882065, 3153866.588681686669588 ], [ 703888.882891798391938, 3153864.076163290068507 ], [ 703932.606049563735723, 3153849.187880836427212 ], [ 704040.161627079360187, 3153814.522847084328532 ], [ 704071.820094590075314, 3153818.736934380605817 ], [ 704130.244575195945799, 3153812.095879729837179 ], [ 704161.66275991871953, 3153801.896253239363432 ], [ 704227.289122963324189, 3153779.80139828287065 ], [ 704266.542743704281747, 3153734.866332426667213 ], [ 704275.803178906440735, 3153714.493375005200505 ], [ 704281.624023878015578, 3153689.357908055186272 ], [ 704287.709452718496323, 3153677.187050390988588 ], [ 704293.505005106329918, 3153667.863761438056827 ], [ 704328.719951406121254, 3153611.570252504199743 ], [ 704360.734598761424422, 3153555.743057509884238 ], [ 704366.555443740449846, 3153527.168000359088182 ], [ 704380.842972311191261, 3153518.965900620445609 ], [ 704403.861768351867795, 3153512.351304069161415 ], [ 704419.505289220251143, 3153500.18044638633728 ], [ 704427.442805097438395, 3153480.005926853045821 ], [ 704457.208489618264139, 3153351.68275355361402 ], [ 704454.231921168975532, 3153327.208746278658509 ], [ 704460.515787903219461, 3153312.325903996825218 ], [ 704472.422061728313565, 3153295.789412599056959 ], [ 704504.50285504758358, 3153273.961243942379951 ], [ 704561.567646346986294, 3153251.922788510099053 ], [ 704580.088516718707979, 3153233.931085864081979 ], [ 704645.043854964897037, 3153145.467471426352859 ], [ 704682.776822502724826, 3153122.65570024959743 ], [ 704772.837860548868775, 3153068.208983581513166 ], [ 704794.798321140930057, 3153062.91730634495616 ], [ 704823.108794426545501, 3153066.092312688007951 ], [ 704850.378571190871298, 3153055.967570208013058 ], [ 704888.743231244385242, 3153031.62585487216711 ], [ 704924.902532514184713, 3153004.730710450559855 ], [ 704937.691245806403458, 3152976.327827598899603 ], [ 704945.893345552496612, 3152953.573615435510874 ], [ 704982.759622168727219, 3152924.448071096092463 ], [ 705046.699797162786126, 3152873.933872820809484 ], [ 705071.04151252284646, 3152847.475486578419805 ], [ 705086.651960409246385, 3152814.402503740042448 ], [ 705091.149886071681976, 3152767.571160091087222 ], [ 705120.274092860519886, 3152725.993086693808436 ], [ 705156.327092994004488, 3152704.550617815926671 ], [ 705201.409901288338006, 3152675.806602230295539 ], [ 705244.099340513348579, 3152654.026276092976332 ], [ 705312.356974157504737, 3152609.479188876226544 ], [ 705361.28397399187088, 3152575.119212036952376 ], [ 705409.621302353218198, 3152536.518899459391832 ], [ 705489.633164912462234, 3152473.58008186891675 ], [ 705560.990449729375541, 3152434.122666988521814 ], [ 705575.57000345364213, 3152426.060820162296295 ] ], [ [ 699832.898308439180255, 3155412.049060141667724 ], [ 699848.512881263159215, 3155406.262646747753024 ] ], [ [ 695735.909440714865923, 3157735.647252323105931 ], [ 696021.064049090258777, 3157542.874432167038321 ], [ 696120.964625495485961, 3157476.970031347125769 ], [ 696540.715870878659189, 3157218.416601775214076 ], [ 696696.091480609029531, 3157101.534425271674991 ], [ 696741.799606388434768, 3157083.478831898421049 ], [ 696777.657586621120572, 3157072.44542458280921 ], [ 696822.175900689326227, 3157058.74743421934545 ], [ 696919.321653665974736, 3157026.914075607433915 ], [ 696986.327682038769126, 3157003.038070246577263 ], [ 697109.571175268851221, 3156959.124416526407003 ], [ 697202.175527132116258, 3156871.811741907149553 ], [ 697299.769549078308046, 3156765.941545756533742 ], [ 697523.887634471058846, 3156754.786346938461065 ], [ 697564.58508141618222, 3156754.655297165736556 ], [ 697625.736867679283023, 3156755.358191257342696 ], [ 697719.92872272990644, 3156750.066514007747173 ], [ 697724.246731366030872, 3156716.665447205305099 ], [ 697896.670742879621685, 3156719.374785955995321 ], [ 697995.575829915702343, 3156381.789259996265173 ], [ 698022.897669135592878, 3156273.594324737787247 ], [ 698160.352374432608485, 3155787.544818099588156 ], [ 698244.172542079351842, 3155548.784340566024184 ], [ 698274.652603039517999, 3155534.814312627539039 ], [ 698336.882727502845228, 3155531.004305008798838 ], [ 698397.84284942317754, 3155528.46429992467165 ], [ 698433.402920546010137, 3155518.304279606789351 ], [ 698484.20302214846015, 3155518.304279606789351 ], [ 698524.843103429302573, 3155510.684264365583658 ], [ 698559.133172012865543, 3155482.744208484888077 ], [ 698609.933273615315557, 3155468.774180544540286 ], [ 698752.173558099195361, 3155482.744208484888077 ], [ 699070.944195652380586, 3155480.204203406348825 ], [ 699522.218431551940739, 3155480.521704036742449 ], [ 699673.031233184039593, 3155473.113355895504355 ], [ 699736.531360185705125, 3155447.713305091485381 ], [ 699848.512881263159215, 3155406.262646747753024 ] ] ] } }
]
}
