{"type": "FeatureCollection", "features": [{"type": "Feature", "geometry": {"type": "Point", "coordinates": [77.041417, 28.4406197]}, "properties": {"rank": 1.0, "ward": "13", "landmark": "Back side Govt. School, Islampur", "depth_m": 0.808, "vel_mps": 0.027, "pers_min": 718.5, "onset_min": 257.4, "back_m3": 20349.0, "score": null, "kind": "backflow"}}, {"type": "Feature", "geometry": {"type": "Point", "coordinates": [76.9896288, 28.4210451]}, "properties": {"rank": 2.0, "ward": "17", "landmark": "Behrampur, Tata motors company and opposite Axis Bank ATM bahrampur road", "depth_m": 0.79, "vel_mps": 0.067, "pers_min": 695.6, "onset_min": 29.6, "back_m3": 13108.8, "score": null, "kind": "backflow"}}, {"type": "Feature", "geometry": {"type": "Point", "coordinates": [77.0559138, 28.4891824]}, "properties": {"rank": 3.0, "ward": "36", "landmark": "Sarhol mod sector -18 T point", "depth_m": 0.5, "vel_mps": 0.071, "pers_min": 717.3, "onset_min": 8.3, "back_m3": 12867.4, "score": null, "kind": "backflow"}}, {"type": "Feature", "geometry": {"type": "Point", "coordinates": [77.0595958, 28.5112024]}, "properties": {"rank": 4.0, "ward": "4", "landmark": "In fornt of community centre sector 22 B", "depth_m": 1.081, "vel_mps": 0.015, "pers_min": 707.7, "onset_min": 19.4, "back_m3": 5790.5, "score": null, "kind": "backflow"}}, {"type": "Feature", "geometry": {"type": "Point", "coordinates": [77.0380016, 28.4459136]}, "properties": {"rank": 5.0, "ward": "13", "landmark": "Near House No.239 Sector-15 Part-I", "depth_m": 0.667, "vel_mps": 0.009, "pers_min": 665.3, "onset_min": 84.8, "back_m3": 4888.0, "score": null, "kind": "backflow"}}, {"type": "Feature", "geometry": {"type": "Point", "coordinates": [77.0383499, 28.5189132]}, "properties": {"rank": 6.0, "ward": "4", "landmark": "Sec 23 near Ansal Plaza", "depth_m": 0.544, "vel_mps": 0.114, "pers_min": 714.7, "onset_min": 9.0, "back_m3": 6722.7, "score": null, "kind": "backflow"}}, {"type": "Feature", "geometry": {"type": "Point", "coordinates": [76.9964745, 28.4271893]}, "properties": {"rank": 7.0, "ward": "9", "landmark": "Behrampur, Tata motors company and opposite Axis Bank ATM bahrampur road", "depth_m": 0.97, "vel_mps": 33.448, "pers_min": 98.0, "onset_min": 2.2, "back_m3": 12453.1, "score": null, "kind": "backflow"}}, {"type": "Feature", "geometry": {"type": "Point", "coordinates": [77.143718, 28.4256647]}, "properties": {"rank": 8.0, "ward": "20", "landmark": "Teri Gram Faridabad road Village Baliyawas and Mujjafar Ali Farm house New Gwal Pahari", "depth_m": 1.169, "vel_mps": 0.008, "pers_min": 705.4, "onset_min": 37.2, "back_m3": 3586.8, "score": null, "kind": "backflow"}}, {"type": "Feature", "geometry": {"type": "Point", "coordinates": [77.0553192, 28.4495083]}, "properties": {"rank": 9.0, "ward": "13", "landmark": "Sector 40 house no 1114", "depth_m": 0.772, "vel_mps": 0.006, "pers_min": 674.7, "onset_min": 79.2, "back_m3": 3118.2, "score": null, "kind": "backflow"}}, {"type": "Feature", "geometry": {"type": "Point", "coordinates": [77.0584369, 28.4278228]}, "properties": {"rank": 10.0, "ward": "14", "landmark": "Sector 47 Near DPS", "depth_m": 0.529, "vel_mps": 0.01, "pers_min": 382.2, "onset_min": 481.7, "back_m3": 4185.9, "score": null, "kind": "backflow"}}, {"type": "Feature", "geometry": {"type": "Point", "coordinates": [77.0736702, 28.4680933]}, "properties": {"rank": 11.0, "ward": "22", "landmark": "Near Camera Museum, Village-Chakkarpur", "depth_m": 0.571, "vel_mps": 0.017, "pers_min": 702.3, "onset_min": 504.0, "back_m3": 2996.4, "score": null, "kind": "backflow"}}, {"type": "Feature", "geometry": {"type": "Point", "coordinates": [77.0577649, 28.5089473]}, "properties": {"rank": 12.0, "ward": "4", "landmark": "Near Delhi gate pocket E sector 21", "depth_m": 0.637, "vel_mps": 0.005, "pers_min": 551.8, "onset_min": 459.5, "back_m3": 1913.4, "score": null, "kind": "backflow"}}, {"type": "Feature", "geometry": {"type": "Point", "coordinates": [77.0743439, 28.4680176]}, "properties": {"rank": 13.0, "ward": "22", "landmark": "Near Camera Museum, Village-Chakkarpur", "depth_m": 0.628, "vel_mps": 0.014, "pers_min": 528.0, "onset_min": 519.7, "back_m3": 1708.4, "score": null, "kind": "backflow"}}, {"type": "Feature", "geometry": {"type": "Point", "coordinates": [76.9038583, 28.5301732]}, "properties": {"rank": 14.0, "ward": "", "landmark": "Dhankot Canal road", "depth_m": 1.463, "vel_mps": 0.004, "pers_min": 294.5, "onset_min": 506.5, "back_m3": 2542.6, "score": null, "kind": "backflow"}}, {"type": "Feature", "geometry": {"type": "Point", "coordinates": [77.017681, 28.502526]}, "properties": {"rank": 15.0, "ward": "5", "landmark": "Palam Vihar C 2 Block", "depth_m": 0.412, "vel_mps": 0.012, "pers_min": 684.4, "onset_min": 41.8, "back_m3": 5235.2, "score": null, "kind": "backflow"}}, {"type": "Feature", "geometry": {"type": "Point", "coordinates": [77.0763142, 28.4131159]}, "properties": {"rank": 16.0, "ward": "14", "landmark": "Soshant Lok Phase 3", "depth_m": 0.435, "vel_mps": 0.024, "pers_min": 655.6, "onset_min": 29.8, "back_m3": 4009.8, "score": null, "kind": "backflow"}}, {"type": "Feature", "geometry": {"type": "Point", "coordinates": [77.0419017, 28.4298743]}, "properties": {"rank": 17.0, "ward": "12", "landmark": "Islampur Village entry point, Sector 38, Gurugram", "depth_m": 0.478, "vel_mps": 0.006, "pers_min": 526.6, "onset_min": 491.1, "back_m3": 2811.5, "score": null, "kind": "backflow"}}, {"type": "Feature", "geometry": {"type": "Point", "coordinates": [77.0298498, 28.5090763]}, "properties": {"rank": 18.0, "ward": "4", "landmark": "Palam Vihar D Block near Mother dairy", "depth_m": 0.54, "vel_mps": 0.016, "pers_min": 661.7, "onset_min": 220.1, "back_m3": 1358.6, "score": null, "kind": "backflow"}}, {"type": "Feature", "geometry": {"type": "Point", "coordinates": [77.0472489, 28.4496007]}, "properties": {"rank": 19.0, "ward": "13", "landmark": "Jubli park sector 31", "depth_m": 0.569, "vel_mps": 0.001, "pers_min": 551.7, "onset_min": 484.8, "back_m3": 1000.7, "score": null, "kind": "backflow"}}, {"type": "Feature", "geometry": {"type": "Point", "coordinates": [77.0779673, 28.4498274]}, "properties": {"rank": 20.0, "ward": "24", "landmark": "Gulab Park road near H. No. 336 sushant lok,", "depth_m": 0.567, "vel_mps": 0.001, "pers_min": 539.2, "onset_min": 505.8, "back_m3": 1014.7, "score": null, "kind": "backflow"}}, {"type": "Feature", "geometry": {"type": "Point", "coordinates": [77.0080812, 28.496848]}, "properties": {"rank": 21.0, "ward": "34", "landmark": "Gopi Pandit Wali Gali, Rajendra Park", "depth_m": 0.528, "vel_mps": 0.007, "pers_min": 612.4, "onset_min": 199.2, "back_m3": 1315.4, "score": null, "kind": "backflow"}}, {"type": "Feature", "geometry": {"type": "Point", "coordinates": [77.0375263, 28.44625]}, "properties": {"rank": 22.0, "ward": "13", "landmark": "Near House No.239 Sector-15 Part-I", "depth_m": 0.489, "vel_mps": 0.012, "pers_min": 579.2, "onset_min": 367.2, "back_m3": 1757.5, "score": null, "kind": "backflow"}}, {"type": "Feature", "geometry": {"type": "Point", "coordinates": [77.0305117, 28.506903]}, "properties": {"rank": 23.0, "ward": "4", "landmark": "Palam Vihar D Block near Mother dairy", "depth_m": 0.662, "vel_mps": 0.008, "pers_min": 483.1, "onset_min": 505.2, "back_m3": 707.1, "score": null, "kind": "backflow"}}, {"type": "Feature", "geometry": {"type": "Point", "coordinates": [77.0256362, 28.4507093]}, "properties": {"rank": 24.0, "ward": "28", "landmark": "Near Beri wala Bagh Shivaji Nagar", "depth_m": 0.699, "vel_mps": 0.011, "pers_min": 656.6, "onset_min": 474.8, "back_m3": 627.0, "score": null, "kind": "backflow"}}, {"type": "Feature", "geometry": {"type": "Point", "coordinates": [77.0689265, 28.5142459]}, "properties": {"rank": 25.0, "ward": "3", "landmark": "Near radha krishna mandir h.no-335 sector 21", "depth_m": 0.646, "vel_mps": 0.005, "pers_min": 464.4, "onset_min": 494.6, "back_m3": 602.9, "score": null, "kind": "backflow"}}, {"type": "Feature", "geometry": {"type": "Point", "coordinates": [77.0421436, 28.4402771]}, "properties": {"rank": 26.0, "ward": "12", "landmark": "Back side Govt. School, Islampur", "depth_m": 0.593, "vel_mps": 0.003, "pers_min": 400.8, "onset_min": 501.1, "back_m3": 623.2, "score": null, "kind": "backflow"}}, {"type": "Feature", "geometry": {"type": "Point", "coordinates": [77.0402525, 28.4414154]}, "properties": {"rank": 27.0, "ward": "12", "landmark": "Back side Govt. School, Islampur", "depth_m": 0.459, "vel_mps": 0.002, "pers_min": 282.6, "onset_min": 484.5, "back_m3": 2840.1, "score": null, "kind": "backflow"}}, {"type": "Feature", "geometry": {"type": "Point", "coordinates": [77.0655118, 28.434411]}, "properties": {"rank": 28.0, "ward": "14", "landmark": "Sector 46", "depth_m": 0.43, "vel_mps": 0.006, "pers_min": 427.3, "onset_min": 522.8, "back_m3": 1857.7, "score": null, "kind": "backflow"}}, {"type": "Feature", "geometry": {"type": "Point", "coordinates": [77.0486077, 28.5160631]}, "properties": {"rank": 29.0, "ward": "4", "landmark": "Sec 23 near Ansal Plaza", "depth_m": 0.875, "vel_mps": 0.017, "pers_min": 417.2, "onset_min": 384.2, "back_m3": 476.8, "score": null, "kind": "backflow"}}, {"type": "Feature", "geometry": {"type": "Point", "coordinates": [77.0172404, 28.4799691]}, "properties": {"rank": 30.0, "ward": "35", "landmark": "Chintpurni mata mandir", "depth_m": 0.392, "vel_mps": 0.017, "pers_min": 693.6, "onset_min": 344.2, "back_m3": 2216.7, "score": null, "kind": "backflow"}}, {"type": "Feature", "geometry": {"type": "Point", "coordinates": [77.0494197, 28.4067603]}, "properties": {"rank": 31.0, "ward": "16", "landmark": "Uppal Southend S,W Block", "depth_m": 0.722, "vel_mps": 0.002, "pers_min": 647.4, "onset_min": 530.5, "back_m3": 458.4, "score": null, "kind": "backflow"}}, {"type": "Feature", "geometry": {"type": "Point", "coordinates": [77.0660306, 28.4346806]}, "properties": {"rank": 32.0, "ward": "14", "landmark": "Sector 46", "depth_m": 0.479, "vel_mps": 0.004, "pers_min": 464.8, "onset_min": 506.8, "back_m3": 1104.7, "score": null, "kind": "backflow"}}, {"type": "Feature", "geometry": {"type": "Point", "coordinates": [77.016227, 28.4797111]}, "properties": {"rank": 33.0, "ward": "31", "landmark": "Chintpurni mata mandir", "depth_m": 0.378, "vel_mps": 0.037, "pers_min": 693.9, "onset_min": 52.4, "back_m3": 2291.0, "score": null, "kind": "backflow"}}, {"type": "Feature", "geometry": {"type": "Point", "coordinates": [77.0341114, 28.5046429]}, "properties": {"rank": 34.0, "ward": "4", "landmark": "A block Plam vihar near Macdy", "depth_m": 0.541, "vel_mps": 0.003, "pers_min": 654.3, "onset_min": 298.8, "back_m3": 674.4, "score": null, "kind": "backflow"}}, {"type": "Feature", "geometry": {"type": "Point", "coordinates": [77.073091, 28.4680141]}, "properties": {"rank": 35.0, "ward": "24", "landmark": "Near Camera Museum, Village-Chakkarpur", "depth_m": 0.352, "vel_mps": 0.016, "pers_min": 476.2, "onset_min": 21.5, "back_m3": 2678.5, "score": null, "kind": "backflow"}}, {"type": "Feature", "geometry": {"type": "Point", "coordinates": [77.0080584, 28.4976018]}, "properties": {"rank": 36.0, "ward": "5", "landmark": "Gopi Pandit Wali Gali, Rajendra Park", "depth_m": 0.528, "vel_mps": 0.007, "pers_min": 612.4, "onset_min": 184.6, "back_m3": 702.4, "score": null, "kind": "backflow"}}, {"type": "Feature", "geometry": {"type": "Point", "coordinates": [77.0087788, 28.3902908]}, "properties": {"rank": 37.0, "ward": "17", "landmark": "Begampur khatola", "depth_m": 0.608, "vel_mps": 0.026, "pers_min": 244.8, "onset_min": 505.3, "back_m3": 928.6, "score": null, "kind": "backflow"}}, {"type": "Feature", "geometry": {"type": "Point", "coordinates": [77.0407214, 28.4419092]}, "properties": {"rank": 38.0, "ward": "13", "landmark": "Back side Govt. School, Islampur", "depth_m": 0.555, "vel_mps": 0.03, "pers_min": 386.5, "onset_min": 509.6, "back_m3": 540.0, "score": null, "kind": "backflow"}}, {"type": "Feature", "geometry": {"type": "Point", "coordinates": [77.0810266, 28.4396744]}, "properties": {"rank": 39.0, "ward": "21", "landmark": "H no.1241 to tempo stand, wazirabad", "depth_m": 0.663, "vel_mps": 0.007, "pers_min": 592.5, "onset_min": 359.4, "back_m3": 383.8, "score": null, "kind": "backflow"}}, {"type": "Feature", "geometry": {"type": "Point", "coordinates": [77.0491467, 28.4265643]}, "properties": {"rank": 40.0, "ward": "11", "landmark": "Sector 47 Near DPS", "depth_m": 0.558, "vel_mps": 0.005, "pers_min": 283.0, "onset_min": 513.1, "back_m3": 909.0, "score": null, "kind": "backflow"}}, {"type": "Feature", "geometry": {"type": "Point", "coordinates": [77.0779138, 28.4146435]}, "properties": {"rank": 41.0, "ward": "14", "landmark": "Soshant Lok Phase 3", "depth_m": 0.379, "vel_mps": 0.03, "pers_min": 296.9, "onset_min": 40.1, "back_m3": 3045.7, "score": null, "kind": "backflow"}}, {"type": "Feature", "geometry": {"type": "Point", "coordinates": [77.0161807, 28.440256]}, "properties": {"rank": 42.0, "ward": "11", "landmark": "Govt primary School Naharpur Rupa", "depth_m": 0.447, "vel_mps": 0.001, "pers_min": 554.7, "onset_min": 136.4, "back_m3": 1150.6, "score": null, "kind": "backflow"}}, {"type": "Feature", "geometry": {"type": "Point", "coordinates": [77.0598577, 28.3902543]}, "properties": {"rank": 43.0, "ward": "18", "landmark": "RR Colony", "depth_m": 0.501, "vel_mps": 0.005, "pers_min": 397.5, "onset_min": 471.2, "back_m3": 753.3, "score": null, "kind": "backflow"}}, {"type": "Feature", "geometry": {"type": "Point", "coordinates": [77.0247369, 28.4963752]}, "properties": {"rank": 44.0, "ward": "36", "landmark": "A Block, Ashok Vihar, Phase-III", "depth_m": 0.426, "vel_mps": 0.007, "pers_min": 508.4, "onset_min": 169.1, "back_m3": 1291.0, "score": null, "kind": "backflow"}}, {"type": "Feature", "geometry": {"type": "Point", "coordinates": [77.0284312, 28.5027404]}, "properties": {"rank": 45.0, "ward": "4", "landmark": "A Block, Ashok Vihar, Phase-III", "depth_m": 0.624, "vel_mps": 0.006, "pers_min": 505.2, "onset_min": 531.9, "back_m3": 343.4, "score": null, "kind": "backflow"}}, {"type": "Feature", "geometry": {"type": "Point", "coordinates": [77.0199652, 28.4314357]}, "properties": {"rank": 46.0, "ward": "11", "landmark": "Govt primary School Naharpur Rupa", "depth_m": 0.466, "vel_mps": 0.008, "pers_min": 571.0, "onset_min": 417.2, "back_m3": 922.6, "score": null, "kind": "backflow"}}, {"type": "Feature", "geometry": {"type": "Point", "coordinates": [77.0116455, 28.3908982]}, "properties": {"rank": 47.0, "ward": "17", "landmark": "Begampur khatola", "depth_m": 0.887, "vel_mps": 0.01, "pers_min": 664.7, "onset_min": 419.8, "back_m3": 330.1, "score": null, "kind": "backflow"}}, {"type": "Feature", "geometry": {"type": "Point", "coordinates": [77.0345019, 28.3945224]}, "properties": {"rank": 48.0, "ward": "18", "landmark": "Khota Colony", "depth_m": 0.475, "vel_mps": 0.005, "pers_min": 689.7, "onset_min": 107.8, "back_m3": 840.6, "score": null, "kind": "backflow"}}, {"type": "Feature", "geometry": {"type": "Point", "coordinates": [77.0722176, 28.421234]}, "properties": {"rank": 49.0, "ward": "14", "landmark": "Sector 57 part 1", "depth_m": 0.409, "vel_mps": 0.008, "pers_min": 637.6, "onset_min": 474.1, "back_m3": 1332.3, "score": null, "kind": "backflow"}}, {"type": "Feature", "geometry": {"type": "Point", "coordinates": [77.0612394, 28.446538]}, "properties": {"rank": 50.0, "ward": "12", "landmark": "Near H. No. 1637 Sector-45,", "depth_m": 0.468, "vel_mps": 0.011, "pers_min": 554.5, "onset_min": 494.1, "back_m3": 838.0, "score": null, "kind": "backflow"}}, {"type": "Feature", "geometry": {"type": "Point", "coordinates": [77.0691912, 28.4516509]}, "properties": {"rank": 51.0, "ward": "24", "landmark": "Near govt school Kanhai", "depth_m": 0.674, "vel_mps": 0.006, "pers_min": 330.2, "onset_min": 536.6, "back_m3": 369.4, "score": null, "kind": "backflow"}}, {"type": "Feature", "geometry": {"type": "Point", "coordinates": [77.0750559, 28.4499418]}, "properties": {"rank": 52.0, "ward": "24", "landmark": "Near govt school Kanhai", "depth_m": 0.529, "vel_mps": 0.038, "pers_min": 516.2, "onset_min": 508.8, "back_m3": 486.5, "score": null, "kind": "backflow"}}, {"type": "Feature", "geometry": {"type": "Point", "coordinates": [77.088604, 28.4400343]}, "properties": {"rank": 53.0, "ward": "21", "landmark": "Wazirabad Dhani chowk", "depth_m": 0.543, "vel_mps": 0.033, "pers_min": 485.0, "onset_min": 369.1, "back_m3": 437.2, "score": null, "kind": "backflow"}}, {"type": "Feature", "geometry": {"type": "Point", "coordinates": [77.0364183, 28.44917]}, "properties": {"rank": 54.0, "ward": "13", "landmark": "Near House No.239 Sector-15 Part-I", "depth_m": 0.647, "vel_mps": 0.002, "pers_min": 639.4, "onset_min": 531.7, "back_m3": 280.1, "score": null, "kind": "backflow"}}, {"type": "Feature", "geometry": {"type": "Point", "coordinates": [77.0500421, 28.4060877]}, "properties": {"rank": 55.0, "ward": "16", "landmark": "Rosewood City C Block", "depth_m": 0.654, "vel_mps": 0.006, "pers_min": 686.6, "onset_min": 571.5, "back_m3": 275.8, "score": null, "kind": "backflow"}}, {"type": "Feature", "geometry": {"type": "Point", "coordinates": [77.0356835, 28.4538461]}, "properties": {"rank": 56.0, "ward": "13", "landmark": "Near House No.239 Sector-15 Part-I", "depth_m": 0.382, "vel_mps": 0.004, "pers_min": 666.3, "onset_min": 135.6, "back_m3": 1423.5, "score": null, "kind": "backflow"}}, {"type": "Feature", "geometry": {"type": "Point", "coordinates": [77.051281, 28.4807116]}, "properties": {"rank": 57.0, "ward": "25", "landmark": "Sec 17A", "depth_m": 0.409, "vel_mps": 0.083, "pers_min": 332.9, "onset_min": 108.3, "back_m3": 1319.0, "score": null, "kind": "backflow"}}, {"type": "Feature", "geometry": {"type": "Point", "coordinates": [77.0343666, 28.4734763]}, "properties": {"rank": 58.0, "ward": "26", "landmark": "Shiv Mandir", "depth_m": 0.618, "vel_mps": 0.006, "pers_min": 694.9, "onset_min": 516.6, "back_m3": 263.0, "score": null, "kind": "backflow"}}, {"type": "Feature", "geometry": {"type": "Point", "coordinates": [77.0887492, 28.4405374]}, "properties": {"rank": 59.0, "ward": "21", "landmark": "Wazirabad Dhani chowk", "depth_m": 0.543, "vel_mps": 0.033, "pers_min": 485.0, "onset_min": 410.7, "back_m3": 383.7, "score": null, "kind": "backflow"}}, {"type": "Feature", "geometry": {"type": "Point", "coordinates": [77.0492559, 28.5158728]}, "properties": {"rank": 60.0, "ward": "4", "landmark": "Sec 23 near Ansal Plaza", "depth_m": 0.875, "vel_mps": 0.015, "pers_min": 677.5, "onset_min": 539.9, "back_m3": 252.5, "score": null, "kind": "backflow"}}, {"type": "Feature", "geometry": {"type": "Point", "coordinates": [77.0161534, 28.4928303]}, "properties": {"rank": 61.0, "ward": "36", "landmark": "Khedi sarkari school", "depth_m": 0.403, "vel_mps": 0.007, "pers_min": 586.5, "onset_min": 497.3, "back_m3": 1119.0, "score": null, "kind": "backflow"}}, {"type": "Feature", "geometry": {"type": "Point", "coordinates": [77.0435391, 28.4796507]}, "properties": {"rank": 62.0, "ward": "26", "landmark": "CRPF camp chowk,", "depth_m": 0.627, "vel_mps": 0.032, "pers_min": 375.3, "onset_min": 577.7, "back_m3": 245.6, "score": null, "kind": "backflow"}}, {"type": "Feature", "geometry": {"type": "Point", "coordinates": [77.1002962, 28.4252499]}, "properties": {"rank": 63.0, "ward": "20", "landmark": "E Block (Near Creek) Sec-55/56 Road", "depth_m": 0.892, "vel_mps": 0.021, "pers_min": 390.6, "onset_min": 590.1, "back_m3": 231.5, "score": null, "kind": "backflow"}}, {"type": "Feature", "geometry": {"type": "Point", "coordinates": [77.0910899, 28.450576]}, "properties": {"rank": 64.0, "ward": "22", "landmark": "Gulab Park road near H. No. 336 sushant lok,", "depth_m": 0.606, "vel_mps": 0.017, "pers_min": 526.7, "onset_min": 609.8, "back_m3": 221.6, "score": null, "kind": "backflow"}}, {"type": "Feature", "geometry": {"type": "Point", "coordinates": [77.0998463, 28.4244673]}, "properties": {"rank": 65.0, "ward": "20", "landmark": "E Block (Near Creek) Sec-55/56 Road", "depth_m": 0.684, "vel_mps": 0.06, "pers_min": 418.1, "onset_min": 580.3, "back_m3": 209.8, "score": null, "kind": "backflow"}}, {"type": "Feature", "geometry": {"type": "Point", "coordinates": [77.1004774, 28.4622159]}, "properties": {"rank": 66.0, "ward": "22", "landmark": "Opposite Sheeba Apartment GH-I sector 28", "depth_m": 0.83, "vel_mps": 0.032, "pers_min": 617.1, "onset_min": 614.3, "back_m3": 210.1, "score": null, "kind": "backflow"}}, {"type": "Feature", "geometry": {"type": "Point", "coordinates": [76.9984923, 28.4536893]}, "properties": {"rank": 67.0, "ward": "10", "landmark": "In front of Alpine School, Sec-10", "depth_m": 0.488, "vel_mps": 0.004, "pers_min": 546.1, "onset_min": 534.0, "back_m3": 497.3, "score": null, "kind": "backflow"}}, {"type": "Feature", "geometry": {"type": "Point", "coordinates": [77.0331465, 28.4194952]}, "properties": {"rank": 68.0, "ward": "11", "landmark": "Vipul World", "depth_m": 0.325, "vel_mps": 0.006, "pers_min": 548.6, "onset_min": 129.6, "back_m3": 1686.5, "score": null, "kind": "backflow"}}, {"type": "Feature", "geometry": {"type": "Point", "coordinates": [77.0104876, 28.4994225]}, "properties": {"rank": 69.0, "ward": "5", "landmark": "Gopi Pandit Wali Gali, Rajendra Park", "depth_m": 0.457, "vel_mps": 0.001, "pers_min": 572.8, "onset_min": 299.8, "back_m3": 623.1, "score": null, "kind": "backflow"}}, {"type": "Feature", "geometry": {"type": "Point", "coordinates": [77.1014129, 28.413958]}, "properties": {"rank": 70.0, "ward": "20", "landmark": "E Block (Near Creek) Sec-55/56 Road", "depth_m": 0.535, "vel_mps": 0.067, "pers_min": 207.9, "onset_min": 3.7, "back_m3": 1019.8, "score": null, "kind": "backflow"}}, {"type": "Feature", "geometry": {"type": "Point", "coordinates": [77.0539067, 28.4220101]}, "properties": {"rank": 71.0, "ward": "11", "landmark": "Sector 47 Near DPS", "depth_m": 0.473, "vel_mps": 0.017, "pers_min": 664.2, "onset_min": 523.8, "back_m3": 512.4, "score": null, "kind": "backflow"}}, {"type": "Feature", "geometry": {"type": "Point", "coordinates": [77.0166401, 28.46843]}, "properties": {"rank": 72.0, "ward": "32", "landmark": "New Colony near Gaba Kothi", "depth_m": 0.574, "vel_mps": 0.006, "pers_min": 293.3, "onset_min": 520.7, "back_m3": 398.2, "score": null, "kind": "backflow"}}, {"type": "Feature", "geometry": {"type": "Point", "coordinates": [77.0385978, 28.506175]}, "properties": {"rank": 73.0, "ward": "4", "landmark": "A block Plam vihar near Macdy", "depth_m": 0.407, "vel_mps": 0.006, "pers_min": 565.7, "onset_min": 481.1, "back_m3": 800.3, "score": null, "kind": "backflow"}}, {"type": "Feature", "geometry": {"type": "Point", "coordinates": [77.0677231, 28.4517905]}, "properties": {"rank": 74.0, "ward": "24", "landmark": "Near H. No. 1637 Sector-45,", "depth_m": 0.548, "vel_mps": 0.005, "pers_min": 374.0, "onset_min": 511.8, "back_m3": 274.1, "score": null, "kind": "backflow"}}, {"type": "Feature", "geometry": {"type": "Point", "coordinates": [77.0346531, 28.4724727]}, "properties": {"rank": 75.0, "ward": "26", "landmark": "Shiv Mandir", "depth_m": 0.628, "vel_mps": 0.002, "pers_min": 294.0, "onset_min": 533.2, "back_m3": 305.9, "score": null, "kind": "backflow"}}, {"type": "Feature", "geometry": {"type": "Point", "coordinates": [76.9816082, 28.4579971]}, "properties": {"rank": 76.0, "ward": "7", "landmark": "Basai Village, near Lakhpat Kataria house", "depth_m": 0.337, "vel_mps": 0.005, "pers_min": 635.1, "onset_min": 485.9, "back_m3": 1333.1, "score": null, "kind": "backflow"}}, {"type": "Feature", "geometry": {"type": "Point", "coordinates": [77.0390481, 28.4372668]}, "properties": {"rank": 77.0, "ward": "12", "landmark": "Back side Govt. School, Islampur", "depth_m": 0.375, "vel_mps": 0.004, "pers_min": 528.7, "onset_min": 386.0, "back_m3": 954.3, "score": null, "kind": "backflow"}}, {"type": "Feature", "geometry": {"type": "Point", "coordinates": [77.0149233, 28.4864147]}, "properties": {"rank": 78.0, "ward": "35", "landmark": "Durga sweets khedi", "depth_m": 0.586, "vel_mps": 0.008, "pers_min": 643.7, "onset_min": 559.4, "back_m3": 189.4, "score": null, "kind": "backflow"}}, {"type": "Feature", "geometry": {"type": "Point", "coordinates": [77.0688033, 28.4509642]}, "properties": {"rank": 79.0, "ward": "24", "landmark": "Near govt school Kanhai", "depth_m": 0.654, "vel_mps": 0.01, "pers_min": 286.3, "onset_min": 534.4, "back_m3": 290.9, "score": null, "kind": "backflow"}}, {"type": "Feature", "geometry": {"type": "Point", "coordinates": [77.0747844, 28.4240035]}, "properties": {"rank": 80.0, "ward": "14", "landmark": "Sector 57 part 1", "depth_m": 0.322, "vel_mps": 0.031, "pers_min": 580.0, "onset_min": 29.1, "back_m3": 1291.6, "score": null, "kind": "backflow"}}, {"type": "Feature", "geometry": {"type": "Point", "coordinates": [77.0397689, 28.5076102]}, "properties": {"rank": 81.0, "ward": "4", "landmark": "A block Plam vihar near Macdy", "depth_m": 0.368, "vel_mps": 0.007, "pers_min": 580.6, "onset_min": 259.8, "back_m3": 921.6, "score": null, "kind": "backflow"}}, {"type": "Feature", "geometry": {"type": "Point", "coordinates": [77.0906158, 28.4328365]}, "properties": {"rank": 82.0, "ward": "21", "landmark": "Wazirabad Dhani chowk", "depth_m": 0.741, "vel_mps": 0.005, "pers_min": 296.5, "onset_min": 562.9, "back_m3": 259.8, "score": null, "kind": "backflow"}}, {"type": "Feature", "geometry": {"type": "Point", "coordinates": [77.098704, 28.4813593]}, "properties": {"rank": 83.0, "ward": "1", "landmark": "Sikenderpur near Harijan Basti", "depth_m": 1.007, "vel_mps": 0.01, "pers_min": 295.4, "onset_min": 541.7, "back_m3": 258.4, "score": null, "kind": "backflow"}}, {"type": "Feature", "geometry": {"type": "Point", "coordinates": [77.0441806, 28.4681518]}, "properties": {"rank": 84.0, "ward": "25", "landmark": "Old DLF sec 14", "depth_m": 0.388, "vel_mps": 0.007, "pers_min": 624.1, "onset_min": 271.0, "back_m3": 771.1, "score": null, "kind": "backflow"}}, {"type": "Feature", "geometry": {"type": "Point", "coordinates": [77.0750933, 28.4506157]}, "properties": {"rank": 85.0, "ward": "24", "landmark": "Near govt school Kanhai", "depth_m": 0.475, "vel_mps": 0.012, "pers_min": 372.9, "onset_min": 542.9, "back_m3": 393.3, "score": null, "kind": "backflow"}}, {"type": "Feature", "geometry": {"type": "Point", "coordinates": [77.0110231, 28.390869]}, "properties": {"rank": 86.0, "ward": "17", "landmark": "Begampur khatola", "depth_m": 0.889, "vel_mps": 0.018, "pers_min": 671.5, "onset_min": 631.6, "back_m3": 151.9, "score": null, "kind": "backflow"}}, {"type": "Feature", "geometry": {"type": "Point", "coordinates": [77.0715962, 28.4781138]}, "properties": {"rank": 87.0, "ward": "24", "landmark": "Indian oil service road sector 18", "depth_m": 0.321, "vel_mps": 0.014, "pers_min": 713.5, "onset_min": 549.9, "back_m3": 1202.2, "score": null, "kind": "backflow"}}, {"type": "Feature", "geometry": {"type": "Point", "coordinates": [77.0156285, 28.4402778]}, "properties": {"rank": 88.0, "ward": "11", "landmark": "Govt primary School Naharpur Rupa", "depth_m": 0.424, "vel_mps": 0.003, "pers_min": 507.3, "onset_min": 325.9, "back_m3": 557.5, "score": null, "kind": "backflow"}}, {"type": "Feature", "geometry": {"type": "Point", "coordinates": [77.033767, 28.5129158]}, "properties": {"rank": 89.0, "ward": "4", "landmark": "Palam Vihar D Block near Mother dairy", "depth_m": 0.524, "vel_mps": 0.025, "pers_min": 591.2, "onset_min": 538.6, "back_m3": 256.4, "score": null, "kind": "backflow"}}, {"type": "Feature", "geometry": {"type": "Point", "coordinates": [77.0247581, 28.4969163]}, "properties": {"rank": 90.0, "ward": "36", "landmark": "A Block, Ashok Vihar, Phase-III", "depth_m": 0.486, "vel_mps": 0.004, "pers_min": 609.5, "onset_min": 291.5, "back_m3": 343.0, "score": null, "kind": "backflow"}}, {"type": "Feature", "geometry": {"type": "Point", "coordinates": [77.0473325, 28.5160913]}, "properties": {"rank": 91.0, "ward": "4", "landmark": "Sec 23 near Ansal Plaza", "depth_m": 0.637, "vel_mps": 0.022, "pers_min": 353.8, "onset_min": 612.2, "back_m3": 147.4, "score": null, "kind": "backflow"}}, {"type": "Feature", "geometry": {"type": "Point", "coordinates": [77.0268296, 28.4552642]}, "properties": {"rank": 92.0, "ward": "29", "landmark": "Near Beri wala Bagh Shivaji Nagar", "depth_m": 0.541, "vel_mps": 0.003, "pers_min": 555.2, "onset_min": 556.9, "back_m3": 222.1, "score": null, "kind": "backflow"}}, {"type": "Feature", "geometry": {"type": "Point", "coordinates": [77.0490884, 28.4509446]}, "properties": {"rank": 93.0, "ward": "13", "landmark": "Jubli park sector 31", "depth_m": 0.368, "vel_mps": 0.001, "pers_min": 518.0, "onset_min": 509.3, "back_m3": 794.6, "score": null, "kind": "backflow"}}, {"type": "Feature", "geometry": {"type": "Point", "coordinates": [77.0750233, 28.4401022]}, "properties": {"rank": 94.0, "ward": "21", "landmark": "Ardee city gate no.3", "depth_m": 0.53, "vel_mps": 0.005, "pers_min": 690.3, "onset_min": 505.7, "back_m3": 232.7, "score": null, "kind": "backflow"}}, {"type": "Feature", "geometry": {"type": "Point", "coordinates": [77.0005038, 28.4592499]}, "properties": {"rank": 95.0, "ward": "8", "landmark": "In front of HUDA Market Sec-10 (Near Blue Bells & Euro International School)", "depth_m": 0.344, "vel_mps": 0.005, "pers_min": 341.3, "onset_min": 109.5, "back_m3": 1081.1, "score": null, "kind": "backflow"}}, {"type": "Feature", "geometry": {"type": "Point", "coordinates": [77.0408615, 28.5238316]}, "properties": {"rank": 96.0, "ward": "4", "landmark": "Sec 23 near Ansal Plaza", "depth_m": 0.357, "vel_mps": 0.011, "pers_min": 492.0, "onset_min": 526.6, "back_m3": 820.9, "score": null, "kind": "backflow"}}, {"type": "Feature", "geometry": {"type": "Point", "coordinates": [77.0428882, 28.4381522]}, "properties": {"rank": 97.0, "ward": "12", "landmark": "Back side Govt. School, Islampur", "depth_m": 0.311, "vel_mps": 0.011, "pers_min": 451.0, "onset_min": 383.5, "back_m3": 1092.8, "score": null, "kind": "backflow"}}, {"type": "Feature", "geometry": {"type": "Point", "coordinates": [77.0398171, 28.4295943]}, "properties": {"rank": 98.0, "ward": "12", "landmark": "Islampur Village entry point, Sector 38, Gurugram", "depth_m": 0.308, "vel_mps": 0.013, "pers_min": 602.8, "onset_min": 446.7, "back_m3": 1110.9, "score": null, "kind": "backflow"}}, {"type": "Feature", "geometry": {"type": "Point", "coordinates": [77.0086643, 28.4351222]}, "properties": {"rank": 99.0, "ward": "9", "landmark": "Sector 10 A Market near Gate No-7", "depth_m": 0.472, "vel_mps": 0.011, "pers_min": 603.5, "onset_min": 429.2, "back_m3": 319.2, "score": null, "kind": "backflow"}}, {"type": "Feature", "geometry": {"type": "Point", "coordinates": [77.0820407, 28.4402725]}, "properties": {"rank": 100.0, "ward": "21", "landmark": "Wazirabad Dhani chowk", "depth_m": 0.532, "vel_mps": 0.071, "pers_min": 279.7, "onset_min": 483.6, "back_m3": 351.6, "score": null, "kind": "backflow"}}, {"type": "Feature", "geometry": {"type": "Point", "coordinates": [77.0423513, 28.4301654]}, "properties": {"rank": 101.0, "ward": "12", "landmark": "Islampur Village entry point, Sector 38, Gurugram", "depth_m": 0.414, "vel_mps": 0.005, "pers_min": 628.4, "onset_min": 532.5, "back_m3": 479.5, "score": null, "kind": "backflow"}}, {"type": "Feature", "geometry": {"type": "Point", "coordinates": [77.0238884, 28.4967353]}, "properties": {"rank": 102.0, "ward": "36", "landmark": "A Block, Ashok Vihar, Phase-III", "depth_m": 0.486, "vel_mps": 0.004, "pers_min": 609.5, "onset_min": 337.5, "back_m3": 272.2, "score": null, "kind": "backflow"}}, {"type": "Feature", "geometry": {"type": "Point", "coordinates": [77.0152267, 28.4957676]}, "properties": {"rank": 103.0, "ward": "5", "landmark": "Palam Vihar C 2 Block", "depth_m": 0.472, "vel_mps": 0.003, "pers_min": 321.4, "onset_min": 501.9, "back_m3": 395.0, "score": null, "kind": "backflow"}}, {"type": "Feature", "geometry": {"type": "Point", "coordinates": [77.0845224, 28.4474149]}, "properties": {"rank": 104.0, "ward": "24", "landmark": "Gulab Park road near H. No. 336 sushant lok,", "depth_m": 0.328, "vel_mps": 0.025, "pers_min": 273.2, "onset_min": 464.3, "back_m3": 1608.4, "score": null, "kind": "backflow"}}, {"type": "Feature", "geometry": {"type": "Point", "coordinates": [77.0897193, 28.4620636]}, "properties": {"rank": 105.0, "ward": "22", "landmark": "Opposite Sheeba Apartment GH-I sector 28", "depth_m": 0.432, "vel_mps": 0.022, "pers_min": 488.0, "onset_min": 521.4, "back_m3": 366.7, "score": null, "kind": "backflow"}}, {"type": "Feature", "geometry": {"type": "Point", "coordinates": [77.0579159, 28.4226241]}, "properties": {"rank": 106.0, "ward": "15", "landmark": "Sector 47 Near DPS", "depth_m": 0.48, "vel_mps": 0.008, "pers_min": 530.6, "onset_min": 544.5, "back_m3": 245.4, "score": null, "kind": "backflow"}}, {"type": "Feature", "geometry": {"type": "Point", "coordinates": [77.0426555, 28.4568841]}, "properties": {"rank": 107.0, "ward": "13", "landmark": "Sector 15 part II along citizen park", "depth_m": 0.324, "vel_mps": 0.014, "pers_min": 566.6, "onset_min": 340.3, "back_m3": 771.4, "score": null, "kind": "backflow"}}, {"type": "Feature", "geometry": {"type": "Point", "coordinates": [77.0434936, 28.4593191]}, "properties": {"rank": 108.0, "ward": "13", "landmark": "Bandh road, specifically near H no 1094 Sec 15 Part -II", "depth_m": 0.593, "vel_mps": 0.004, "pers_min": 286.7, "onset_min": 560.0, "back_m3": 174.0, "score": null, "kind": "backflow"}}, {"type": "Feature", "geometry": {"type": "Point", "coordinates": [77.0390246, 28.4294212]}, "properties": {"rank": 109.0, "ward": "12", "landmark": "Islampur Village entry point, Sector 38, Gurugram", "depth_m": 0.382, "vel_mps": 0.003, "pers_min": 548.4, "onset_min": 502.5, "back_m3": 480.7, "score": null, "kind": "backflow"}}, {"type": "Feature", "geometry": {"type": "Point", "coordinates": [77.0951807, 28.4508018]}, "properties": {"rank": 110.0, "ward": "22", "landmark": "Gulab Park road near H. No. 336 sushant lok,", "depth_m": 0.486, "vel_mps": 0.019, "pers_min": 433.2, "onset_min": 545.6, "back_m3": 209.7, "score": null, "kind": "backflow"}}, {"type": "Feature", "geometry": {"type": "Point", "coordinates": [77.0374877, 28.5084724]}, "properties": {"rank": 111.0, "ward": "4", "landmark": "A block Plam vihar near Macdy", "depth_m": 0.365, "vel_mps": 0.002, "pers_min": 437.2, "onset_min": 531.4, "back_m3": 504.9, "score": null, "kind": "backflow"}}, {"type": "Feature", "geometry": {"type": "Point", "coordinates": [77.0592044, 28.4489375]}, "properties": {"rank": 112.0, "ward": "13", "landmark": "Sector 40 house no 1114", "depth_m": 0.472, "vel_mps": 0.003, "pers_min": 290.1, "onset_min": 526.6, "back_m3": 381.6, "score": null, "kind": "backflow"}}, {"type": "Feature", "geometry": {"type": "Point", "coordinates": [77.0263402, 28.48867]}, "properties": {"rank": 113.0, "ward": "36", "landmark": "Ashok Vihar Phase-II, Near Chotu Ram Chowk", "depth_m": 0.336, "vel_mps": 0.006, "pers_min": 280.1, "onset_min": 466.8, "back_m3": 1135.5, "score": null, "kind": "backflow"}}, {"type": "Feature", "geometry": {"type": "Point", "coordinates": [77.0358614, 28.4500401]}, "properties": {"rank": 114.0, "ward": "13", "landmark": "Near House No.239 Sector-15 Part-I", "depth_m": 0.572, "vel_mps": 0.001, "pers_min": 637.8, "onset_min": 575.9, "back_m3": 105.3, "score": null, "kind": "backflow"}}, {"type": "Feature", "geometry": {"type": "Point", "coordinates": [76.9954049, 28.4798717]}, "properties": {"rank": 115.0, "ward": "7", "landmark": "Dhanwapur Village near Bikaner Chowk", "depth_m": 0.36, "vel_mps": 0.016, "pers_min": 441.7, "onset_min": 354.3, "back_m3": 504.9, "score": null, "kind": "backflow"}}, {"type": "Feature", "geometry": {"type": "Point", "coordinates": [76.9986751, 28.4478348]}, "properties": {"rank": 116.0, "ward": "10", "landmark": "Sector 10 A Gate No-5", "depth_m": 0.596, "vel_mps": 0.002, "pers_min": 293.4, "onset_min": 646.0, "back_m3": 141.8, "score": null, "kind": "backflow"}}, {"type": "Feature", "geometry": {"type": "Point", "coordinates": [77.0478276, 28.3994277]}, "properties": {"rank": 117.0, "ward": "15", "landmark": "Vatika Chowk", "depth_m": 0.328, "vel_mps": 0.021, "pers_min": 288.6, "onset_min": 481.1, "back_m3": 1093.4, "score": null, "kind": "backflow"}}, {"type": "Feature", "geometry": {"type": "Point", "coordinates": [76.9874267, 28.4656861]}, "properties": {"rank": 118.0, "ward": "7", "landmark": "Basai Village near Community Center", "depth_m": 0.312, "vel_mps": 0.003, "pers_min": 313.8, "onset_min": 85.5, "back_m3": 977.8, "score": null, "kind": "backflow"}}, {"type": "Feature", "geometry": {"type": "Point", "coordinates": [77.0305383, 28.5088878]}, "properties": {"rank": 119.0, "ward": "4", "landmark": "Palam Vihar D Block near Mother dairy", "depth_m": 0.495, "vel_mps": 0.018, "pers_min": 500.4, "onset_min": 607.5, "back_m3": 167.4, "score": null, "kind": "backflow"}}, {"type": "Feature", "geometry": {"type": "Point", "coordinates": [77.056659, 28.4412879]}, "properties": {"rank": 120.0, "ward": "12", "landmark": "Near H. no. 559, Sec-39, Bakhtawar Chowk", "depth_m": 0.409, "vel_mps": 0.007, "pers_min": 531.9, "onset_min": 490.6, "back_m3": 295.8, "score": null, "kind": "backflow"}}, {"type": "Feature", "geometry": {"type": "Point", "coordinates": [77.017926, 28.4399324]}, "properties": {"rank": 121.0, "ward": "11", "landmark": "Govt primary School Naharpur Rupa", "depth_m": 0.374, "vel_mps": 0.004, "pers_min": 462.5, "onset_min": 404.3, "back_m3": 376.3, "score": null, "kind": "backflow"}}, {"type": "Feature", "geometry": {"type": "Point", "coordinates": [77.0248002, 28.4976466]}, "properties": {"rank": 122.0, "ward": "36", "landmark": "A Block, Ashok Vihar, Phase-III", "depth_m": 0.423, "vel_mps": 0.005, "pers_min": 468.9, "onset_min": 393.0, "back_m3": 257.4, "score": null, "kind": "backflow"}}, {"type": "Feature", "geometry": {"type": "Point", "coordinates": [77.0341195, 28.4574136]}, "properties": {"rank": 123.0, "ward": "27", "landmark": "Jyoti Hospital Near Ganpati Enclave", "depth_m": 0.394, "vel_mps": 0.007, "pers_min": 372.5, "onset_min": 538.1, "back_m3": 312.4, "score": null, "kind": "backflow"}}, {"type": "Feature", "geometry": {"type": "Point", "coordinates": [77.0427748, 28.4416821]}, "properties": {"rank": 124.0, "ward": "12", "landmark": "Back side Govt. School, Islampur", "depth_m": 0.419, "vel_mps": 0.008, "pers_min": 271.3, "onset_min": 522.3, "back_m3": 483.4, "score": null, "kind": "backflow"}}, {"type": "Feature", "geometry": {"type": "Point", "coordinates": [77.0279515, 28.4948858]}, "properties": {"rank": 125.0, "ward": "36", "landmark": "A Block, Ashok Vihar, Phase-III", "depth_m": 0.511, "vel_mps": 0.009, "pers_min": 564.7, "onset_min": 662.5, "back_m3": 120.0, "score": null, "kind": "backflow"}}, {"type": "Feature", "geometry": {"type": "Point", "coordinates": [77.0997386, 28.4805808]}, "properties": {"rank": 126.0, "ward": "1", "landmark": "Sikenderpur near Harijan Basti", "depth_m": 1.029, "vel_mps": 0.026, "pers_min": 258.7, "onset_min": 575.4, "back_m3": 129.6, "score": null, "kind": "backflow"}}, {"type": "Feature", "geometry": {"type": "Point", "coordinates": [77.0498054, 28.4572818]}, "properties": {"rank": 127.0, "ward": "13", "landmark": "Jubli park sector 31", "depth_m": 0.328, "vel_mps": 0.006, "pers_min": 407.0, "onset_min": 500.5, "back_m3": 451.1, "score": null, "kind": "backflow"}}, {"type": "Feature", "geometry": {"type": "Point", "coordinates": [77.0761202, 28.424617]}, "properties": {"rank": 128.0, "ward": "14", "landmark": "Sector 57 part 1", "depth_m": 0.512, "vel_mps": 0.021, "pers_min": 715.3, "onset_min": 25.9, "back_m3": 107.1, "score": null, "kind": "backflow"}}, {"type": "Feature", "geometry": {"type": "Point", "coordinates": [77.018019, 28.4403957]}, "properties": {"rank": 129.0, "ward": "11", "landmark": "Govt primary School Naharpur Rupa", "depth_m": 0.369, "vel_mps": 0.009, "pers_min": 379.9, "onset_min": 533.3, "back_m3": 317.0, "score": null, "kind": "backflow"}}, {"type": "Feature", "geometry": {"type": "Point", "coordinates": [77.0259043, 28.4946569]}, "properties": {"rank": 130.0, "ward": "36", "landmark": "A Block, Ashok Vihar, Phase-III", "depth_m": 0.444, "vel_mps": 0.013, "pers_min": 498.8, "onset_min": 592.5, "back_m3": 177.1, "score": null, "kind": "backflow"}}, {"type": "Feature", "geometry": {"type": "Point", "coordinates": [77.0249008, 28.5151169]}, "properties": {"rank": 131.0, "ward": "5", "landmark": "Palam Vihar D Block near Mother dairy", "depth_m": 0.36, "vel_mps": 0.006, "pers_min": 281.3, "onset_min": 346.6, "back_m3": 605.1, "score": null, "kind": "backflow"}}, {"type": "Feature", "geometry": {"type": "Point", "coordinates": [77.0336788, 28.4794534]}, "properties": {"rank": 132.0, "ward": "26", "landmark": "CRPF camp chowk,", "depth_m": 0.343, "vel_mps": 0.055, "pers_min": 700.8, "onset_min": 235.7, "back_m3": 363.3, "score": null, "kind": "backflow"}}, {"type": "Feature", "geometry": {"type": "Point", "coordinates": [77.0528867, 28.4811273]}, "properties": {"rank": 133.0, "ward": "25", "landmark": "Sec 17A", "depth_m": 0.43, "vel_mps": 0.046, "pers_min": 277.0, "onset_min": 493.4, "back_m3": 352.7, "score": null, "kind": "backflow"}}, {"type": "Feature", "geometry": {"type": "Point", "coordinates": [77.0389021, 28.4365088]}, "properties": {"rank": 134.0, "ward": "12", "landmark": "Back side Govt. School, Islampur", "depth_m": 0.302, "vel_mps": 0.008, "pers_min": 298.0, "onset_min": 513.6, "back_m3": 790.0, "score": null, "kind": "backflow"}}, {"type": "Feature", "geometry": {"type": "Point", "coordinates": [77.0141463, 28.4962597]}, "properties": {"rank": 135.0, "ward": "34", "landmark": "Palam Vihar C 2 Block", "depth_m": 0.48, "vel_mps": 0.007, "pers_min": 297.2, "onset_min": 566.9, "back_m3": 206.7, "score": null, "kind": "backflow"}}, {"type": "Feature", "geometry": {"type": "Point", "coordinates": [77.097844, 28.4228559]}, "properties": {"rank": 136.0, "ward": "20", "landmark": "E Block (Near Creek) Sec-55/56 Road", "depth_m": 0.55, "vel_mps": 0.041, "pers_min": 268.7, "onset_min": 636.4, "back_m3": 145.9, "score": null, "kind": "backflow"}}, {"type": "Feature", "geometry": {"type": "Point", "coordinates": [77.063266, 28.4215888]}, "properties": {"rank": 137.0, "ward": "14", "landmark": "Sector 57 part 1", "depth_m": 0.338, "vel_mps": 0.023, "pers_min": 446.5, "onset_min": 531.5, "back_m3": 368.6, "score": null, "kind": "backflow"}}, {"type": "Feature", "geometry": {"type": "Point", "coordinates": [77.072517, 28.4422271]}, "properties": {"rank": 138.0, "ward": "21", "landmark": "Ardee city gate no.3", "depth_m": 0.459, "vel_mps": 0.026, "pers_min": 585.1, "onset_min": 652.3, "back_m3": 144.0, "score": null, "kind": "backflow"}}, {"type": "Feature", "geometry": {"type": "Point", "coordinates": [77.0828987, 28.4419896]}, "properties": {"rank": 139.0, "ward": "21", "landmark": "Wazirabad Dhani chowk", "depth_m": 0.362, "vel_mps": 0.003, "pers_min": 310.5, "onset_min": 524.9, "back_m3": 438.8, "score": null, "kind": "backflow"}}, {"type": "Feature", "geometry": {"type": "Point", "coordinates": [77.0547267, 28.4504467]}, "properties": {"rank": 140.0, "ward": "13", "landmark": "Sector 40 house no 1114", "depth_m": 0.365, "vel_mps": 0.005, "pers_min": 620.7, "onset_min": 539.0, "back_m3": 291.4, "score": null, "kind": "backflow"}}, {"type": "Feature", "geometry": {"type": "Point", "coordinates": [77.0544256, 28.4802378]}, "properties": {"rank": 141.0, "ward": "25", "landmark": "Sec 17A", "depth_m": 0.406, "vel_mps": 0.047, "pers_min": 282.2, "onset_min": 530.4, "back_m3": 347.7, "score": null, "kind": "backflow"}}, {"type": "Feature", "geometry": {"type": "Point", "coordinates": [77.0836236, 28.4304398]}, "properties": {"rank": 142.0, "ward": "21", "landmark": "Jheel chowk, wazirabad", "depth_m": 0.397, "vel_mps": 0.013, "pers_min": 649.1, "onset_min": 581.0, "back_m3": 207.0, "score": null, "kind": "backflow"}}, {"type": "Feature", "geometry": {"type": "Point", "coordinates": [77.0475853, 28.5044901]}, "properties": {"rank": 143.0, "ward": "4", "landmark": "Sec 23 near Ansal Plaza", "depth_m": 0.399, "vel_mps": 0.001, "pers_min": 285.5, "onset_min": 482.5, "back_m3": 362.3, "score": null, "kind": "backflow"}}, {"type": "Feature", "geometry": {"type": "Point", "coordinates": [77.0279678, 28.4441528]}, "properties": {"rank": 144.0, "ward": "11", "landmark": "Hans Enclave, Sector 33, Gurugram, Haryana 122022", "depth_m": 0.364, "vel_mps": 0.024, "pers_min": 281.6, "onset_min": 519.5, "back_m3": 457.7, "score": null, "kind": "backflow"}}, {"type": "Feature", "geometry": {"type": "Point", "coordinates": [77.0273707, 28.4951922]}, "properties": {"rank": 145.0, "ward": "36", "landmark": "A Block, Ashok Vihar, Phase-III", "depth_m": 0.439, "vel_mps": 0.009, "pers_min": 504.2, "onset_min": 629.7, "back_m3": 135.1, "score": null, "kind": "backflow"}}, {"type": "Feature", "geometry": {"type": "Point", "coordinates": [77.0606338, 28.4302439]}, "properties": {"rank": 146.0, "ward": "14", "landmark": "Sector 51", "depth_m": 0.44, "vel_mps": 0.021, "pers_min": 582.6, "onset_min": 622.2, "back_m3": 131.6, "score": null, "kind": "backflow"}}, {"type": "Feature", "geometry": {"type": "Point", "coordinates": [77.1137253, 28.4195806]}, "properties": {"rank": 147.0, "ward": "20", "landmark": "Village Ghata Under Pass", "depth_m": 0.497, "vel_mps": 0.127, "pers_min": 205.8, "onset_min": 508.0, "back_m3": 246.3, "score": null, "kind": "backflow"}}, {"type": "Feature", "geometry": {"type": "Point", "coordinates": [77.0210291, 28.4772756]}, "properties": {"rank": 148.0, "ward": "35", "landmark": "Sec 5 market", "depth_m": 0.443, "vel_mps": 0.01, "pers_min": 585.4, "onset_min": 544.7, "back_m3": 127.5, "score": null, "kind": "backflow"}}, {"type": "Feature", "geometry": {"type": "Point", "coordinates": [77.0459575, 28.3849504]}, "properties": {"rank": 149.0, "ward": "18", "landmark": "Khota Colony", "depth_m": 0.502, "vel_mps": 0.003, "pers_min": 304.1, "onset_min": 642.6, "back_m3": 120.5, "score": null, "kind": "backflow"}}, {"type": "Feature", "geometry": {"type": "Point", "coordinates": [77.0226254, 28.5024479]}, "properties": {"rank": 150.0, "ward": "4", "landmark": "Palam Vihar C 2 Block", "depth_m": 0.353, "vel_mps": 0.009, "pers_min": 356.1, "onset_min": 532.7, "back_m3": 243.5, "score": null, "kind": "backflow"}}, {"type": "Feature", "geometry": {"type": "Point", "coordinates": [77.0924236, 28.4625363]}, "properties": {"rank": 151.0, "ward": "22", "landmark": "Opposite Sheeba Apartment GH-I sector 28", "depth_m": 0.381, "vel_mps": 0.015, "pers_min": 293.2, "onset_min": 586.4, "back_m3": 310.8, "score": null, "kind": "backflow"}}, {"type": "Feature", "geometry": {"type": "Point", "coordinates": [77.0679543, 28.4522269]}, "properties": {"rank": 152.0, "ward": "24", "landmark": "Near H. No. 1637 Sector-45,", "depth_m": 0.493, "vel_mps": 0.011, "pers_min": 284.6, "onset_min": 642.0, "back_m3": 142.3, "score": null, "kind": "backflow"}}, {"type": "Feature", "geometry": {"type": "Point", "coordinates": [77.0501954, 28.4043799]}, "properties": {"rank": 153.0, "ward": "16", "landmark": "M R Land Sec 65", "depth_m": 0.342, "vel_mps": 0.01, "pers_min": 364.3, "onset_min": 564.1, "back_m3": 246.8, "score": null, "kind": "backflow"}}, {"type": "Feature", "geometry": {"type": "Point", "coordinates": [77.0257351, 28.4895746]}, "properties": {"rank": 154.0, "ward": "36", "landmark": "Ashok Vihar Phase-II, Near Chotu Ram Chowk", "depth_m": 0.363, "vel_mps": 0.007, "pers_min": 440.9, "onset_min": 516.8, "back_m3": 207.7, "score": null, "kind": "backflow"}}, {"type": "Feature", "geometry": {"type": "Point", "coordinates": [77.0261669, 28.4960381]}, "properties": {"rank": 155.0, "ward": "36", "landmark": "A Block, Ashok Vihar, Phase-III", "depth_m": 0.401, "vel_mps": 0.028, "pers_min": 430.6, "onset_min": 627.9, "back_m3": 142.4, "score": null, "kind": "backflow"}}, {"type": "Feature", "geometry": {"type": "Point", "coordinates": [77.0254661, 28.5059744]}, "properties": {"rank": 156.0, "ward": "4", "landmark": "Palam Vihar D Block near Mother dairy", "depth_m": 0.3, "vel_mps": 0.008, "pers_min": 549.3, "onset_min": 271.9, "back_m3": 307.0, "score": null, "kind": "backflow"}}, {"type": "Feature", "geometry": {"type": "Point", "coordinates": [77.0274195, 28.4440752]}, "properties": {"rank": 157.0, "ward": "11", "landmark": "Hans Enclave, Sector 33, Gurugram, Haryana 122022", "depth_m": 0.397, "vel_mps": 0.013, "pers_min": 256.2, "onset_min": 552.1, "back_m3": 321.3, "score": null, "kind": "backflow"}}, {"type": "Feature", "geometry": {"type": "Point", "coordinates": [77.0044546, 28.429946]}, "properties": {"rank": 158.0, "ward": "9", "landmark": "Behrampur, Tata motors company and opposite Axis Bank ATM bahrampur road", "depth_m": 0.373, "vel_mps": 0.002, "pers_min": 571.4, "onset_min": 459.8, "back_m3": 173.2, "score": null, "kind": "backflow"}}, {"type": "Feature", "geometry": {"type": "Point", "coordinates": [77.0487081, 28.4094893]}, "properties": {"rank": 159.0, "ward": "16", "landmark": "Uppal Southend S,W Block", "depth_m": 0.376, "vel_mps": 0.005, "pers_min": 385.8, "onset_min": 546.3, "back_m3": 165.1, "score": null, "kind": "backflow"}}, {"type": "Feature", "geometry": {"type": "Point", "coordinates": [77.0259277, 28.5151219]}, "properties": {"rank": 160.0, "ward": "5", "landmark": "Palam Vihar D Block near Mother dairy", "depth_m": 0.352, "vel_mps": 0.018, "pers_min": 282.4, "onset_min": 550.7, "back_m3": 348.7, "score": null, "kind": "backflow"}}, {"type": "Feature", "geometry": {"type": "Point", "coordinates": [77.0271064, 28.5078787]}, "properties": {"rank": 161.0, "ward": "4", "landmark": "Palam Vihar D Block near Mother dairy", "depth_m": 0.396, "vel_mps": 0.001, "pers_min": 292.6, "onset_min": 565.4, "back_m3": 233.7, "score": null, "kind": "backflow"}}, {"type": "Feature", "geometry": {"type": "Point", "coordinates": [77.0206662, 28.4311929]}, "properties": {"rank": 162.0, "ward": "11", "landmark": "Govt primary School Naharpur Rupa", "depth_m": 0.406, "vel_mps": 0.007, "pers_min": 336.3, "onset_min": 654.7, "back_m3": 154.5, "score": null, "kind": "backflow"}}, {"type": "Feature", "geometry": {"type": "Point", "coordinates": [77.046768, 28.5160254]}, "properties": {"rank": 163.0, "ward": "4", "landmark": "Sec 23 near Ansal Plaza", "depth_m": 0.411, "vel_mps": 0.072, "pers_min": 261.7, "onset_min": 521.1, "back_m3": 240.4, "score": null, "kind": "backflow"}}, {"type": "Feature", "geometry": {"type": "Point", "coordinates": [77.0877181, 28.4383966]}, "properties": {"rank": 164.0, "ward": "21", "landmark": "Wazirabad Dhani chowk", "depth_m": 0.33, "vel_mps": 0.011, "pers_min": 248.7, "onset_min": 496.0, "back_m3": 512.7, "score": null, "kind": "backflow"}}, {"type": "Feature", "geometry": {"type": "Point", "coordinates": [77.0529126, 28.4803238]}, "properties": {"rank": 165.0, "ward": "25", "landmark": "Sec 17A", "depth_m": 0.43, "vel_mps": 0.046, "pers_min": 277.0, "onset_min": 595.7, "back_m3": 181.4, "score": null, "kind": "backflow"}}, {"type": "Feature", "geometry": {"type": "Point", "coordinates": [77.0260098, 28.4931935]}, "properties": {"rank": 166.0, "ward": "36", "landmark": "A Block, Ashok Vihar, Phase-III", "depth_m": 0.421, "vel_mps": 0.037, "pers_min": 303.8, "onset_min": 530.7, "back_m3": 158.2, "score": null, "kind": "backflow"}}, {"type": "Feature", "geometry": {"type": "Point", "coordinates": [77.0960306, 28.4618897]}, "properties": {"rank": 167.0, "ward": "22", "landmark": "Opposite Sheeba Apartment GH-I sector 28", "depth_m": 0.42, "vel_mps": 0.017, "pers_min": 251.9, "onset_min": 614.1, "back_m3": 239.2, "score": null, "kind": "backflow"}}, {"type": "Feature", "geometry": {"type": "Point", "coordinates": [77.0692699, 28.4506142]}, "properties": {"rank": 168.0, "ward": "24", "landmark": "Near govt school Kanhai", "depth_m": 0.538, "vel_mps": 0.021, "pers_min": 236.4, "onset_min": 700.7, "back_m3": 109.2, "score": null, "kind": "backflow"}}, {"type": "Feature", "geometry": {"type": "Point", "coordinates": [77.0761574, 28.4423047]}, "properties": {"rank": 169.0, "ward": "21", "landmark": "Ardee city gate no.3", "depth_m": 0.328, "vel_mps": 0.05, "pers_min": 449.8, "onset_min": 565.8, "back_m3": 196.3, "score": null, "kind": "backflow"}}, {"type": "Feature", "geometry": {"type": "Point", "coordinates": [77.0649313, 28.4342552]}, "properties": {"rank": 170.0, "ward": "14", "landmark": "Sector 46", "depth_m": 0.372, "vel_mps": 0.011, "pers_min": 294.3, "onset_min": 595.5, "back_m3": 236.3, "score": null, "kind": "backflow"}}, {"type": "Feature", "geometry": {"type": "Point", "coordinates": [77.0896575, 28.4405595]}, "properties": {"rank": 171.0, "ward": "21", "landmark": "Wazirabad Dhani chowk", "depth_m": 0.37, "vel_mps": 0.057, "pers_min": 269.2, "onset_min": 467.3, "back_m3": 272.7, "score": null, "kind": "backflow"}}, {"type": "Feature", "geometry": {"type": "Point", "coordinates": [77.0586118, 28.4107499]}, "properties": {"rank": 172.0, "ward": "15", "landmark": "Rosewood City D Block", "depth_m": 0.334, "vel_mps": 0.017, "pers_min": 264.0, "onset_min": 523.2, "back_m3": 385.8, "score": null, "kind": "backflow"}}, {"type": "Feature", "geometry": {"type": "Point", "coordinates": [77.0730242, 28.4902399]}, "properties": {"rank": 173.0, "ward": "2", "landmark": "In front of plot no-75D sector 18", "depth_m": 0.385, "vel_mps": 0.016, "pers_min": 619.8, "onset_min": 682.3, "back_m3": 121.5, "score": null, "kind": "backflow"}}, {"type": "Feature", "geometry": {"type": "Point", "coordinates": [77.0796252, 28.4378032]}, "properties": {"rank": 174.0, "ward": "21", "landmark": "H no.1241 to tempo stand, wazirabad", "depth_m": 0.358, "vel_mps": 0.025, "pers_min": 296.3, "onset_min": 542.2, "back_m3": 222.3, "score": null, "kind": "backflow"}}, {"type": "Feature", "geometry": {"type": "Point", "coordinates": [77.031814, 28.5134887]}, "properties": {"rank": 175.0, "ward": "4", "landmark": "Palam Vihar D Block near Mother dairy", "depth_m": 0.306, "vel_mps": 0.011, "pers_min": 498.1, "onset_min": 469.8, "back_m3": 193.6, "score": null, "kind": "backflow"}}, {"type": "Feature", "geometry": {"type": "Point", "coordinates": [77.0348759, 28.4063174]}, "properties": {"rank": 176.0, "ward": "16", "landmark": "Fazilpur", "depth_m": 0.318, "vel_mps": 0.02, "pers_min": 291.7, "onset_min": 553.4, "back_m3": 286.3, "score": null, "kind": "backflow"}}, {"type": "Feature", "geometry": {"type": "Point", "coordinates": [77.0150333, 28.4917392]}, "properties": {"rank": 177.0, "ward": "35", "landmark": "Khedi sarkari school", "depth_m": 0.33, "vel_mps": 0.006, "pers_min": 258.9, "onset_min": 396.5, "back_m3": 329.0, "score": null, "kind": "backflow"}}, {"type": "Feature", "geometry": {"type": "Point", "coordinates": [77.0277776, 28.4892644]}, "properties": {"rank": 178.0, "ward": "36", "landmark": "Ashok Vihar Phase-II, Near Chotu Ram Chowk", "depth_m": 0.358, "vel_mps": 0.012, "pers_min": 386.9, "onset_min": 680.9, "back_m3": 116.4, "score": null, "kind": "backflow"}}, {"type": "Feature", "geometry": {"type": "Point", "coordinates": [77.0725249, 28.4891579]}, "properties": {"rank": 179.0, "ward": "2", "landmark": "In front of plot no-75D sector 18", "depth_m": 0.306, "vel_mps": 0.011, "pers_min": 243.7, "onset_min": 542.9, "back_m3": 409.9, "score": null, "kind": "backflow"}}, {"type": "Feature", "geometry": {"type": "Point", "coordinates": [77.0396266, 28.4372943]}, "properties": {"rank": 180.0, "ward": "12", "landmark": "Back side Govt. School, Islampur", "depth_m": 0.317, "vel_mps": 0.004, "pers_min": 388.1, "onset_min": 637.3, "back_m3": 155.9, "score": null, "kind": "backflow"}}, {"type": "Feature", "geometry": {"type": "Point", "coordinates": [77.0258106, 28.4901194]}, "properties": {"rank": 181.0, "ward": "36", "landmark": "Ashok Vihar Phase-II, Near Chotu Ram Chowk", "depth_m": 0.363, "vel_mps": 0.007, "pers_min": 440.9, "onset_min": 693.3, "back_m3": 107.9, "score": null, "kind": "backflow"}}, {"type": "Feature", "geometry": {"type": "Point", "coordinates": [76.9966936, 28.4810575]}, "properties": {"rank": 182.0, "ward": "7", "landmark": "Dhanwapur Village near Bikaner Chowk", "depth_m": 0.337, "vel_mps": 0.009, "pers_min": 298.9, "onset_min": 568.1, "back_m3": 205.7, "score": null, "kind": "backflow"}}, {"type": "Feature", "geometry": {"type": "Point", "coordinates": [77.0818075, 28.4381104]}, "properties": {"rank": 183.0, "ward": "21", "landmark": "H no.1241 to tempo stand, wazirabad", "depth_m": 0.34, "vel_mps": 0.011, "pers_min": 244.3, "onset_min": 536.0, "back_m3": 292.4, "score": null, "kind": "backflow"}}, {"type": "Feature", "geometry": {"type": "Point", "coordinates": [77.0701847, 28.4507627]}, "properties": {"rank": 184.0, "ward": "24", "landmark": "Near govt school Kanhai", "depth_m": 0.41, "vel_mps": 0.093, "pers_min": 231.0, "onset_min": 625.9, "back_m3": 170.4, "score": null, "kind": "backflow"}}, {"type": "Feature", "geometry": {"type": "Point", "coordinates": [76.9922678, 28.4359521]}, "properties": {"rank": 185.0, "ward": "9", "landmark": "Side road (Main Entry From Basai Road) of GMDA Bus Stand, Sec-10", "depth_m": 0.316, "vel_mps": 0.006, "pers_min": 384.4, "onset_min": 619.5, "back_m3": 140.9, "score": null, "kind": "backflow"}}, {"type": "Feature", "geometry": {"type": "Point", "coordinates": [77.040268, 28.4454104]}, "properties": {"rank": 186.0, "ward": "13", "landmark": "Near House No.239 Sector-15 Part-I", "depth_m": 0.344, "vel_mps": 0.011, "pers_min": 275.8, "onset_min": 615.2, "back_m3": 206.8, "score": null, "kind": "backflow"}}, {"type": "Feature", "geometry": {"type": "Point", "coordinates": [77.032614, 28.513585]}, "properties": {"rank": 187.0, "ward": "4", "landmark": "Palam Vihar D Block near Mother dairy", "depth_m": 0.326, "vel_mps": 0.017, "pers_min": 280.7, "onset_min": 563.2, "back_m3": 224.3, "score": null, "kind": "backflow"}}, {"type": "Feature", "geometry": {"type": "Point", "coordinates": [76.9906861, 28.4516923]}, "properties": {"rank": 188.0, "ward": "9", "landmark": "In front of Alpine School, Sec-10", "depth_m": 0.322, "vel_mps": 0.002, "pers_min": 280.0, "onset_min": 371.7, "back_m3": 226.5, "score": null, "kind": "backflow"}}, {"type": "Feature", "geometry": {"type": "Point", "coordinates": [77.0507473, 28.4565908]}, "properties": {"rank": 189.0, "ward": "13", "landmark": "Jubli park sector 31", "depth_m": 0.35, "vel_mps": 0.007, "pers_min": 285.0, "onset_min": 617.8, "back_m3": 174.6, "score": null, "kind": "backflow"}}, {"type": "Feature", "geometry": {"type": "Point", "coordinates": [77.0620616, 28.4419529]}, "properties": {"rank": 190.0, "ward": "12", "landmark": "Near H. No. 1637 Sector-45,", "depth_m": 0.322, "vel_mps": 0.001, "pers_min": 393.6, "onset_min": 605.4, "back_m3": 121.6, "score": null, "kind": "backflow"}}, {"type": "Feature", "geometry": {"type": "Point", "coordinates": [77.048085, 28.462882]}, "properties": {"rank": 191.0, "ward": "25", "landmark": "Sector 15 part II market road towards skoda showroom", "depth_m": 0.395, "vel_mps": 0.006, "pers_min": 298.0, "onset_min": 656.7, "back_m3": 110.2, "score": null, "kind": "backflow"}}, {"type": "Feature", "geometry": {"type": "Point", "coordinates": [77.0269283, 28.4442495]}, "properties": {"rank": 192.0, "ward": "11", "landmark": "Hans Enclave, Sector 33, Gurugram, Haryana 122022", "depth_m": 0.313, "vel_mps": 0.008, "pers_min": 230.4, "onset_min": 560.9, "back_m3": 339.1, "score": null, "kind": "backflow"}}, {"type": "Feature", "geometry": {"type": "Point", "coordinates": [77.0386401, 28.4722708]}, "properties": {"rank": 193.0, "ward": "26", "landmark": "Old DLF sec 14", "depth_m": 0.377, "vel_mps": 0.008, "pers_min": 309.1, "onset_min": 547.1, "back_m3": 110.8, "score": null, "kind": "backflow"}}, {"type": "Feature", "geometry": {"type": "Point", "coordinates": [77.0683034, 28.4363312]}, "properties": {"rank": 194.0, "ward": "14", "landmark": "Sector 46", "depth_m": 0.336, "vel_mps": 0.014, "pers_min": 546.0, "onset_min": 715.6, "back_m3": 100.8, "score": null, "kind": "backflow"}}, {"type": "Feature", "geometry": {"type": "Point", "coordinates": [77.0486877, 28.4113417]}, "properties": {"rank": 195.0, "ward": "16", "landmark": "Uppal Southend S,W Block", "depth_m": 0.307, "vel_mps": 0.006, "pers_min": 273.3, "onset_min": 532.6, "back_m3": 232.5, "score": null, "kind": "backflow"}}, {"type": "Feature", "geometry": {"type": "Point", "coordinates": [76.9899411, 28.4521544]}, "properties": {"rank": 196.0, "ward": "9", "landmark": "In front of Alpine School, Sec-10", "depth_m": 0.328, "vel_mps": 0.004, "pers_min": 279.8, "onset_min": 529.3, "back_m3": 179.8, "score": null, "kind": "backflow"}}, {"type": "Feature", "geometry": {"type": "Point", "coordinates": [76.9935157, 28.4412217]}, "properties": {"rank": 197.0, "ward": "9", "landmark": "Side road (Main Entry From Basai Road) of GMDA Bus Stand, Sec-10", "depth_m": 0.315, "vel_mps": 0.002, "pers_min": 523.9, "onset_min": 697.5, "back_m3": 106.7, "score": null, "kind": "backflow"}}, {"type": "Feature", "geometry": {"type": "Point", "coordinates": [77.082682, 28.4403439]}, "properties": {"rank": 198.0, "ward": "21", "landmark": "Wazirabad Dhani chowk", "depth_m": 0.33, "vel_mps": 0.056, "pers_min": 263.7, "onset_min": 587.1, "back_m3": 188.5, "score": null, "kind": "backflow"}}, {"type": "Feature", "geometry": {"type": "Point", "coordinates": [77.061399, 28.4297631]}, "properties": {"rank": 199.0, "ward": "14", "landmark": "Sector 51", "depth_m": 0.33, "vel_mps": 0.022, "pers_min": 283.3, "onset_min": 544.7, "back_m3": 162.8, "score": null, "kind": "backflow"}}, {"type": "Feature", "geometry": {"type": "Point", "coordinates": [77.0876607, 28.4229291]}, "properties": {"rank": 200.0, "ward": "21", "landmark": "F & G block, SL2,", "depth_m": 0.347, "vel_mps": 0.017, "pers_min": 321.1, "onset_min": 693.1, "back_m3": 105.9, "score": null, "kind": "backflow"}}, {"type": "Feature", "geometry": {"type": "Point", "coordinates": [76.9586703, 28.4700715]}, "properties": {"rank": 201.0, "ward": "6", "landmark": "Dhankot Canal road", "depth_m": 0.346, "vel_mps": 0.004, "pers_min": 274.0, "onset_min": 691.4, "back_m3": 154.1, "score": null, "kind": "backflow"}}, {"type": "Feature", "geometry": {"type": "Point", "coordinates": [77.0270406, 28.4880753]}, "properties": {"rank": 202.0, "ward": "36", "landmark": "Ashok Vihar Phase-II, Near Chotu Ram Chowk", "depth_m": 0.35, "vel_mps": 0.018, "pers_min": 320.9, "onset_min": 717.5, "back_m3": 101.0, "score": null, "kind": "backflow"}}, {"type": "Feature", "geometry": {"type": "Point", "coordinates": [77.0255205, 28.4981615]}, "properties": {"rank": 203.0, "ward": "36", "landmark": "A Block, Ashok Vihar, Phase-III", "depth_m": 0.306, "vel_mps": 0.002, "pers_min": 269.5, "onset_min": 585.3, "back_m3": 193.4, "score": null, "kind": "backflow"}}, {"type": "Feature", "geometry": {"type": "Point", "coordinates": [77.07244, 28.5122501]}, "properties": {"rank": 204.0, "ward": "3", "landmark": "Sunar wali gali Dundahera", "depth_m": 0.335, "vel_mps": 0.046, "pers_min": 225.5, "onset_min": 551.3, "back_m3": 206.7, "score": null, "kind": "backflow"}}, {"type": "Feature", "geometry": {"type": "Point", "coordinates": [77.0384829, 28.4685713]}, "properties": {"rank": 205.0, "ward": "25", "landmark": "Old DLF sec 14", "depth_m": 0.312, "vel_mps": 0.018, "pers_min": 296.8, "onset_min": 634.2, "back_m3": 144.4, "score": null, "kind": "backflow"}}, {"type": "Feature", "geometry": {"type": "Point", "coordinates": [77.0924021, 28.4022106]}, "properties": {"rank": 206.0, "ward": "20", "landmark": "Main Road Ullawas", "depth_m": 0.381, "vel_mps": 0.041, "pers_min": 242.6, "onset_min": 644.9, "back_m3": 119.2, "score": null, "kind": "backflow"}}, {"type": "Feature", "geometry": {"type": "Point", "coordinates": [77.0265527, 28.497052]}, "properties": {"rank": 207.0, "ward": "36", "landmark": "A Block, Ashok Vihar, Phase-III", "depth_m": 0.313, "vel_mps": 0.009, "pers_min": 256.3, "onset_min": 604.5, "back_m3": 174.9, "score": null, "kind": "backflow"}}, {"type": "Feature", "geometry": {"type": "Point", "coordinates": [77.0869572, 28.4381804]}, "properties": {"rank": 208.0, "ward": "21", "landmark": "Wazirabad Dhani chowk", "depth_m": 0.353, "vel_mps": 0.011, "pers_min": 278.0, "onset_min": 695.4, "back_m3": 108.7, "score": null, "kind": "backflow"}}, {"type": "Feature", "geometry": {"type": "Point", "coordinates": [77.0275182, 28.4719431]}, "properties": {"rank": 209.0, "ward": "36", "landmark": "Shingha Chowk", "depth_m": 0.303, "vel_mps": 0.005, "pers_min": 290.4, "onset_min": 658.2, "back_m3": 138.7, "score": null, "kind": "backflow"}}, {"type": "Feature", "geometry": {"type": "Point", "coordinates": [77.0267628, 28.4963856]}, "properties": {"rank": 210.0, "ward": "36", "landmark": "A Block, Ashok Vihar, Phase-III", "depth_m": 0.313, "vel_mps": 0.009, "pers_min": 256.3, "onset_min": 616.2, "back_m3": 163.4, "score": null, "kind": "backflow"}}, {"type": "Feature", "geometry": {"type": "Point", "coordinates": [76.9901666, 28.4517247]}, "properties": {"rank": 211.0, "ward": "9", "landmark": "In front of Alpine School, Sec-10", "depth_m": 0.328, "vel_mps": 0.004, "pers_min": 279.8, "onset_min": 681.5, "back_m3": 107.8, "score": null, "kind": "backflow"}}, {"type": "Feature", "geometry": {"type": "Point", "coordinates": [77.0258185, 28.4889936]}, "properties": {"rank": 212.0, "ward": "36", "landmark": "Ashok Vihar Phase-II, Near Chotu Ram Chowk", "depth_m": 0.336, "vel_mps": 0.006, "pers_min": 280.1, "onset_min": 719.7, "back_m3": 100.1, "score": null, "kind": "backflow"}}, {"type": "Feature", "geometry": {"type": "Point", "coordinates": [77.0092647, 28.4896297]}, "properties": {"rank": 213.0, "ward": "34", "landmark": "Bhimgarh khedi ashoka apartment", "depth_m": 0.308, "vel_mps": 0.006, "pers_min": 242.7, "onset_min": 618.2, "back_m3": 150.9, "score": null, "kind": "backflow"}}, {"type": "Feature", "geometry": {"type": "Point", "coordinates": [76.9969267, 28.4805194]}, "properties": {"rank": 214.0, "ward": "7", "landmark": "Dhanwapur Village near Bikaner Chowk", "depth_m": 0.311, "vel_mps": 0.016, "pers_min": 267.3, "onset_min": 684.9, "back_m3": 116.2, "score": null, "kind": "backflow"}}, {"type": "Feature", "geometry": {"type": "Point", "coordinates": [77.0733214, 28.4507195]}, "properties": {"rank": 215.0, "ward": "24", "landmark": "Near govt school Kanhai", "depth_m": 0.334, "vel_mps": 0.039, "pers_min": 230.9, "onset_min": 660.8, "back_m3": 125.7, "score": null, "kind": "backflow"}}, {"type": "Feature", "geometry": {"type": "Point", "coordinates": [77.0664252, 28.4357462]}, "properties": {"rank": 216.0, "ward": "14", "landmark": "Sector 46", "depth_m": 0.321, "vel_mps": 0.001, "pers_min": 233.9, "onset_min": 705.6, "back_m3": 109.4, "score": null, "kind": "backflow"}}, {"type": "Feature", "geometry": {"type": "Point", "coordinates": [77.0985302, 28.4220716]}, "properties": {"rank": 217.0, "ward": "20", "landmark": "E Block (Near Creek) Sec-55/56 Road", "depth_m": 0.327, "vel_mps": 0.034, "pers_min": 217.5, "onset_min": 700.8, "back_m3": 108.8, "score": null, "kind": "backflow"}}, {"type": "Feature", "geometry": {"type": "Point", "coordinates": [77.032053, 28.3945003]}, "properties": {"rank": 218.0, "ward": "18", "landmark": "Khota Colony", "depth_m": 0.32, "vel_mps": 0.012, "pers_min": 209.2, "onset_min": 658.2, "back_m3": 119.5, "score": null, "kind": "backflow"}}]}