{"type": "FeatureCollection", "features": [{"type": "Feature", "geometry": {"type": "Point", "coordinates": [76.9461832, 28.5055593]}, "properties": {"discharge_id": "MAIN-LEG-3-DISCHARGE", "trunk_name": "Leg 3 / Badshahpur Drain", "discharge_class": "main-leg discharge terminal", "terrain_elev_m": 210.403, "pt_kind": "discharge"}}, {"type": "Feature", "geometry": {"type": "Point", "coordinates": [76.9651779, 28.5129428]}, "properties": {"discharge_id": "MAIN-LEG-2-DISCHARGE", "trunk_name": "Leg 2", "discharge_class": "main-leg discharge terminal", "terrain_elev_m": 212.253, "pt_kind": "discharge"}}, {"type": "Feature", "geometry": {"type": "Point", "coordinates": [77.0004368, 28.5316939]}, "properties": {"discharge_id": "MAIN-LEG-1-DISCHARGE", "trunk_name": "Leg 1", "discharge_class": "main-leg discharge terminal", "terrain_elev_m": 212.378, "pt_kind": "discharge"}}]}