{"type": "FeatureCollection", "features": [{"type": "Feature", "geometry": {"type": "LineString", "coordinates": [[77.0465411, 28.3698375], [77.0567575, 28.3733482]]}, "properties": {"line_id": "SWD-WORK-001", "source_id": "229", "work_status": "Work in progress", "size_text": "800", "height_m": 0.0, "width_m": 0.0, "sec_w_m": 0.6, "sec_h_m": 0.6, "depth_crown_m": -1.05, "depth_invert_m": -1.65}}, {"type": "Feature", "geometry": {"type": "LineString", "coordinates": [[77.0709832, 28.3802409], [77.0567575, 28.3733482]]}, "properties": {"line_id": "SWD-WORK-002", "source_id": "91", "work_status": "Work in progress", "size_text": "1200", "height_m": 1.2, "width_m": 0.9, "sec_w_m": 0.9, "sec_h_m": 1.2, "depth_crown_m": -1.05, "depth_invert_m": -2.25}}, {"type": "Feature", "geometry": {"type": "LineString", "coordinates": [[77.0567575, 28.3733482], [77.0554047, 28.3774268], [77.0550398, 28.378521], [77.054989, 28.3786834], [77.0546635, 28.3797228], [77.0542303, 28.3810615], [77.0539175, 28.3820571], [77.0535505, 28.3831847], [77.0533656, 28.3838178], [77.0531222, 28.3844948], [77.0528583, 28.3850884], [77.0526135, 28.3855577], [77.0521762, 28.3862614], [77.0515968, 28.3871559], [77.0509365, 28.3881973], [77.0507031, 28.3885641], [77.0502447, 28.3892844], [77.049878, 28.3898677], [77.0494551, 28.3904805], [77.0489428, 28.3911266], [77.0484723, 28.3917327], [77.0478528, 28.3925245], [77.0478523, 28.3925251], [77.0475542, 28.3929047], [77.0471302, 28.3934602], [77.0468867, 28.3938554], [77.0467347, 28.3942349], [77.0465644, 28.394789], [77.0461277, 28.3965074], [77.045751, 28.3979814], [77.0453641, 28.3994865], [77.0451729, 28.4002209], [77.0450697, 28.4006174], [77.0448885, 28.4013135]]}, "properties": {"line_id": "SWD-WORK-003", "source_id": "92", "work_status": "Work in progress", "size_text": "1200", "height_m": 1.2, "width_m": 0.9, "sec_w_m": 0.9, "sec_h_m": 1.2, "depth_crown_m": -1.05, "depth_invert_m": -2.25}}, {"type": "Feature", "geometry": {"type": "LineString", "coordinates": [[77.0705386, 28.3857261], [77.0680275, 28.3903165], [77.0660046, 28.3940135]]}, "properties": {"line_id": "SWD-WORK-004", "source_id": "169", "work_status": "Work Completed", "size_text": "[ 1400 \u0278 ]", "height_m": 0.0, "width_m": 0.0, "sec_w_m": 0.6, "sec_h_m": 0.6, "depth_crown_m": -1.05, "depth_invert_m": -1.65}}, {"type": "Feature", "geometry": {"type": "LineString", "coordinates": [[77.0612408, 28.3920418], [77.0586973, 28.3911172], [77.0573292, 28.3907335], [77.0559592, 28.3903921], [77.0529096, 28.3893315], [77.0507031, 28.3885641]]}, "properties": {"line_id": "SWD-WORK-005", "source_id": "17", "work_status": "Work Completed", "size_text": "[ 750 \u0278 ]", "height_m": 0.0, "width_m": 0.0, "sec_w_m": 0.6, "sec_h_m": 0.6, "depth_crown_m": -1.05, "depth_invert_m": -1.65}}, {"type": "Feature", "geometry": {"type": "LineString", "coordinates": [[77.0690571, 28.3952504], [77.0660046, 28.3940135]]}, "properties": {"line_id": "SWD-WORK-006", "source_id": "16", "work_status": "Work Completed", "size_text": "[ 1200 \u0278 ]", "height_m": 0.0, "width_m": 0.0, "sec_w_m": 0.6, "sec_h_m": 0.6, "depth_crown_m": -1.05, "depth_invert_m": -1.65}}, {"type": "Feature", "geometry": {"type": "LineString", "coordinates": [[77.0660046, 28.3940135], [77.0589217, 28.4065101]]}, "properties": {"line_id": "SWD-WORK-007", "source_id": "165", "work_status": "Work Completed", "size_text": "[ 2000*1500,C ]", "height_m": 2.0, "width_m": 1.5, "sec_w_m": 1.5, "sec_h_m": 2.0, "depth_crown_m": -1.05, "depth_invert_m": -3.05}}, {"type": "Feature", "geometry": {"type": "LineString", "coordinates": [[77.0589217, 28.4065101], [77.0562275, 28.4054927], [77.054076, 28.4046847], [77.0516608, 28.4037781], [77.0498028, 28.4029227], [77.0485129, 28.4024417], [77.0460833, 28.4016818], [77.0448885, 28.4013135]]}, "properties": {"line_id": "SWD-WORK-008", "source_id": "164", "work_status": "Work Completed", "size_text": "[ 2(N)*3500*2120 ,C]", "height_m": 3.5, "width_m": 2.12, "sec_w_m": 2.12, "sec_h_m": 3.5, "depth_crown_m": -1.05, "depth_invert_m": -4.55}}, {"type": "Feature", "geometry": {"type": "LineString", "coordinates": [[77.0743124, 28.4122696], [77.0741283, 28.4122038], [77.0740243, 28.4121665], [77.0717752, 28.4113488], [77.0695795, 28.4105278], [77.0660909, 28.4092119], [77.0628308, 28.4079869], [77.0589217, 28.4065101]]}, "properties": {"line_id": "SWD-WORK-009", "source_id": "163", "work_status": "Work Completed", "size_text": "[ 2(N)*3200*2120 ,C]", "height_m": 3.3, "width_m": 2.12, "sec_w_m": 2.12, "sec_h_m": 3.3, "depth_crown_m": -1.05, "depth_invert_m": -4.35}}, {"type": "Feature", "geometry": {"type": "LineString", "coordinates": [[77.0579981, 28.4084479], [77.0571023, 28.4102998], [77.0562687, 28.4120195], [77.0558249, 28.4129352], [77.0556209, 28.4133559], [77.055378, 28.413857], [77.0545834, 28.415502], [77.0538397, 28.4169815], [77.0533632, 28.4180416], [77.0529076, 28.4189199], [77.0523851, 28.4199711], [77.0518894, 28.4209976], [77.0519132, 28.4210134]]}, "properties": {"line_id": "SWD-WORK-010", "source_id": "40", "work_status": "Work Completed", "size_text": "[ 1200 \u0278 ]", "height_m": 0.0, "width_m": 0.0, "sec_w_m": 0.6, "sec_h_m": 0.6, "depth_crown_m": -1.05, "depth_invert_m": -1.65}}, {"type": "Feature", "geometry": {"type": "LineString", "coordinates": [[77.0840304, 28.3865606], [77.0730037, 28.3812199], [77.0705386, 28.3857261]]}, "properties": {"line_id": "SWD-WORK-011", "source_id": "228", "work_status": "Work in progress", "size_text": "1400", "height_m": 0.0, "width_m": 0.0, "sec_w_m": 0.6, "sec_h_m": 0.6, "depth_crown_m": -1.05, "depth_invert_m": -1.65}}, {"type": "Feature", "geometry": {"type": "LineString", "coordinates": [[77.0835885, 28.3919023], [77.0812904, 28.3969651]]}, "properties": {"line_id": "SWD-WORK-012", "source_id": "168", "work_status": "Work Completed", "size_text": "[ 900 \u0278 ]", "height_m": 0.0, "width_m": 0.0, "sec_w_m": 0.6, "sec_h_m": 0.6, "depth_crown_m": -1.05, "depth_invert_m": -1.65}}, {"type": "Feature", "geometry": {"type": "LineString", "coordinates": [[77.0934859, 28.3931653], [77.092402, 28.4022098]]}, "properties": {"line_id": "SWD-WORK-013", "source_id": "167", "work_status": "Work Completed", "size_text": "[ 1000 \u0278 ]", "height_m": 0.0, "width_m": 0.0, "sec_w_m": 0.6, "sec_h_m": 0.6, "depth_crown_m": -1.05, "depth_invert_m": -1.65}}, {"type": "Feature", "geometry": {"type": "LineString", "coordinates": [[77.1159716, 28.408112], [77.11394, 28.4045715], [77.1116848, 28.4006408], [77.1101792, 28.3992202], [77.1034105, 28.395944], [77.1032746, 28.3958783], [77.0938558, 28.3913185], [77.0856558, 28.3873479], [77.0835885, 28.3919023]]}, "properties": {"line_id": "SWD-WORK-014", "source_id": "227", "work_status": "Work in progress", "size_text": [800], "height_m": 0.0, "width_m": 0.0, "sec_w_m": 0.6, "sec_h_m": 0.6, "depth_crown_m": -1.05, "depth_invert_m": -1.65}}, {"type": "Feature", "geometry": {"type": "LineString", "coordinates": [[77.0899286, 28.4016258], [77.0818563, 28.39972], [77.0802186, 28.3993262]]}, "properties": {"line_id": "SWD-WORK-015", "source_id": "15", "work_status": "Work Completed", "size_text": "[ 1400 \u0278 ]", "height_m": 0.0, "width_m": 0.0, "sec_w_m": 0.6, "sec_h_m": 0.6, "depth_crown_m": -1.05, "depth_invert_m": -1.65}}, {"type": "Feature", "geometry": {"type": "LineString", "coordinates": [[77.1018368, 28.4032825], [77.0925118, 28.4022419]]}, "properties": {"line_id": "SWD-WORK-016", "source_id": "112", "work_status": "Work Completed", "size_text": "[ 700 \u0278 ]", "height_m": 0.0, "width_m": 0.0, "sec_w_m": 0.6, "sec_h_m": 0.6, "depth_crown_m": -1.05, "depth_invert_m": -1.65}}, {"type": "Feature", "geometry": {"type": "LineString", "coordinates": [[77.0812904, 28.3969651], [77.0802186, 28.3993262], [77.0800942, 28.3996511], [77.0788729, 28.4028405], [77.0785869, 28.4034418], [77.0779884, 28.4047335], [77.0774183, 28.4059903], [77.0765211, 28.4078924], [77.0762562, 28.4084289], [77.0756755, 28.409463], [77.0752013, 28.4104162], [77.0748515, 28.4111706], [77.0743124, 28.4122696], [77.0744986, 28.4123363]]}, "properties": {"line_id": "SWD-WORK-017", "source_id": "170", "work_status": "Work Completed", "size_text": "[ 1800*1500 ,C]", "height_m": 1.8, "width_m": 1.5, "sec_w_m": 1.5, "sec_h_m": 1.8, "depth_crown_m": -1.05, "depth_invert_m": -2.85}}, {"type": "Feature", "geometry": {"type": "LineString", "coordinates": [[77.1027195, 28.4011901], [77.1024942, 28.4033463], [77.1024591, 28.4040297], [77.1023627, 28.4055759], [77.102151, 28.4075727], [77.1020149, 28.4087037], [77.1019516, 28.4092302], [77.1018713, 28.4098959], [77.1017658, 28.4107712]]}, "properties": {"line_id": "SWD-WORK-018", "source_id": "192", "work_status": "Work Completed", "size_text": "[ 200 \u0278 ]", "height_m": 0.0, "width_m": 0.0, "sec_w_m": 0.6, "sec_h_m": 0.6, "depth_crown_m": -1.05, "depth_invert_m": -1.65}}, {"type": "Feature", "geometry": {"type": "LineString", "coordinates": [[77.092402, 28.4022098], [77.0922771, 28.4028947], [77.0922707, 28.4029463], [77.0921186, 28.4041727], [77.0919337, 28.405411], [77.091873, 28.4058347], [77.0918506, 28.4059912], [77.0918337, 28.4067453], [77.0918178, 28.4077221], [77.0918129, 28.408436], [77.0918316, 28.4088392], [77.0918546, 28.4091826], [77.0918885, 28.4098076], [77.0918754, 28.4102399], [77.0918364, 28.4108661], [77.0917326, 28.4113595], [77.0914612, 28.412247], [77.0911621, 28.4133832], [77.0911264, 28.4136273], [77.0910078, 28.4146008], [77.0909411, 28.4153253], [77.0908953, 28.4158822], [77.0910186, 28.4166587], [77.0911016, 28.4173763], [77.0910233, 28.4173728]]}, "properties": {"line_id": "SWD-WORK-019", "source_id": "166", "work_status": "Work Completed", "size_text": "[ 1100 \u0278 ]", "height_m": 0.0, "width_m": 0.0, "sec_w_m": 0.6, "sec_h_m": 0.6, "depth_crown_m": -1.05, "depth_invert_m": -1.65}}, {"type": "Feature", "geometry": {"type": "LineString", "coordinates": [[77.1182924, 28.4136646], [77.1118136, 28.411655], [77.1020149, 28.4087037]]}, "properties": {"line_id": "SWD-WORK-020", "source_id": "14", "work_status": "Work Completed", "size_text": "[ 1200 \u0278 ]", "height_m": 0.0, "width_m": 0.0, "sec_w_m": 0.6, "sec_h_m": 0.6, "depth_crown_m": -1.05, "depth_invert_m": -1.65}}, {"type": "Feature", "geometry": {"type": "LineString", "coordinates": [[77.1017658, 28.4107712], [77.101759, 28.410828], [77.101626, 28.4118901], [77.1015276, 28.4127869], [77.1014587, 28.4133992], [77.1014131, 28.4139585], [77.1013423, 28.4151629], [77.101258, 28.4163627], [77.1012053, 28.417796], [77.101173, 28.4183352]]}, "properties": {"line_id": "SWD-WORK-021", "source_id": "191", "work_status": "Work Completed", "size_text": "[ 1800*1200 ,C]", "height_m": 1.8, "width_m": 1.2, "sec_w_m": 1.2, "sec_h_m": 1.8, "depth_crown_m": -1.05, "depth_invert_m": -2.85}}, {"type": "Feature", "geometry": {"type": "LineString", "coordinates": [[77.0911016, 28.4173763], [77.0910241, 28.4173728], [77.0899532, 28.4170948], [77.0886289, 28.4167051], [77.0871277, 28.4162757], [77.0861581, 28.4159913], [77.08387, 28.415336], [77.0809326, 28.4145209], [77.0804364, 28.4144084], [77.079816, 28.4142293], [77.0777938, 28.413513], [77.0746828, 28.412402], [77.0744986, 28.4123363]]}, "properties": {"line_id": "SWD-WORK-022", "source_id": "162", "work_status": "Work Completed", "size_text": "[ 2(N)*3200*2120 ,C]", "height_m": 3.0, "width_m": 2.12, "sec_w_m": 2.12, "sec_h_m": 3.0, "depth_crown_m": -1.05, "depth_invert_m": -4.05}}, {"type": "Feature", "geometry": {"type": "LineString", "coordinates": [[77.0974256, 28.4173024], [77.0954056, 28.4173025], [77.092614, 28.4173359], [77.0917933, 28.4173578], [77.0911016, 28.4173763]]}, "properties": {"line_id": "SWD-WORK-023", "source_id": "161", "work_status": "Work Completed", "size_text": "[ 2(N)*3000*2120 ,C]", "height_m": 2.3, "width_m": 2.12, "sec_w_m": 2.12, "sec_h_m": 2.3, "depth_crown_m": -1.05, "depth_invert_m": -3.35}}, {"type": "Feature", "geometry": {"type": "LineString", "coordinates": [[77.0998174, 28.4179609], [77.0989921, 28.4177247], [77.0976777, 28.4173511], [77.0974256, 28.4173024]]}, "properties": {"line_id": "SWD-WORK-024", "source_id": "217", "work_status": "Work Completed", "size_text": "[4500*2420,C ]", "height_m": 4.5, "width_m": 2.42, "sec_w_m": 2.42, "sec_h_m": 4.5, "depth_crown_m": -1.05, "depth_invert_m": -5.55}}, {"type": "Feature", "geometry": {"type": "LineString", "coordinates": [[77.102533, 28.4187148], [77.102188, 28.4186113], [77.101173, 28.4183352], [77.1002115, 28.4180736], [77.0998174, 28.4179609]]}, "properties": {"line_id": "SWD-WORK-025", "source_id": "160", "work_status": "Work Completed", "size_text": "[ 1800 \u0278 ]", "height_m": 0.0, "width_m": 0.0, "sec_w_m": 0.6, "sec_h_m": 0.6, "depth_crown_m": -1.05, "depth_invert_m": -1.65}}, {"type": "Feature", "geometry": {"type": "LineString", "coordinates": [[77.1080771, 28.4185926], [77.1075293, 28.4188063], [77.106869, 28.4190085], [77.1060147, 28.4191639], [77.1057197, 28.4191734], [77.1054913, 28.4191544], [77.1052451, 28.4191632], [77.104555, 28.4191275], [77.1035735, 28.4190268], [77.102533, 28.4187148]]}, "properties": {"line_id": "SWD-WORK-026", "source_id": "159", "work_status": "Work Completed", "size_text": "[4500*2420,C ]", "height_m": 4.5, "width_m": 2.42, "sec_w_m": 2.42, "sec_h_m": 4.5, "depth_crown_m": -1.05, "depth_invert_m": -5.55}}, {"type": "Feature", "geometry": {"type": "LineString", "coordinates": [[77.1165469, 28.424558], [77.1174586, 28.4179394], [77.1176756, 28.4169918], [77.1182924, 28.4136646]]}, "properties": {"line_id": "SWD-WORK-027", "source_id": "226", "work_status": "Work Completed", "size_text": "[ 1200 \u0278 ]", "height_m": 1.0, "width_m": 1.0, "sec_w_m": 1.0, "sec_h_m": 1.0, "depth_crown_m": -1.05, "depth_invert_m": -2.05}}, {"type": "Feature", "geometry": {"type": "LineString", "coordinates": [[77.1126756, 28.4325609], [77.1113431, 28.4319137], [77.1105798, 28.4313258], [77.1097251, 28.431019], [77.1090588, 28.4309238], [77.1077835, 28.4309048], [77.1069268, 28.4307144], [77.1057466, 28.429972], [77.1049091, 28.4293819], [77.1041476, 28.4286776], [77.1030436, 28.4280494], [77.1021299, 28.4275735], [77.1017301, 28.4270025], [77.1014446, 28.4266217], [77.1003786, 28.4263743], [77.0996743, 28.426222], [77.0990841, 28.4258794], [77.0981895, 28.4252892], [77.0978278, 28.4250418], [77.097428, 28.4243565], [77.0970854, 28.4238235], [77.0969141, 28.4234428], [77.0970473, 28.4231763], [77.0969141, 28.4228908], [77.0966476, 28.4226052], [77.0959433, 28.4214821], [77.0952199, 28.4208159], [77.094763, 28.4204923], [77.0939445, 28.4201496], [77.0933734, 28.4199402], [77.0924788, 28.4195976], [77.0916222, 28.4193882], [77.0911287, 28.4193175], [77.0911257, 28.41893], [77.0907655, 28.4187981], [77.09048, 28.4185125], [77.0901183, 28.4186458], [77.0895853, 28.4188552], [77.0890714, 28.4189123], [77.0887287, 28.4185316], [77.088329, 28.4179986], [77.0880625, 28.4174465], [77.0880434, 28.4170849], [77.0879823, 28.4165187]]}, "properties": {"line_id": "SWD-WORK-028", "source_id": "219", "work_status": "Creeks", "size_text": "[2400*1200]", "height_m": 0.0, "width_m": 0.0, "sec_w_m": 0.6, "sec_h_m": 0.6, "depth_crown_m": -1.05, "depth_invert_m": -1.65}}, {"type": "Feature", "geometry": {"type": "LineString", "coordinates": [[77.0954135, 28.4312613], [77.0942651, 28.4309211], [77.093009, 28.4305622], [77.0919169, 28.4301958], [77.0913695, 28.4300111], [77.0913269, 28.4286653], [77.0912767, 28.4267607], [77.0912373, 28.4250768], [77.0911974, 28.4228858], [77.0911515, 28.4208355], [77.0911287, 28.4193175]]}, "properties": {"line_id": "SWD-WORK-029", "source_id": "197", "work_status": "Work Completed", "size_text": "[ 4000*1800,C ]", "height_m": 4.0, "width_m": 1.8, "sec_w_m": 1.8, "sec_h_m": 4.0, "depth_crown_m": -1.05, "depth_invert_m": -5.05}}, {"type": "Feature", "geometry": {"type": "LineString", "coordinates": [[77.0913695, 28.4300111], [77.090681, 28.4299852], [77.0901739, 28.4299633], [77.0897415, 28.4299389], [77.0886658, 28.4298624], [77.0872255, 28.4297327], [77.0872087, 28.4297312], [77.0864955, 28.4296669], [77.0860337, 28.429626], [77.0855612, 28.4296017], [77.0852676, 28.4295838], [77.0848996, 28.4296228], [77.0842621, 28.429691], [77.0830137, 28.4297991], [77.0817842, 28.4299282], [77.0808693, 28.430028], [77.0799597, 28.4301113], [77.0788795, 28.430214], [77.0777831, 28.4303097], [77.0763673, 28.4304206], [77.0759552, 28.4304632], [77.0758264, 28.4305046]]}, "properties": {"line_id": "SWD-WORK-030", "source_id": "37", "work_status": "Work Completed", "size_text": "[ 1000 \u0278 ]", "height_m": 0.0, "width_m": 0.0, "sec_w_m": 0.6, "sec_h_m": 0.6, "depth_crown_m": -1.05, "depth_invert_m": -1.65}}, {"type": "Feature", "geometry": {"type": "LineString", "coordinates": [[77.0718844, 28.4145234], [77.0712411, 28.414945], [77.0708103, 28.4153544], [77.0695316, 28.4164303], [77.0694967, 28.4165443], [77.0694429, 28.41661], [77.0689428, 28.4172212], [77.068382, 28.4177873], [77.0674115, 28.418566], [77.0665929, 28.4192445], [77.0656936, 28.419941], [77.064829, 28.420615]]}, "properties": {"line_id": "SWD-WORK-031", "source_id": "41", "work_status": "Work Completed", "size_text": "[ 1000 \u0278 ]", "height_m": 0.0, "width_m": 0.0, "sec_w_m": 0.6, "sec_h_m": 0.6, "depth_crown_m": -1.05, "depth_invert_m": -1.65}}, {"type": "Feature", "geometry": {"type": "LineString", "coordinates": [[77.064829, 28.420615], [77.0647253, 28.4206958], [77.0633577, 28.4217551], [77.0619208, 28.4228584], [77.0601727, 28.4242099], [77.0590735, 28.4250503], [77.057924, 28.4259367], [77.0571572, 28.4265578]]}, "properties": {"line_id": "SWD-WORK-032", "source_id": "106", "work_status": "Work Completed", "size_text": "[ 1600 \u0278 ]", "height_m": 0.0, "width_m": 0.0, "sec_w_m": 0.6, "sec_h_m": 0.6, "depth_crown_m": -1.05, "depth_invert_m": -1.65}}, {"type": "Feature", "geometry": {"type": "LineString", "coordinates": [[77.0571572, 28.4265578], [77.0571349, 28.4265356], [77.0559619, 28.4253739], [77.0548041, 28.4240162], [77.053747, 28.4226975], [77.0535349, 28.4224859], [77.0525865, 28.4216192], [77.0519132, 28.4210134]]}, "properties": {"line_id": "SWD-WORK-033", "source_id": "266", "work_status": "Work Completed", "size_text": "[ 2400*1200,C ]", "height_m": 0.0, "width_m": 0.0, "sec_w_m": 0.6, "sec_h_m": 0.6, "depth_crown_m": -1.05, "depth_invert_m": -1.65}}, {"type": "Feature", "geometry": {"type": "LineString", "coordinates": [[77.0739732, 28.4293555], [77.071926, 28.4274122], [77.0700326, 28.4256003], [77.0677896, 28.4234451], [77.0657398, 28.421497], [77.064829, 28.420615]]}, "properties": {"line_id": "SWD-WORK-034", "source_id": "107", "work_status": "Work Completed", "size_text": "[ 1600 \u0278 ]", "height_m": 0.0, "width_m": 0.0, "sec_w_m": 0.6, "sec_h_m": 0.6, "depth_crown_m": -1.05, "depth_invert_m": -1.65}}, {"type": "Feature", "geometry": {"type": "LineString", "coordinates": [[77.0566216, 28.4291219], [77.0557112, 28.4298041], [77.0551042, 28.4302667], [77.0547077, 28.4305689], [77.0536962, 28.4313339], [77.0526182, 28.4321547], [77.0514921, 28.4330049], [77.0506029, 28.4336725], [77.0498629, 28.4342352], [77.0492432, 28.4346393]]}, "properties": {"line_id": "SWD-WORK-035", "source_id": "108", "work_status": "Work Completed", "size_text": "[ 1000 \u0278 ]", "height_m": 0.0, "width_m": 0.0, "sec_w_m": 0.6, "sec_h_m": 0.6, "depth_crown_m": -1.05, "depth_invert_m": -1.65}}, {"type": "Feature", "geometry": {"type": "LineString", "coordinates": [[77.0672765, 28.4369727], [77.0658792, 28.4355376], [77.0644013, 28.4339843], [77.062638, 28.4321965], [77.0613282, 28.4308102], [77.0602783, 28.4297302], [77.0592801, 28.428671], [77.0583857, 28.4277815], [77.0577903, 28.4271894], [77.0571572, 28.4265578]]}, "properties": {"line_id": "SWD-WORK-036", "source_id": "39", "work_status": "Work Completed", "size_text": "[ 1000 \u0278 ]", "height_m": 0.0, "width_m": 0.0, "sec_w_m": 0.6, "sec_h_m": 0.6, "depth_crown_m": -1.05, "depth_invert_m": -1.65}}, {"type": "Feature", "geometry": {"type": "LineString", "coordinates": [[77.0758264, 28.4305046], [77.07541, 28.4305527], [77.0752803, 28.4305961], [77.0736763, 28.4318597], [77.0727425, 28.4326228], [77.0723099, 28.4329763], [77.0703033, 28.4345134], [77.0689628, 28.4355795], [77.06804, 28.4363193], [77.0672765, 28.4369727]]}, "properties": {"line_id": "SWD-WORK-037", "source_id": "268", "work_status": "Work Completed", "size_text": "[ 1000 \u0278 ]", "height_m": 0.0, "width_m": 0.0, "sec_w_m": 0.6, "sec_h_m": 0.6, "depth_crown_m": -1.05, "depth_invert_m": -1.65}}, {"type": "Feature", "geometry": {"type": "LineString", "coordinates": [[77.0655461, 28.4382558], [77.0645627, 28.4390424], [77.0642135, 28.4393218], [77.0634216, 28.4398942], [77.0625301, 28.4405387], [77.0608513, 28.4418605], [77.0591448, 28.4431445], [77.0581995, 28.4438605]]}, "properties": {"line_id": "SWD-WORK-038", "source_id": "38", "work_status": "Work Completed", "size_text": "[ 1000 \u0278 ]", "height_m": 0.0, "width_m": 0.0, "sec_w_m": 0.6, "sec_h_m": 0.6, "depth_crown_m": -1.05, "depth_invert_m": -1.65}}, {"type": "Feature", "geometry": {"type": "LineString", "coordinates": [[77.0749091, 28.4449811], [77.0736935, 28.4437295], [77.07212, 28.4421348], [77.0711085, 28.4410949], [77.0699602, 28.4399089], [77.0698625, 28.4398079], [77.0683115, 28.4382486], [77.0678885, 28.4377513], [77.0672765, 28.4369727]]}, "properties": {"line_id": "SWD-WORK-039", "source_id": "265", "work_status": "Work Completed", "size_text": "[ 1000 \u0278 ]", "height_m": 0.0, "width_m": 0.0, "sec_w_m": 0.6, "sec_h_m": 0.6, "depth_crown_m": -1.05, "depth_invert_m": -1.65}}, {"type": "Feature", "geometry": {"type": "LineString", "coordinates": [[77.0532701, 28.4441202], [77.0564617, 28.442078]]}, "properties": {"line_id": "SWD-WORK-040", "source_id": "273", "work_status": "Work Completed", "size_text": "[ 800 \u0278 ]", "height_m": 0.0, "width_m": 0.0, "sec_w_m": 0.6, "sec_h_m": 0.6, "depth_crown_m": -1.05, "depth_invert_m": -1.65}}, {"type": "Feature", "geometry": {"type": "LineString", "coordinates": [[77.0167005, 28.4018952], [77.0215454, 28.4165475], [77.0215929, 28.4166909], [77.0261915, 28.424254]]}, "properties": {"line_id": "SWD-WORK-041", "source_id": "34", "work_status": "Work in progress", "size_text": "1000", "height_m": 0.0, "width_m": 0.0, "sec_w_m": 0.6, "sec_h_m": 0.6, "depth_crown_m": -1.05, "depth_invert_m": -1.65}}, {"type": "Feature", "geometry": {"type": "MultiLineString", "coordinates": [[[77.0392981, 28.4207997], [77.0392981, 28.4207997]], [[77.0392981, 28.4207997], [77.0326408, 28.4193586]], [[77.0403768, 28.4171456], [77.0402588, 28.4175434], [77.03965, 28.4195962], [77.0392981, 28.4207997]], [[77.0392981, 28.4207997], [77.0392981, 28.4207997]]]}, "properties": {"line_id": "SWD-WORK-042", "source_id": "50", "work_status": "Work Completed", "size_text": "[3040*1820]", "height_m": 3.04, "width_m": 1.82, "sec_w_m": 1.82, "sec_h_m": 3.04, "depth_crown_m": -1.05, "depth_invert_m": -4.09}}, {"type": "Feature", "geometry": {"type": "LineString", "coordinates": [[77.0519132, 28.4210134], [77.0518894, 28.4209976], [77.0515548, 28.4207752], [77.050763, 28.4204696], [77.0497873, 28.4201453], [77.0492415, 28.4199912], [77.0482154, 28.4197177], [77.0472169, 28.4194749], [77.0458998, 28.4190936], [77.0443665, 28.4185651], [77.0424225, 28.4178805], [77.0412261, 28.4174567], [77.0403768, 28.4171456]]}, "properties": {"line_id": "SWD-WORK-043", "source_id": "267", "work_status": "Work Completed", "size_text": "[ 2700*1500,C ]", "height_m": 0.0, "width_m": 0.0, "sec_w_m": 0.6, "sec_h_m": 0.6, "depth_crown_m": -1.05, "depth_invert_m": -1.65}}, {"type": "Feature", "geometry": {"type": "MultiLineString", "coordinates": [[[77.0261915, 28.424254], [77.0246865, 28.4244209], [77.0233731, 28.4250871], [77.0223071, 28.4257153], [77.0206319, 28.4262673], [77.0197753, 28.4265529], [77.0176814, 28.4265909], [77.0173388, 28.4263435], [77.0166535, 28.4264006], [77.0156244, 28.4268538]], [[77.0326408, 28.4193586], [77.0320176, 28.4212212], [77.0312121, 28.4220354], [77.0261915, 28.424254]], [[77.0261915, 28.424254], [77.0261914, 28.424254]]]}, "properties": {"line_id": "SWD-WORK-044", "source_id": "144", "work_status": "Work Completed", "size_text": "[ 2(N)*3700*2730 ,C]", "height_m": 3.7, "width_m": 2.73, "sec_w_m": 2.73, "sec_h_m": 3.7, "depth_crown_m": -1.05, "depth_invert_m": -4.75}}, {"type": "Feature", "geometry": {"type": "LineString", "coordinates": [[77.0387482, 28.4224046], [77.0381702, 28.4243059], [77.0374775, 28.4266179], [77.0373351, 28.427046], [77.0370504, 28.4279689], [77.0368987, 28.4286254]]}, "properties": {"line_id": "SWD-WORK-045", "source_id": "232", "work_status": "Work Completed", "size_text": "[3700*1500,C ]", "height_m": 3.7, "width_m": 1.5, "sec_w_m": 1.5, "sec_h_m": 3.7, "depth_crown_m": -1.05, "depth_invert_m": -4.75}}, {"type": "Feature", "geometry": {"type": "LineString", "coordinates": [[77.0480185, 28.4355666], [77.045261, 28.4376409], [77.0445867, 28.4381514], [77.04448, 28.4382312], [77.043005, 28.4393355], [77.0414342, 28.4405241]]}, "properties": {"line_id": "SWD-WORK-046", "source_id": "42", "work_status": "Work Completed", "size_text": "[ 800 \u0278 ]", "height_m": 0.0, "width_m": 0.0, "sec_w_m": 0.6, "sec_h_m": 0.6, "depth_crown_m": -1.05, "depth_invert_m": -1.65}}, {"type": "Feature", "geometry": {"type": "LineString", "coordinates": [[77.0744168, 28.4477127], [77.0742039, 28.4478759], [77.07358, 28.448296], [77.0728724, 28.4487199], [77.0723187, 28.4489981], [77.0718431, 28.4491938], [77.071796, 28.4492132], [77.0716139, 28.4492881], [77.0714233, 28.4493521], [77.0699169, 28.4499136], [77.069718, 28.4500022], [77.0693019, 28.4502735], [77.0687352, 28.4507191], [77.0672521, 28.4518279], [77.0664356, 28.4524568], [77.066076, 28.4520726], [77.0640084, 28.4499338], [77.0639363, 28.4498588], [77.0632972, 28.4491938], [77.0621885, 28.44804], [77.0609289, 28.4467239], [77.0600848, 28.445842], [77.0581995, 28.4438605], [77.0579754, 28.4436249], [77.0564617, 28.442078], [77.0560906, 28.4416987], [77.0551542, 28.4407348], [77.0534276, 28.4389575], [77.0499421, 28.4353584], [77.0492432, 28.4346393], [77.0478038, 28.4331583], [77.0457115, 28.4309622], [77.0454006, 28.4306637], [77.0451113, 28.4305081], [77.0433154, 28.4300957], [77.0419032, 28.4297746], [77.0403315, 28.4294171], [77.0370094, 28.428651], [77.0358495, 28.4283835], [77.0348674, 28.428157], [77.0312591, 28.4273061], [77.0300637, 28.4270064], [77.0282387, 28.4265489], [77.0274791, 28.4263716], [77.0261915, 28.424254]]}, "properties": {"line_id": "SWD-WORK-047", "source_id": "47", "work_status": "Work Completed", "size_text": "[1200*200 ]", "height_m": 2.4, "width_m": 1.8, "sec_w_m": 1.8, "sec_h_m": 2.4, "depth_crown_m": -1.05, "depth_invert_m": -3.45}}, {"type": "Feature", "geometry": {"type": "LineString", "coordinates": [[77.0456111, 28.444884], [77.0444893, 28.4437166], [77.0435688, 28.4427659], [77.0427637, 28.4419161], [77.0421466, 28.4412879], [77.0414342, 28.4405241]]}, "properties": {"line_id": "SWD-WORK-048", "source_id": "46", "work_status": "Work Completed", "size_text": "[ 1000 \u0278 ]", "height_m": 0.0, "width_m": 0.0, "sec_w_m": 0.6, "sec_h_m": 0.6, "depth_crown_m": -1.05, "depth_invert_m": -1.65}}, {"type": "Feature", "geometry": {"type": "LineString", "coordinates": [[77.0414342, 28.4405241], [77.0402653, 28.4414059], [77.0392349, 28.442183], [77.0382094, 28.4429361], [77.0374373, 28.443523], [77.0370421, 28.4439014], [77.0367726, 28.4443567], [77.0362443, 28.4453893], [77.0358803, 28.4460542]]}, "properties": {"line_id": "SWD-WORK-049", "source_id": "109", "work_status": "Work Completed", "size_text": "[ 1200 \u0278 ]", "height_m": 0.0, "width_m": 0.0, "sec_w_m": 0.6, "sec_h_m": 0.6, "depth_crown_m": -1.05, "depth_invert_m": -1.65}}, {"type": "Feature", "geometry": {"type": "LineString", "coordinates": [[77.0494343, 28.4597606], [77.0492408, 28.4595587], [77.0483869, 28.458668], [77.0476426, 28.4578985], [77.0471988, 28.4574396], [77.0463934, 28.4565803], [77.0454563, 28.4556155], [77.0443703, 28.4544906], [77.0431322, 28.4531842], [77.0420235, 28.4520023], [77.0419075, 28.4518816], [77.0412021, 28.451148], [77.0399616, 28.4498535], [77.039243, 28.4490891], [77.0386269, 28.4484338], [77.037861, 28.4476551], [77.0370509, 28.4468244], [77.0364123, 28.4463422], [77.0358803, 28.4460542], [77.0357899, 28.4460053], [77.0349203, 28.4457294], [77.0343185, 28.4456214], [77.0338208, 28.4455883], [77.0334982, 28.4456072], [77.0337065, 28.4442369], [77.0338778, 28.4426474], [77.0339825, 28.4416005], [77.0341062, 28.4404774], [77.0342775, 28.4388974], [77.0343727, 28.4383739], [77.034544, 28.4375363], [77.0347915, 28.4364323], [77.0350104, 28.4355566], [77.0354749, 28.4341004], [77.0356462, 28.4334341], [77.0358025, 28.4324435], [77.0359452, 28.4316726], [77.0363735, 28.4300355], [77.0366741, 28.4290559], [77.0368987, 28.4286254]]}, "properties": {"line_id": "SWD-WORK-050", "source_id": "48", "work_status": "Work Completed", "size_text": "[ 2400*1800,C ]", "height_m": 2.4, "width_m": 1.8, "sec_w_m": 1.8, "sec_h_m": 2.4, "depth_crown_m": -1.05, "depth_invert_m": -3.45}}, {"type": "Feature", "geometry": {"type": "LineString", "coordinates": [[77.1057696, 28.4429195], [77.1044436, 28.442428], [77.103757, 28.4421942], [77.1031186, 28.4421493], [77.102504, 28.4421516], [77.1020178, 28.4418716], [77.1011781, 28.4416837], [77.1002091, 28.441711], [77.099617, 28.4414531], [77.0990914, 28.4412802], [77.0988065, 28.441026], [77.098749, 28.440856], [77.0987897, 28.4404729], [77.0986174, 28.4400197], [77.097609, 28.4397256], [77.0967305, 28.4398849], [77.0961773, 28.4398728], [77.0953851, 28.4403012], [77.0952579, 28.4404009], [77.0947474, 28.4404028], [77.0938821, 28.4403635], [77.093541, 28.4402229], [77.0932749, 28.4399505]]}, "properties": {"line_id": "SWD-WORK-051", "source_id": "220", "work_status": "Creeks", "size_text": "[2400*1200]", "height_m": 0.0, "width_m": 0.0, "sec_w_m": 0.6, "sec_h_m": 0.6, "depth_crown_m": -1.05, "depth_invert_m": -1.65}}, {"type": "Feature", "geometry": {"type": "LineString", "coordinates": [[77.0856332, 28.4494852], [77.0847458, 28.4491407], [77.0834448, 28.4486378], [77.0821802, 28.4482083], [77.0812341, 28.4478981], [77.0802473, 28.4475765], [77.0794949, 28.4473371], [77.0783368, 28.4467104], [77.0773398, 28.4461479], [77.076847, 28.4459477], [77.0759483, 28.4460491], [77.0749091, 28.4449811]]}, "properties": {"line_id": "SWD-WORK-052", "source_id": "105", "work_status": "Work Completed", "size_text": "[ 1000 \u0278 ]", "height_m": 0.0, "width_m": 0.0, "sec_w_m": 0.6, "sec_h_m": 0.6, "depth_crown_m": -1.05, "depth_invert_m": -1.65}}, {"type": "Feature", "geometry": {"type": "LineString", "coordinates": [[77.1157854, 28.4538061], [77.1135725, 28.4515932], [77.1122162, 28.4519501], [77.1112882, 28.4520929], [77.1104316, 28.4521643], [77.1093965, 28.4518787], [77.1085756, 28.4516289], [77.1078618, 28.4508437], [77.1069019, 28.4505396], [77.1061595, 28.4504159], [77.1048984, 28.4503445], [77.1026664, 28.4501494], [77.1019369, 28.4500584], [77.1004297, 28.4497972], [77.0998668, 28.4497015], [77.0989174, 28.4497162], [77.0986676, 28.4497091], [77.0980679, 28.44984], [77.097883, 28.4499552], [77.0972958, 28.4502228], [77.097021, 28.4503016], [77.0962924, 28.4503927], [77.0953641, 28.4505243], [77.0948652, 28.4505633], [77.0939229, 28.4504158], [77.0924477, 28.4502722], [77.0903583, 28.4501378], [77.0889976, 28.4500841], [77.0879552, 28.4500303]]}, "properties": {"line_id": "SWD-WORK-053", "source_id": "221", "work_status": "Creeks", "size_text": "[2400*1800]", "height_m": 0.0, "width_m": 0.0, "sec_w_m": 0.6, "sec_h_m": 0.6, "depth_crown_m": -1.05, "depth_invert_m": -1.65}}, {"type": "Feature", "geometry": {"type": "LineString", "coordinates": [[77.0772986, 28.4500948], [77.074356, 28.4541984], [77.0743139, 28.4544491], [77.0741841, 28.4575635], [77.0741247, 28.4589166]]}, "properties": {"line_id": "SWD-WORK-054", "source_id": "272", "work_status": "Work Completed", "size_text": "[800 \u0278]", "height_m": 0.0, "width_m": 0.0, "sec_w_m": 0.6, "sec_h_m": 0.6, "depth_crown_m": -1.05, "depth_invert_m": -1.65}}, {"type": "Feature", "geometry": {"type": "LineString", "coordinates": [[77.087832, 28.4619068], [77.0863014, 28.4615763], [77.0827405, 28.4607689], [77.0805585, 28.4602651], [77.0786836, 28.4598474], [77.0766349, 28.4593868], [77.0749015, 28.4589947], [77.0748298, 28.4589784], [77.0741247, 28.4589166], [77.0715314, 28.4580608]]}, "properties": {"line_id": "SWD-WORK-055", "source_id": "239", "work_status": "Work Completed", "size_text": "[ 900*900 ,C]", "height_m": 1.5, "width_m": 1.2, "sec_w_m": 1.2, "sec_h_m": 1.5, "depth_crown_m": -1.05, "depth_invert_m": -2.55}}, {"type": "Feature", "geometry": {"type": "LineString", "coordinates": [[77.0972551, 28.4628908], [77.0970818, 28.4628516], [77.096888, 28.4627947], [77.0966409, 28.4627069], [77.0962771, 28.4625673], [77.0961742, 28.4624996], [77.0959507, 28.4623257], [77.0958151, 28.4621967], [77.0956123, 28.4621623], [77.09528, 28.4621412], [77.0951012, 28.4622188], [77.0950139, 28.4624333], [77.0949787, 28.462702], [77.0948748, 28.462868], [77.0946214, 28.4629979], [77.0938853, 28.4629083], [77.091705, 28.4626385], [77.0909605, 28.4625211], [77.0899906, 28.4623989], [77.0898036, 28.4623787]]}, "properties": {"line_id": "SWD-WORK-056", "source_id": "222", "work_status": "Creeks", "size_text": "[1500*1500]", "height_m": 0.0, "width_m": 0.0, "sec_w_m": 0.6, "sec_h_m": 0.6, "depth_crown_m": -1.05, "depth_invert_m": -1.65}}, {"type": "Feature", "geometry": {"type": "LineString", "coordinates": [[77.0740803, 28.4607407], [77.0730913, 28.4680146]]}, "properties": {"line_id": "SWD-WORK-057", "source_id": "236", "work_status": "Work Completed", "size_text": "[ 900*900 ,C]", "height_m": 0.9, "width_m": 0.9, "sec_w_m": 0.9, "sec_h_m": 0.9, "depth_crown_m": -1.05, "depth_invert_m": -1.95}}, {"type": "Feature", "geometry": {"type": "LineString", "coordinates": [[77.0867635, 28.4680258], [77.0822787, 28.4680057], [77.0730913, 28.4680146]]}, "properties": {"line_id": "SWD-WORK-058", "source_id": "6", "work_status": "Work Completed", "size_text": "[ 900*900 ,C]", "height_m": 0.9, "width_m": 0.9, "sec_w_m": 0.9, "sec_h_m": 0.9, "depth_crown_m": -1.05, "depth_invert_m": -1.95}}, {"type": "Feature", "geometry": {"type": "LineString", "coordinates": [[77.0551025, 28.4537138], [77.0544546, 28.4530222], [77.0539107, 28.4524468], [77.0536025, 28.4521207], [77.0523636, 28.4507785], [77.0509396, 28.4492171], [77.0500892, 28.448263], [77.0487535, 28.4472207], [77.0476757, 28.4463774]]}, "properties": {"line_id": "SWD-WORK-059", "source_id": "45", "work_status": "Work Completed", "size_text": "[ 800 \u0278 ]", "height_m": 0.0, "width_m": 0.0, "sec_w_m": 0.6, "sec_h_m": 0.6, "depth_crown_m": -1.05, "depth_invert_m": -1.65}}, {"type": "Feature", "geometry": {"type": "LineString", "coordinates": [[77.0631328, 28.4504468], [77.0617876, 28.4514386], [77.0611286, 28.4519305], [77.0599404, 28.4528492], [77.0586434, 28.4538048], [77.0575862, 28.4545967], [77.0565516, 28.4552897]]}, "properties": {"line_id": "SWD-WORK-060", "source_id": "44", "work_status": "Work Completed", "size_text": "[ 1000 \u0278 ]", "height_m": 0.0, "width_m": 0.0, "sec_w_m": 0.6, "sec_h_m": 0.6, "depth_crown_m": -1.05, "depth_invert_m": -1.65}}, {"type": "Feature", "geometry": {"type": "LineString", "coordinates": [[77.0565516, 28.4552897], [77.0560244, 28.4556868], [77.0558875, 28.4557928], [77.055323, 28.4562298], [77.0550557, 28.4563819], [77.0547771, 28.4565007], [77.0544175, 28.4566255], [77.0541165, 28.4567064], [77.0537967, 28.4567925], [77.0536005, 28.4568479], [77.0533459, 28.4569497], [77.0531431, 28.4570817], [77.0526805, 28.4573274], [77.0521671, 28.457741], [77.0511682, 28.4584771], [77.0500896, 28.4592788], [77.0494343, 28.4597606]]}, "properties": {"line_id": "SWD-WORK-061", "source_id": "111", "work_status": "Work Completed", "size_text": "[ 1200 \u0278 ]", "height_m": 0.0, "width_m": 0.0, "sec_w_m": 0.6, "sec_h_m": 0.6, "depth_crown_m": -1.05, "depth_invert_m": -1.65}}, {"type": "Feature", "geometry": {"type": "LineString", "coordinates": [[77.0633453, 28.4633086], [77.0634913, 28.4632106], [77.0565516, 28.4552897]]}, "properties": {"line_id": "SWD-WORK-062", "source_id": "269", "work_status": "Work Completed", "size_text": "[ 1000 \u0278 ]", "height_m": 0.0, "width_m": 0.0, "sec_w_m": 0.6, "sec_h_m": 0.6, "depth_crown_m": -1.05, "depth_invert_m": -1.65}}, {"type": "Feature", "geometry": {"type": "LineString", "coordinates": [[77.0715314, 28.4580608], [77.0641018, 28.4639074], [77.0592462, 28.4676315], [77.0579452, 28.4682529], [77.0575052, 28.4687468]]}, "properties": {"line_id": "SWD-WORK-063", "source_id": "1", "work_status": "Work Completed", "size_text": "[ 1050*900 ,C]", "height_m": 1.05, "width_m": 0.9, "sec_w_m": 0.9, "sec_h_m": 1.05, "depth_crown_m": -1.05, "depth_invert_m": -2.1}}, {"type": "Feature", "geometry": {"type": "LineString", "coordinates": [[77.0613243, 28.4718364], [77.0594763, 28.4703471], [77.0576758, 28.4688989], [77.0575052, 28.4687468]]}, "properties": {"line_id": "SWD-WORK-064", "source_id": "233", "work_status": "Work Completed", "size_text": "[ 900*900 ,C]", "height_m": 0.9, "width_m": 0.9, "sec_w_m": 0.9, "sec_h_m": 0.9, "depth_crown_m": -1.05, "depth_invert_m": -1.95}}, {"type": "Feature", "geometry": {"type": "LineString", "coordinates": [[77.0575052, 28.4687468], [77.0572111, 28.4691226], [77.0568539, 28.4712137], [77.0562207, 28.4724457], [77.05546, 28.4734302], [77.0502993, 28.4796708], [77.0486033, 28.4820462]]}, "properties": {"line_id": "SWD-WORK-065", "source_id": "139", "work_status": "Work Completed", "size_text": "[ 1500*1200 ,C]", "height_m": 1.5, "width_m": 1.2, "sec_w_m": 1.2, "sec_h_m": 1.5, "depth_crown_m": -1.05, "depth_invert_m": -2.55}}, {"type": "Feature", "geometry": {"type": "LineString", "coordinates": [[77.0715961, 28.4781138], [77.0706006, 28.4792553]]}, "properties": {"line_id": "SWD-WORK-066", "source_id": "238", "work_status": "Work Completed", "size_text": "[ 900*900 ,C]", "height_m": 0.9, "width_m": 0.9, "sec_w_m": 0.9, "sec_h_m": 0.9, "depth_crown_m": -1.05, "depth_invert_m": -1.95}}, {"type": "Feature", "geometry": {"type": "LineString", "coordinates": [[77.0738793, 28.4826681], [77.0706006, 28.4792553]]}, "properties": {"line_id": "SWD-WORK-067", "source_id": "7", "work_status": "Work Completed", "size_text": "[ 900*900 ,C]", "height_m": 0.9, "width_m": 0.9, "sec_w_m": 0.9, "sec_h_m": 0.9, "depth_crown_m": -1.05, "depth_invert_m": -1.95}}, {"type": "Feature", "geometry": {"type": "LineString", "coordinates": [[77.0706006, 28.4792553], [77.0624452, 28.4847762], [77.0559136, 28.4891821]]}, "properties": {"line_id": "SWD-WORK-068", "source_id": "3", "work_status": "Work Completed", "size_text": "[ 900*900 ,C]", "height_m": 0.9, "width_m": 0.9, "sec_w_m": 0.9, "sec_h_m": 0.9, "depth_crown_m": -1.05, "depth_invert_m": -1.95}}, {"type": "Feature", "geometry": {"type": "LineString", "coordinates": [[77.0476757, 28.4463774], [77.0466285, 28.4473026], [77.045767, 28.4481559], [77.0452303, 28.448667], [77.0440375, 28.4498217], [77.043444, 28.4504088], [77.0423902, 28.4513796], [77.0419075, 28.4518816]]}, "properties": {"line_id": "SWD-WORK-069", "source_id": "110", "work_status": "Work Completed", "size_text": "[ 1000 \u0278 ]", "height_m": 0.0, "width_m": 0.0, "sec_w_m": 0.6, "sec_h_m": 0.6, "depth_crown_m": -1.05, "depth_invert_m": -1.65}}, {"type": "Feature", "geometry": {"type": "LineString", "coordinates": [[77.0336881, 28.4664806], [77.0350858, 28.4785369]]}, "properties": {"line_id": "SWD-WORK-070", "source_id": "147", "work_status": "Work Completed", "size_text": "[ 900*900 ,C]", "height_m": 0.9, "width_m": 0.9, "sec_w_m": 0.9, "sec_h_m": 0.9, "depth_crown_m": -1.05, "depth_invert_m": -1.95}}, {"type": "Feature", "geometry": {"type": "LineString", "coordinates": [[77.0278195, 28.4698847], [77.0279896, 28.4700715], [77.0283839, 28.4712681], [77.0286408, 28.4720477], [77.0292431, 28.4734733], [77.029541, 28.4741059], [77.0308021, 28.4758604], [77.0312045, 28.4765259], [77.0313752, 28.4769595], [77.0322767, 28.4788352]]}, "properties": {"line_id": "SWD-WORK-071", "source_id": "9", "work_status": "Work Completed", "size_text": "[ 900*900 ,C]", "height_m": 0.9, "width_m": 0.9, "sec_w_m": 0.9, "sec_h_m": 0.9, "depth_crown_m": -1.05, "depth_invert_m": -1.95}}, {"type": "Feature", "geometry": {"type": "LineString", "coordinates": [[77.0446682, 28.4763532], [77.0485586, 28.4809555], [77.0486003, 28.4810516], [77.0486195, 28.4812365], [77.0485782, 28.4814469], [77.0486033, 28.4820462]]}, "properties": {"line_id": "SWD-WORK-072", "source_id": "190", "work_status": "Work Completed", "size_text": "[ 900 \u0278 ]", "height_m": 0.0, "width_m": 0.0, "sec_w_m": 0.6, "sec_h_m": 0.6, "depth_crown_m": -1.05, "depth_invert_m": -1.65}}, {"type": "Feature", "geometry": {"type": "MultiLineString", "coordinates": [[[77.0486033, 28.4820462], [77.0479385, 28.4817591], [77.0471881, 28.4816713], [77.0422777, 28.4805992], [77.0393876, 28.4793667], [77.0385282, 28.4791688], [77.0354378, 28.4785549], [77.0348345, 28.478524], [77.0335144, 28.4785799], [77.0325963, 28.4787273], [77.0322749, 28.4788359]], [[77.0322749, 28.4788359], [77.0302447, 28.4795213], [77.029576, 28.4797198], [77.0291323, 28.4798404], [77.0279682, 28.479973], [77.0257263, 28.4806089], [77.0254828, 28.4806763]]]}, "properties": {"line_id": "SWD-WORK-073", "source_id": "138", "work_status": "Work Completed", "size_text": "[ 2440*1650,C ]", "height_m": 0.0, "width_m": 0.0, "sec_w_m": 0.6, "sec_h_m": 0.6, "depth_crown_m": -1.05, "depth_invert_m": -1.65}}, {"type": "Feature", "geometry": {"type": "LineString", "coordinates": [[77.0151329, 28.4809695], [77.0159864, 28.4813282], [77.0164742, 28.4820353], [77.0169826, 28.4827722], [77.0175554, 28.4836313], [77.0183145, 28.4847142], [77.0192037, 28.4852315], [77.0196976, 28.4855271]]}, "properties": {"line_id": "SWD-WORK-074", "source_id": "8", "work_status": "Work Completed", "size_text": "[ 900*900 ,C]", "height_m": 0.9, "width_m": 0.9, "sec_w_m": 0.9, "sec_h_m": 0.9, "depth_crown_m": -1.05, "depth_invert_m": -1.95}}, {"type": "Feature", "geometry": {"type": "LineString", "coordinates": [[77.0254828, 28.4806763], [77.0252156, 28.4807503], [77.0246924, 28.4810827], [77.0236542, 28.4815732], [77.0227236, 28.4819955], [77.0219673, 28.4826903], [77.0209034, 28.4838142], [77.0201423, 28.4849371], [77.0196976, 28.4855271], [77.0197644, 28.488015], [77.0197049, 28.4888434], [77.0196624, 28.4894347], [77.0196487, 28.4899794]]}, "properties": {"line_id": "SWD-WORK-075", "source_id": "262", "work_status": "Work Completed", "size_text": "[ 1830*910 ,C]", "height_m": 0.0, "width_m": 0.0, "sec_w_m": 0.6, "sec_h_m": 0.6, "depth_crown_m": -1.05, "depth_invert_m": -1.65}}, {"type": "Feature", "geometry": {"type": "LineString", "coordinates": [[77.0249418, 28.4992781], [77.0242893, 28.4988577], [77.0229855, 28.4978224], [77.0219767, 28.496601], [77.0210723, 28.4954174], [77.020281, 28.4943092], [77.0200712, 28.4937761], [77.0197861, 28.4928996], [77.0197429, 28.4924707], [77.0196542, 28.4914405], [77.0196487, 28.4899794]]}, "properties": {"line_id": "SWD-WORK-076", "source_id": "260", "work_status": "Work Completed", "size_text": "[900*900,C]", "height_m": 3.6, "width_m": 1.8, "sec_w_m": 1.8, "sec_h_m": 3.6, "depth_crown_m": -1.05, "depth_invert_m": -4.65}}, {"type": "Feature", "geometry": {"type": "MultiLineString", "coordinates": [[[77.0573348, 28.5029907], [77.0507783, 28.5070141], [77.0480047, 28.5079931], [77.0446368, 28.5091611], [77.041836, 28.5101261]], [[77.041836, 28.5101261], [77.0412957, 28.5103158]]]}, "properties": {"line_id": "SWD-WORK-077", "source_id": "140", "work_status": "Work Completed", "size_text": "[ 3050*1980,C ]", "height_m": 0.0, "width_m": 0.0, "sec_w_m": 0.6, "sec_h_m": 0.6, "depth_crown_m": -1.05, "depth_invert_m": -1.65}}, {"type": "Feature", "geometry": {"type": "LineString", "coordinates": [[77.0363227, 28.5037822], [77.041836, 28.5101261]]}, "properties": {"line_id": "SWD-WORK-078", "source_id": "11", "work_status": "Work Completed", "size_text": "[ 600 \u0278 ]", "height_m": 0.0, "width_m": 0.0, "sec_w_m": 0.6, "sec_h_m": 0.6, "depth_crown_m": -1.05, "depth_invert_m": -1.65}}, {"type": "Feature", "geometry": {"type": "LineString", "coordinates": [[77.0730913, 28.4680146], [77.0719294, 28.4759769], [77.0715961, 28.4781138]]}, "properties": {"line_id": "SWD-WORK-079", "source_id": "237", "work_status": "Work Completed", "size_text": "[ 900*900 ,C]", "height_m": 0.9, "width_m": 0.9, "sec_w_m": 0.9, "sec_h_m": 0.9, "depth_crown_m": -1.05, "depth_invert_m": -1.95}}, {"type": "Feature", "geometry": {"type": "LineString", "coordinates": [[77.0911251, 28.4809393], [77.0892776, 28.4806296], [77.0887285, 28.4806492], [77.0877423, 28.4806845], [77.0861456, 28.4805331], [77.0777723, 28.4792613], [77.0715961, 28.4781138]]}, "properties": {"line_id": "SWD-WORK-080", "source_id": "5", "work_status": "Work Completed", "size_text": "[ 1200*900 ,C]", "height_m": 1.2, "width_m": 0.9, "sec_w_m": 0.9, "sec_h_m": 1.2, "depth_crown_m": -1.05, "depth_invert_m": -2.25}}, {"type": "Feature", "geometry": {"type": "LineString", "coordinates": [[77.0929367, 28.4813268], [77.0911251, 28.4809393]]}, "properties": {"line_id": "SWD-WORK-081", "source_id": "235", "work_status": "Work Completed", "size_text": "[ 1200*900 ,C]", "height_m": 1.2, "width_m": 0.9, "sec_w_m": 0.9, "sec_h_m": 1.2, "depth_crown_m": -1.05, "depth_invert_m": -2.25}}, {"type": "Feature", "geometry": {"type": "LineString", "coordinates": [[77.0999957, 28.4822805], [77.0991268, 28.4827227], [77.0984074, 28.48324], [77.0983211, 28.4833031], [77.0976669, 28.4837814], [77.0966521, 28.4843892], [77.0961274, 28.484636], [77.0956094, 28.4849543], [77.0954007, 28.4850578], [77.0951108, 28.4854375], [77.0950732, 28.4858606], [77.0949197, 28.4861614], [77.0946759, 28.4864039], [77.0940201, 28.4868783], [77.0936649, 28.4871352], [77.0936608, 28.4871382], [77.0935811, 28.4873447], [77.0934556, 28.487603], [77.0930912, 28.4878513], [77.0927038, 28.4880769], [77.0924272, 28.4881725], [77.0921376, 28.4881483], [77.0919143, 28.4881995], [77.0910045, 28.4887048], [77.0906232, 28.4889165], [77.0899758, 28.4897247], [77.0897898, 28.4898899], [77.0893771, 28.4900381], [77.0892111, 28.4900976], [77.0888874, 28.4902996], [77.0887688, 28.4904506], [77.0887073, 28.4905859], [77.088742, 28.4908062], [77.0884609, 28.4919684], [77.0883834, 28.4921516], [77.0882259, 28.4922639], [77.087992, 28.4923271], [77.0878476, 28.4924034], [77.0877932, 28.492662], [77.0874762, 28.4931707], [77.0871267, 28.493684], [77.0870691, 28.493769], [77.0870092, 28.4938797], [77.0869542, 28.4941074], [77.0868632, 28.4942926], [77.0864608, 28.4947142], [77.0854473, 28.4950222]]}, "properties": {"line_id": "SWD-WORK-082", "source_id": "10", "work_status": "Work Completed", "size_text": "[ 1600 \u0278 ]", "height_m": 0.0, "width_m": 0.0, "sec_w_m": 0.6, "sec_h_m": 0.6, "depth_crown_m": -1.05, "depth_invert_m": -1.65}}, {"type": "Feature", "geometry": {"type": "LineString", "coordinates": [[77.0854473, 28.4950222], [77.0848409, 28.4950848], [77.0845658, 28.4950467], [77.0839156, 28.4952357], [77.0830299, 28.4955174], [77.0822804, 28.4959219], [77.0818402, 28.4960765], [77.0814357, 28.4962312], [77.0810907, 28.496719], [77.0808408, 28.4970997], [77.0806029, 28.4974685], [77.0801627, 28.4977659], [77.0799366, 28.4981062], [77.0799723, 28.4983346], [77.080058, 28.4986487], [77.0800151, 28.4988914], [77.0797153, 28.4989557], [77.0795512, 28.4989271], [77.0794012, 28.4989628], [77.0792513, 28.4990199], [77.07908, 28.499177], [77.0789158, 28.4994268], [77.0787802, 28.4995981], [77.0786743, 28.4997504], [77.0785101, 28.4998361], [77.0782353, 28.4998753], [77.0780354, 28.4998432], [77.0777677, 28.4998539], [77.0774822, 28.499936], [77.077211, 28.5000288], [77.0769932, 28.5001287], [77.0767148, 28.5002251], [77.0764686, 28.5002929], [77.0762615, 28.5003643], [77.0757857, 28.5004], [77.0755001, 28.5004298], [77.0748577, 28.5004892], [77.0744353, 28.5006082], [77.0738583, 28.5006677], [77.0730195, 28.5007748], [77.0723592, 28.500864], [77.0718774, 28.5009235], [77.0715484, 28.5010198], [77.0713896, 28.5010663], [77.0707412, 28.5010544], [77.0700868, 28.5009949], [77.0695574, 28.5009949], [77.0690577, 28.500977], [77.0687365, 28.5009889], [77.0683736, 28.5011198], [77.0681246, 28.5012434], [77.0677749, 28.5013874], [77.0675762, 28.5015063], [77.0674868, 28.5017232], [77.0674857, 28.501761], [77.0674992, 28.5018088], [77.0675714, 28.5019217], [77.067559, 28.5019628], [77.0674091, 28.5021155], [77.067299, 28.5022576]]}, "properties": {"line_id": "SWD-WORK-083", "source_id": "224", "work_status": "Work Completed", "size_text": "600", "height_m": 0.0, "width_m": 0.0, "sec_w_m": 0.6, "sec_h_m": 0.6, "depth_crown_m": -1.05, "depth_invert_m": -1.65}}, {"type": "Feature", "geometry": {"type": "LineString", "coordinates": [[77.0746484, 28.5118278], [77.0740874, 28.5105966], [77.0734166, 28.5096588]]}, "properties": {"line_id": "SWD-WORK-084", "source_id": "250", "work_status": "Work Completed", "size_text": "[ 900*900 ,C]", "height_m": 0.9, "width_m": 0.9, "sec_w_m": 0.9, "sec_h_m": 0.9, "depth_crown_m": -1.05, "depth_invert_m": -1.95}}, {"type": "Feature", "geometry": {"type": "LineString", "coordinates": [[77.0785307, 28.5159873], [77.0752293, 28.5128176], [77.0746484, 28.5118278]]}, "properties": {"line_id": "SWD-WORK-085", "source_id": "243", "work_status": "Work Completed", "size_text": "[ 900*900 ,C]", "height_m": 0.9, "width_m": 0.9, "sec_w_m": 0.9, "sec_h_m": 0.9, "depth_crown_m": -1.05, "depth_invert_m": -1.95}}, {"type": "Feature", "geometry": {"type": "LineString", "coordinates": [[77.0559136, 28.4891821], [77.0496417, 28.4821806], [77.0486033, 28.4820462]]}, "properties": {"line_id": "SWD-WORK-086", "source_id": "4", "work_status": "Work Completed", "size_text": "[ 1200*900 ,C]", "height_m": 1.2, "width_m": 0.9, "sec_w_m": 0.9, "sec_h_m": 1.2, "depth_crown_m": -1.05, "depth_invert_m": -2.25}}, {"type": "Feature", "geometry": {"type": "LineString", "coordinates": [[77.0615088, 28.4956144], [77.0559136, 28.4891821]]}, "properties": {"line_id": "SWD-WORK-087", "source_id": "240", "work_status": "Work Completed", "size_text": "[ 1200*900 ,C]", "height_m": 1.2, "width_m": 0.9, "sec_w_m": 0.9, "sec_h_m": 1.2, "depth_crown_m": -1.05, "depth_invert_m": -2.25}}, {"type": "Feature", "geometry": {"type": "LineString", "coordinates": [[77.0615088, 28.4956144], [77.0646329, 28.4992544], [77.0653963, 28.5001438], [77.067299, 28.5022576]]}, "properties": {"line_id": "SWD-WORK-088", "source_id": "242", "work_status": "Work Completed", "size_text": "[ 900*900 ,C]", "height_m": 0.9, "width_m": 0.9, "sec_w_m": 0.9, "sec_h_m": 0.9, "depth_crown_m": -1.05, "depth_invert_m": -1.95}}, {"type": "Feature", "geometry": {"type": "LineString", "coordinates": [[77.0768059, 28.5006906], [77.0744795, 28.5007559], [77.0722171, 28.5013541], [77.0687059, 28.5038684]]}, "properties": {"line_id": "SWD-WORK-089", "source_id": "259", "work_status": "Work Completed", "size_text": "[ 900*900,C ]", "height_m": 0.9, "width_m": 0.9, "sec_w_m": 0.9, "sec_h_m": 0.9, "depth_crown_m": -1.05, "depth_invert_m": -1.95}}, {"type": "Feature", "geometry": {"type": "LineString", "coordinates": [[77.067299, 28.5022576], [77.067026, 28.502648], [77.0668553, 28.5027054], [77.0662643, 28.5027021], [77.0654859, 28.5026977], [77.064778, 28.5026876], [77.0627851, 28.5026593], [77.0618926, 28.5026467], [77.0610302, 28.5026344], [77.0600678, 28.5026207], [77.0591852, 28.5026082], [77.0580888, 28.5027031], [77.0573348, 28.5029907]]}, "properties": {"line_id": "SWD-WORK-090", "source_id": "245", "work_status": "Work Completed", "size_text": "[ 2444*1520,C ]", "height_m": 0.0, "width_m": 0.0, "sec_w_m": 0.6, "sec_h_m": 0.6, "depth_crown_m": -1.05, "depth_invert_m": -1.65}}, {"type": "Feature", "geometry": {"type": "LineString", "coordinates": [[77.0734166, 28.5096588], [77.0718466, 28.5074641], [77.067299, 28.5022576]]}, "properties": {"line_id": "SWD-WORK-091", "source_id": "13", "work_status": "Work Completed", "size_text": "[ 900*900 ,C]", "height_m": 0.9, "width_m": 0.9, "sec_w_m": 0.9, "sec_h_m": 0.9, "depth_crown_m": -1.05, "depth_invert_m": -1.95}}, {"type": "Feature", "geometry": {"type": "LineString", "coordinates": [[77.0675251, 28.5119169], [77.0624133, 28.5092443], [77.0573348, 28.5029907]]}, "properties": {"line_id": "SWD-WORK-092", "source_id": "12", "work_status": "Work Completed", "size_text": "[ 1200 \u0278 ]", "height_m": 0.0, "width_m": 0.0, "sec_w_m": 0.6, "sec_h_m": 0.6, "depth_crown_m": -1.05, "depth_invert_m": -1.65}}, {"type": "Feature", "geometry": {"type": "LineString", "coordinates": [[77.0235495, 28.3815559], [77.029584, 28.3819696]]}, "properties": {"line_id": "SWD-WORK-093", "source_id": "69", "work_status": "Work in progress", "size_text": "600", "height_m": 0.0, "width_m": 0.0, "sec_w_m": 0.6, "sec_h_m": 0.6, "depth_crown_m": -1.05, "depth_invert_m": -1.65}}, {"type": "Feature", "geometry": {"type": "LineString", "coordinates": [[77.0296579, 28.3729762], [77.029585, 28.3819368], [77.0296863, 28.3878443], [77.0299031, 28.4004664]]}, "properties": {"line_id": "SWD-WORK-094", "source_id": "67", "work_status": "Work in progress", "size_text": "900", "height_m": 0.0, "width_m": 0.0, "sec_w_m": 0.6, "sec_h_m": 0.6, "depth_crown_m": -1.05, "depth_invert_m": -1.65}}, {"type": "Feature", "geometry": {"type": "LineString", "coordinates": [[77.0216472, 28.3880412], [77.0296854, 28.3878988]]}, "properties": {"line_id": "SWD-WORK-095", "source_id": "68", "work_status": "Work in progress", "size_text": "600", "height_m": 0.0, "width_m": 0.0, "sec_w_m": 0.6, "sec_h_m": 0.6, "depth_crown_m": -1.05, "depth_invert_m": -1.65}}, {"type": "Feature", "geometry": {"type": "LineString", "coordinates": [[77.0186193, 28.3880948], [77.0134258, 28.3881868]]}, "properties": {"line_id": "SWD-WORK-096", "source_id": "66", "work_status": "Work in progress", "size_text": "600", "height_m": 0.0, "width_m": 0.0, "sec_w_m": 0.6, "sec_h_m": 0.6, "depth_crown_m": -1.05, "depth_invert_m": -1.65}}, {"type": "Feature", "geometry": {"type": "LineString", "coordinates": [[77.0480553, 28.3884264], [77.0428174, 28.3881541], [77.0388067, 28.3885007], [77.0367833, 28.3877287], [77.0320558, 28.3878566], [77.0296854, 28.3878988]]}, "properties": {"line_id": "SWD-WORK-097", "source_id": "61", "work_status": "Work in progress", "size_text": "800", "height_m": 0.0, "width_m": 0.0, "sec_w_m": 0.6, "sec_h_m": 0.6, "depth_crown_m": -1.05, "depth_invert_m": -1.65}}, {"type": "Feature", "geometry": {"type": "LineString", "coordinates": [[77.020897, 28.381374], [77.0179039, 28.3811694], [77.0144811, 28.3852926], [77.0134211, 28.3881941], [77.0137361, 28.3927045], [77.0163264, 28.4007784]]}, "properties": {"line_id": "SWD-WORK-098", "source_id": "65", "work_status": "Work in progress", "size_text": "800", "height_m": 0.0, "width_m": 0.0, "sec_w_m": 0.6, "sec_h_m": 0.6, "depth_crown_m": -1.05, "depth_invert_m": -1.65}}, {"type": "Feature", "geometry": {"type": "LineString", "coordinates": [[77.0298864, 28.4017108], [77.0297616, 28.410893], [77.0263585, 28.4122807], [77.0245042, 28.4141706], [77.0224316, 28.4159443], [77.0215454, 28.4165475]]}, "properties": {"line_id": "SWD-WORK-099", "source_id": "33", "work_status": "Work in progress", "size_text": "[ 1000 \u0278 ]", "height_m": 0.0, "width_m": 0.0, "sec_w_m": 0.6, "sec_h_m": 0.6, "depth_crown_m": -1.05, "depth_invert_m": -1.65}}, {"type": "Feature", "geometry": {"type": "LineString", "coordinates": [[77.0448885, 28.4013135], [77.0436588, 28.4008327], [77.042112, 28.4007756], [77.0417269, 28.4009336], [77.0407912, 28.401243], [77.0403812, 28.4012525], [77.0403468, 28.40125], [77.0401257, 28.4026149], [77.0391559, 28.4027326], [77.0378263, 28.4036922], [77.0375632, 28.404166], [77.0375337, 28.4053354], [77.0368975, 28.4059523], [77.036875, 28.4081644], [77.0350431, 28.4092919], [77.0343947, 28.4099548], [77.0333228, 28.4126449], [77.0338161, 28.4158463], [77.0326408, 28.4193586]]}, "properties": {"line_id": "SWD-WORK-100", "source_id": "32", "work_status": "Work Completed", "size_text": "[ 2(N)*3500*2420 ,C]", "height_m": 3.5, "width_m": 2.42, "sec_w_m": 2.42, "sec_h_m": 3.5, "depth_crown_m": -1.05, "depth_invert_m": -4.55}}, {"type": "Feature", "geometry": {"type": "LineString", "coordinates": [[77.044256, 28.4036479], [77.0438188, 28.4053472], [77.0434197, 28.4067833], [77.043199, 28.4075219], [77.0422463, 28.4107856], [77.0416002, 28.4130014], [77.0409107, 28.4153467], [77.0403768, 28.4171456]]}, "properties": {"line_id": "SWD-WORK-101", "source_id": "49", "work_status": "Work Completed", "size_text": "[ 1200 \u0278 ]", "height_m": 0.0, "width_m": 0.0, "sec_w_m": 0.6, "sec_h_m": 0.6, "depth_crown_m": -1.05, "depth_invert_m": -1.65}}, {"type": "Feature", "geometry": {"type": "LineString", "coordinates": [[77.0109604, 28.402521], [77.0137431, 28.4142079], [77.0166304, 28.4198272], [77.0170707, 28.4194857], [77.0203521, 28.4173599], [77.0215454, 28.4165475], [77.0215929, 28.4166909]]}, "properties": {"line_id": "SWD-WORK-102", "source_id": "35", "work_status": "Work in progress", "size_text": "1000", "height_m": 0.0, "width_m": 0.0, "sec_w_m": 0.6, "sec_h_m": 0.6, "depth_crown_m": -1.05, "depth_invert_m": -1.65}}, {"type": "Feature", "geometry": {"type": "LineString", "coordinates": [[76.9902455, 28.381543], [76.9859163, 28.3859183], [76.9858254, 28.3887455], [76.9837057, 28.3891578], [76.9820935, 28.3902934], [76.9801009, 28.3916967], [76.978917, 28.3925305], [76.9833297, 28.397105]]}, "properties": {"line_id": "SWD-WORK-103", "source_id": "63", "work_status": "Work in progress", "size_text": "600", "height_m": 0.0, "width_m": 0.0, "sec_w_m": 0.6, "sec_h_m": 0.6, "depth_crown_m": -1.05, "depth_invert_m": -1.65}}, {"type": "Feature", "geometry": {"type": "LineString", "coordinates": [[77.0403468, 28.40125], [77.0392883, 28.4011787], [77.0369185, 28.4009438], [77.0334625, 28.4006796], [77.031053, 28.4005012], [77.0300113, 28.4004768], [77.0289987, 28.4005676], [77.0277729, 28.4006774], [77.025424, 28.4008543], [77.0228134, 28.4008354], [77.02073, 28.4007929], [77.0185629, 28.4007937], [77.0156014, 28.4008167], [77.0142559, 28.4008546], [77.0124246, 28.4009061], [77.0115914, 28.4009176], [77.0090854, 28.4009521], [77.0080027, 28.4009988], [77.0078872, 28.4010038], [77.0067244, 28.4010997], [77.005272, 28.4012902], [77.0040147, 28.4015565], [77.0028346, 28.4017895], [77.0024004, 28.4018752], [77.0010046, 28.4021067], [77.000719, 28.4021541], [76.9988698, 28.4025976], [76.9976595, 28.4029073], [76.9951669, 28.403652], [76.9926526, 28.4045318], [76.9902559, 28.4055023], [76.9877535, 28.4077324], [76.9858741, 28.4093713], [76.9848999, 28.4102207], [76.9834567, 28.4107505], [76.9822171, 28.4112055], [76.9781868, 28.41286], [76.9748836, 28.4153928], [76.9721241, 28.4168741], [76.9703965, 28.4178954], [76.9647588, 28.4174655]]}, "properties": {"line_id": "SWD-WORK-104", "source_id": "60", "work_status": "Additional Drain to be constructed of enhanced capi", "size_text": "[4500*2420]", "height_m": 1.2, "width_m": 0.9, "sec_w_m": 0.9, "sec_h_m": 1.2, "depth_crown_m": -1.05, "depth_invert_m": -2.25}}, {"type": "Feature", "geometry": {"type": "LineString", "coordinates": [[77.0056877, 28.4037253], [77.0057358, 28.4054197], [77.0057282, 28.407454], [77.0062146, 28.4074707], [77.0062109, 28.409567], [77.005913, 28.4095905], [77.0059647, 28.4106164], [77.0061133, 28.4130543], [77.0062226, 28.4151298], [77.0062262, 28.4155344], [77.0066668, 28.4159147], [77.0072925, 28.4164427], [77.0075472, 28.4168472], [77.0076261, 28.4175229], [77.0076314, 28.4183406], [77.00802, 28.4183587], [77.0082505, 28.4185911], [77.0084034, 28.4188216], [77.0086003, 28.4192395], [77.0087955, 28.4199306], [77.0097683, 28.4212485], [77.0106372, 28.4223554], [77.0111801, 28.4230732], [77.0117314, 28.4237865], [77.0166304, 28.4198272]]}, "properties": {"line_id": "SWD-WORK-105", "source_id": "36", "work_status": "Work in progress", "size_text": "1000", "height_m": 0.0, "width_m": 0.0, "sec_w_m": 0.6, "sec_h_m": 0.6, "depth_crown_m": -1.05, "depth_invert_m": -1.65}}, {"type": "Feature", "geometry": {"type": "LineString", "coordinates": [[77.0156244, 28.4268538], [77.0154459, 28.4269675], [77.0151003, 28.4271879], [77.0148972, 28.4273489], [77.0147234, 28.4275973], [77.0145793, 28.4278378], [77.0144366, 28.4281732], [77.014137, 28.4285553], [77.0136936, 28.4288928], [77.0129948, 28.429237], [77.0121942, 28.4295764], [77.0118696, 28.4296864], [77.0111888, 28.4298438], [77.0105356, 28.4298833], [77.009544, 28.4298969], [77.0092224, 28.4298496], [77.0085371, 28.4299067], [77.0080089, 28.4299638], [77.007395, 28.4301494], [77.0068861, 28.4303296], [77.0057216, 28.4306316]]}, "properties": {"line_id": "SWD-WORK-106", "source_id": "128", "work_status": "Work Completed", "size_text": "[ 2(N)*4000*2700 ,C]", "height_m": 2.4, "width_m": 2.7, "sec_w_m": 2.7, "sec_h_m": 2.4, "depth_crown_m": -1.05, "depth_invert_m": -3.45}}, {"type": "Feature", "geometry": {"type": "LineString", "coordinates": [[76.9991302, 28.4287755], [76.9982974, 28.4281568], [76.9978155, 28.4274609], [76.9972861, 28.4268898], [76.9971136, 28.4268957], [76.9968518, 28.4269671], [76.9961261, 28.4273954], [76.9952219, 28.4279546], [76.9949899, 28.4277761], [76.9949304, 28.4276512], [76.9937823, 28.4283294], [76.9936396, 28.4285078], [76.9935384, 28.4285673], [76.9930566, 28.428722], [76.992551, 28.4288826], [76.9921584, 28.4290729], [76.9918133, 28.4292157], [76.9915278, 28.4294061], [76.990808, 28.4298046], [76.9904273, 28.4300783], [76.9901418, 28.430346], [76.9900704, 28.430459], [76.989886, 28.4306434], [76.9897075, 28.4307207], [76.9896123, 28.4308516], [76.9895409, 28.4308754], [76.9893089, 28.4309884], [76.9889909, 28.4311557]]}, "properties": {"line_id": "SWD-WORK-107", "source_id": "130", "work_status": "Work Completed", "size_text": "[4000*3050,C ]", "height_m": 4.0, "width_m": 3.05, "sec_w_m": 3.05, "sec_h_m": 4.0, "depth_crown_m": -1.05, "depth_invert_m": -5.05}}, {"type": "Feature", "geometry": {"type": "LineString", "coordinates": [[77.0057216, 28.4306316], [77.0055033, 28.4305634], [77.0052713, 28.4305575], [77.0049441, 28.4307538], [77.0046586, 28.4308847], [77.0044028, 28.4309501], [77.0041411, 28.4309025], [77.003921, 28.4308906], [77.0037247, 28.4308668], [77.0034689, 28.4308311], [77.0031952, 28.4308252], [77.002987, 28.4308192], [77.0028383, 28.4308133], [77.0027848, 28.4307895], [77.0026777, 28.4307003], [77.0024636, 28.4304742], [77.0023386, 28.4303433], [77.0022056, 28.4303507], [77.0019409, 28.4304043], [77.001578, 28.4305202], [77.001117, 28.4306362], [77.0005757, 28.4298522], [77.0000225, 28.4291443], [76.9991302, 28.4287755]]}, "properties": {"line_id": "SWD-WORK-108", "source_id": "129", "work_status": "Work Completed", "size_text": "[ 2400 \u0278 ]", "height_m": 0.0, "width_m": 0.0, "sec_w_m": 0.6, "sec_h_m": 0.6, "depth_crown_m": -1.05, "depth_invert_m": -1.65}}, {"type": "Feature", "geometry": {"type": "LineString", "coordinates": [[76.9889909, 28.4311557], [76.9874256, 28.4319818], [76.9875017, 28.4322959], [76.9873399, 28.4332763], [76.9868926, 28.4336379], [76.9868355, 28.4342471], [76.9866832, 28.4343423], [76.9861026, 28.4348657], [76.9859884, 28.4352179], [76.9859694, 28.4357985], [76.985779, 28.4363163], [76.9856172, 28.4366684], [76.9853317, 28.4369254], [76.9852555, 28.4371538], [76.9853317, 28.4376583], [76.9851223, 28.4380771], [76.98497, 28.438572], [76.9840658, 28.4395999], [76.9827999, 28.4406469], [76.9822003, 28.4413322], [76.9815287, 28.4417798]]}, "properties": {"line_id": "SWD-WORK-109", "source_id": "143", "work_status": "Work Completed", "size_text": "[ 3(N)*4200*3300,C ]", "height_m": 4.2, "width_m": 3.3, "sec_w_m": 3.3, "sec_h_m": 4.2, "depth_crown_m": -1.05, "depth_invert_m": -5.25}}, {"type": "Feature", "geometry": {"type": "LineString", "coordinates": [[76.98957, 28.4318246], [76.991727, 28.4346256], [76.9913362, 28.4348589], [76.9818811, 28.4419381]]}, "properties": {"line_id": "SWD-WORK-110", "source_id": "82", "work_status": "Work in progress", "size_text": "800", "height_m": 0.0, "width_m": 0.0, "sec_w_m": 0.6, "sec_h_m": 0.6, "depth_crown_m": -1.05, "depth_invert_m": -1.65}}, {"type": "Feature", "geometry": {"type": "LineString", "coordinates": [[77.0101483, 28.4359388], [77.0101052, 28.4358867], [77.0101016, 28.4358824], [77.0094626, 28.4363279], [77.0087604, 28.4367585], [77.0072038, 28.4377174], [77.0063076, 28.4383203], [77.0061244, 28.4384291], [77.0051083, 28.4390327], [77.0038528, 28.4399227], [77.003024, 28.4405198], [77.0021926, 28.4411194], [77.0016633, 28.4417002]]}, "properties": {"line_id": "SWD-WORK-111", "source_id": "131", "work_status": "Work Completed", "size_text": "[ 600 \u0278 ]", "height_m": 0.0, "width_m": 0.0, "sec_w_m": 0.6, "sec_h_m": 0.6, "depth_crown_m": -1.05, "depth_invert_m": -1.65}}, {"type": "Feature", "geometry": {"type": "LineString", "coordinates": [[77.0016633, 28.4417002], [77.0003589, 28.4431519], [76.9995752, 28.4439757], [76.9995457, 28.4440066], [76.9990977, 28.4448847], [76.9986748, 28.4456643], [76.9978941, 28.4471036], [76.9972197, 28.4483244]]}, "properties": {"line_id": "SWD-WORK-112", "source_id": "132", "work_status": "Work Completed", "size_text": "[ 2440*1375,C ]", "height_m": 2.44, "width_m": 1.375, "sec_w_m": 1.38, "sec_h_m": 2.44, "depth_crown_m": -1.05, "depth_invert_m": -3.49}}, {"type": "Feature", "geometry": {"type": "LineString", "coordinates": [[76.9833297, 28.397105], [76.97901, 28.4004157], [76.9756838, 28.4027675], [76.9746754, 28.4037475]]}, "properties": {"line_id": "SWD-WORK-113", "source_id": "214", "work_status": "Work Completed", "size_text": "[ 1400 \u0278 ]", "height_m": 0.0, "width_m": 0.0, "sec_w_m": 0.6, "sec_h_m": 0.6, "depth_crown_m": -1.05, "depth_invert_m": -1.65}}, {"type": "Feature", "geometry": {"type": "LineString", "coordinates": [[76.9746754, 28.4037475], [76.9730149, 28.4053614]]}, "properties": {"line_id": "SWD-WORK-114", "source_id": "215", "work_status": "Work Completed", "size_text": "[3650*2430,C ]", "height_m": 3.65, "width_m": 2.43, "sec_w_m": 2.43, "sec_h_m": 3.65, "depth_crown_m": -1.05, "depth_invert_m": -4.7}}, {"type": "Feature", "geometry": {"type": "LineString", "coordinates": [[76.9703363, 28.4039952], [76.9708255, 28.4042447], [76.9730149, 28.4053614]]}, "properties": {"line_id": "SWD-WORK-115", "source_id": "202", "work_status": "Work Completed", "size_text": "[3040*2430,C ]", "height_m": 3.04, "width_m": 2.43, "sec_w_m": 2.43, "sec_h_m": 3.04, "depth_crown_m": -1.05, "depth_invert_m": -4.09}}, {"type": "Feature", "geometry": {"type": "LineString", "coordinates": [[76.9730149, 28.4053614], [76.9712786, 28.4070488], [76.9700463, 28.408396], [76.9681993, 28.4108523], [76.9646806, 28.4169765], [76.9643965, 28.4173691], [76.9643573, 28.4174191], [76.9643265, 28.417439]]}, "properties": {"line_id": "SWD-WORK-116", "source_id": "216", "work_status": "Work Completed", "size_text": "[5500*2430,C ]", "height_m": 5.5, "width_m": 2.43, "sec_w_m": 2.43, "sec_h_m": 5.5, "depth_crown_m": -1.05, "depth_invert_m": -6.55}}, {"type": "Feature", "geometry": {"type": "LineString", "coordinates": [[76.9588083, 28.414321], [76.9612978, 28.4157172], [76.9625135, 28.4164264], [76.9642658, 28.4175615]]}, "properties": {"line_id": "SWD-WORK-117", "source_id": "114", "work_status": "Work Completed", "size_text": "[3040*1820,C ]", "height_m": 0.0, "width_m": 0.0, "sec_w_m": 0.6, "sec_h_m": 0.6, "depth_crown_m": -1.05, "depth_invert_m": -1.65}}, {"type": "Feature", "geometry": {"type": "LineString", "coordinates": [[76.9842284, 28.413853], [76.9804729, 28.4166534], [76.9778591, 28.4185254], [76.9766618, 28.4193828], [76.9747848, 28.4215589]]}, "properties": {"line_id": "SWD-WORK-118", "source_id": "81", "work_status": "Work in progress", "size_text": "[ 1000 \u0278 ]", "height_m": 0.0, "width_m": 0.0, "sec_w_m": 0.6, "sec_h_m": 0.6, "depth_crown_m": -1.05, "depth_invert_m": -1.65}}, {"type": "Feature", "geometry": {"type": "LineString", "coordinates": [[76.9747848, 28.4215589], [76.9631074, 28.4215755]]}, "properties": {"line_id": "SWD-WORK-119", "source_id": "79", "work_status": "Work in progress", "size_text": "[ 2400 \u0278 ]", "height_m": 0.0, "width_m": 0.0, "sec_w_m": 0.6, "sec_h_m": 0.6, "depth_crown_m": -1.05, "depth_invert_m": -1.65}}, {"type": "Feature", "geometry": {"type": "LineString", "coordinates": [[76.9845466, 28.4261046], [76.9778591, 28.4185254]]}, "properties": {"line_id": "SWD-WORK-120", "source_id": "80", "work_status": "Work in progress", "size_text": "[ 1200 \u0278 ]", "height_m": 0.0, "width_m": 0.0, "sec_w_m": 0.6, "sec_h_m": 0.6, "depth_crown_m": -1.05, "depth_invert_m": -1.65}}, {"type": "Feature", "geometry": {"type": "LineString", "coordinates": [[76.9643265, 28.417439], [76.9625977, 28.4215133], [76.9619887, 28.4248886], [76.9615176, 28.4275414], [76.9611162, 28.4298432], [76.9606374, 28.4328301], [76.9600079, 28.4373847], [76.9599963, 28.439217]]}, "properties": {"line_id": "SWD-WORK-121", "source_id": "72", "work_status": "Work Completed", "size_text": "[8500*2430,C ]", "height_m": 8.5, "width_m": 2.43, "sec_w_m": 2.43, "sec_h_m": 8.5, "depth_crown_m": -1.05, "depth_invert_m": -9.55}}, {"type": "Feature", "geometry": {"type": "LineString", "coordinates": [[76.9647588, 28.4174655], [76.9647261, 28.4175235], [76.9646831, 28.4176311], [76.9642906, 28.4186135], [76.9640924, 28.4191097], [76.9634503, 28.4207172], [76.9631074, 28.4215755], [76.963094, 28.4216434], [76.962864, 28.4228113], [76.962762, 28.4233293], [76.9623517, 28.4254118], [76.9621172, 28.4266022], [76.9617855, 28.428343], [76.9614886, 28.4299444], [76.9614815, 28.4299387], [76.9614699, 28.4299993], [76.9613327, 28.4308698], [76.961298, 28.43109], [76.9608796, 28.4337445], [76.9606742, 28.4350476], [76.9603031, 28.4374024], [76.9602708, 28.4385625], [76.960252, 28.4392398]]}, "properties": {"line_id": "SWD-WORK-122", "source_id": "231", "work_status": "Additional Drain to be constructed of enhanced capi", "size_text": "5500*2700", "height_m": 0.0, "width_m": 0.0, "sec_w_m": 0.6, "sec_h_m": 0.6, "depth_crown_m": -1.05, "depth_invert_m": -1.65}}, {"type": "Feature", "geometry": {"type": "LineString", "coordinates": [[76.9523538, 28.4282332], [76.9524754, 28.428236], [76.9533739, 28.4282568], [76.9546129, 28.4282852], [76.9547917, 28.4282794], [76.9549367, 28.4282627], [76.9551902, 28.4282201], [76.955782, 28.428054], [76.9562887, 28.4279209], [76.9568841, 28.4277731], [76.9573139, 28.4277878], [76.9575353, 28.4278116], [76.9577937, 28.4278763], [76.9579396, 28.427938], [76.9583329, 28.428276], [76.9590448, 28.4288681], [76.9594191, 28.4290784], [76.9603781, 28.4295548], [76.9611147, 28.4298563]]}, "properties": {"line_id": "SWD-WORK-123", "source_id": "121", "work_status": "Work in progress", "size_text": "[4500*2430,C ]", "height_m": 4.5, "width_m": 2.43, "sec_w_m": 2.43, "sec_h_m": 4.5, "depth_crown_m": -1.05, "depth_invert_m": -5.55}}, {"type": "Feature", "geometry": {"type": "LineString", "coordinates": [[76.9750524, 28.4367556], [76.974644, 28.433325], [76.9719901, 28.4310848], [76.9737303, 28.4279336], [76.9747848, 28.4215589]]}, "properties": {"line_id": "SWD-WORK-124", "source_id": "78", "work_status": "Work in progress", "size_text": "[ 1200 \u0278 ]", "height_m": 0.0, "width_m": 0.0, "sec_w_m": 0.6, "sec_h_m": 0.6, "depth_crown_m": -1.05, "depth_invert_m": -1.65}}, {"type": "Feature", "geometry": {"type": "LineString", "coordinates": [[76.9505143, 28.4383699], [76.954973, 28.4387683], [76.956295, 28.4388864], [76.960252, 28.4392398]]}, "properties": {"line_id": "SWD-WORK-125", "source_id": "70", "work_status": "Work in progress", "size_text": "[ 2500*2250,C ]", "height_m": 2.5, "width_m": 2.25, "sec_w_m": 2.25, "sec_h_m": 2.5, "depth_crown_m": -1.05, "depth_invert_m": -3.55}}, {"type": "Feature", "geometry": {"type": "LineString", "coordinates": [[76.968986, 28.4397405], [76.960252, 28.4392398]]}, "properties": {"line_id": "SWD-WORK-126", "source_id": "189", "work_status": "Work in progress", "size_text": "[ 1000 \u0278 ]", "height_m": 0.0, "width_m": 0.0, "sec_w_m": 0.6, "sec_h_m": 0.6, "depth_crown_m": -1.05, "depth_invert_m": -1.65}}, {"type": "Feature", "geometry": {"type": "LineString", "coordinates": [[76.9611584, 28.4521749], [76.9614406, 28.4499147], [76.9608474, 28.447042], [76.9604878, 28.4445707], [76.9602423, 28.4408189], [76.960252, 28.4392398]]}, "properties": {"line_id": "SWD-WORK-127", "source_id": "19", "work_status": "Additional Drain to be constructed of enhanced capi", "size_text": "[ 12000*2430 ,C]", "height_m": 1.2, "width_m": 2.43, "sec_w_m": 2.43, "sec_h_m": 1.2, "depth_crown_m": -1.05, "depth_invert_m": -2.25}}, {"type": "Feature", "geometry": {"type": "LineString", "coordinates": [[76.9594572, 28.4391689], [76.9594479, 28.4423665], [76.9596561, 28.4462926], [76.9600428, 28.4498618], [76.9610232, 28.4522629]]}, "properties": {"line_id": "SWD-WORK-128", "source_id": "127", "work_status": "Work in progress", "size_text": "[ 2500*2250,C ]", "height_m": 2.5, "width_m": 2.25, "sec_w_m": 2.25, "sec_h_m": 2.5, "depth_crown_m": -1.05, "depth_invert_m": -3.55}}, {"type": "Feature", "geometry": {"type": "LineString", "coordinates": [[76.9818811, 28.4419381], [76.9836809, 28.4423671], [76.9812976, 28.4470487], [76.9835354, 28.4478444], [76.9824799, 28.4531211]]}, "properties": {"line_id": "SWD-WORK-129", "source_id": "135", "work_status": "Work in progress", "size_text": "[ 1020*1000 ,C]", "height_m": 1.2, "width_m": 1.0, "sec_w_m": 1.0, "sec_h_m": 1.2, "depth_crown_m": -1.05, "depth_invert_m": -2.25}}, {"type": "Feature", "geometry": {"type": "LineString", "coordinates": [[76.9815287, 28.4417798], [76.9812682, 28.4420224], [76.9805132, 28.4421977], [76.97975, 28.4423004], [76.9794868, 28.4422983], [76.9791231, 28.442377], [76.9788704, 28.4422479], [76.9780625, 28.4422776], [76.9775266, 28.4423277], [76.9767544, 28.4424213], [76.9758638, 28.4425592], [76.975509, 28.4426471], [76.9751173, 28.4427891], [76.9744157, 28.4430737], [76.972984, 28.4437608], [76.9719771, 28.4441745], [76.9700209, 28.445125], [76.9682562, 28.4459817], [76.9672706, 28.4465317], [76.9664889, 28.447097], [76.9646793, 28.4483481], [76.9638425, 28.448981], [76.9638901, 28.4555179]]}, "properties": {"line_id": "SWD-WORK-130", "source_id": "58", "work_status": "Work Completed", "size_text": "[ 3(N)*5500*2700,C ]", "height_m": 5.5, "width_m": 2.7, "sec_w_m": 2.7, "sec_h_m": 5.5, "depth_crown_m": -1.05, "depth_invert_m": -6.55}}, {"type": "Feature", "geometry": {"type": "LineString", "coordinates": [[76.9851356, 28.4534677], [76.9779177, 28.4525256]]}, "properties": {"line_id": "SWD-WORK-131", "source_id": "84", "work_status": "Work in progress", "size_text": "[ 1500*1500 ,C]", "height_m": 1.5, "width_m": 1.5, "sec_w_m": 1.5, "sec_h_m": 1.5, "depth_crown_m": -1.05, "depth_invert_m": -2.55}}, {"type": "Feature", "geometry": {"type": "LineString", "coordinates": [[76.9779177, 28.4525256], [76.9735119, 28.4591591]]}, "properties": {"line_id": "SWD-WORK-132", "source_id": "136", "work_status": "Work in progress", "size_text": "[ 1750*1500 ,C]", "height_m": 1.75, "width_m": 1.5, "sec_w_m": 1.5, "sec_h_m": 1.75, "depth_crown_m": -1.05, "depth_invert_m": -2.8}}, {"type": "Feature", "geometry": {"type": "LineString", "coordinates": [[76.9735119, 28.4591591], [76.9723284, 28.4585052], [76.9679896, 28.4561273], [76.964825, 28.4543403], [76.9638901, 28.4555179]]}, "properties": {"line_id": "SWD-WORK-133", "source_id": "83", "work_status": "Work in progress", "size_text": "[ 2900*1500,C ]", "height_m": 2.9, "width_m": 1.5, "sec_w_m": 1.5, "sec_h_m": 2.9, "depth_crown_m": -1.05, "depth_invert_m": -3.95}}, {"type": "Feature", "geometry": {"type": "LineString", "coordinates": [[76.9610232, 28.4522629], [76.9603427, 28.4534328], [76.9597566, 28.4544404], [76.9582867, 28.4569671], [76.9572389, 28.4587683], [76.9566504, 28.4597798], [76.9538166, 28.4646969]]}, "properties": {"line_id": "SWD-WORK-134", "source_id": "75", "work_status": "Work Completed", "size_text": "[ 1200*900 ,C]", "height_m": 1.2, "width_m": 0.9, "sec_w_m": 0.9, "sec_h_m": 1.2, "depth_crown_m": -1.05, "depth_invert_m": -2.25}}, {"type": "Feature", "geometry": {"type": "LineString", "coordinates": [[76.9611584, 28.4521749], [76.9638901, 28.4555179], [76.9657361, 28.4577826], [76.9670773, 28.4601739], [76.9682755, 28.4619419], [76.969915, 28.4647906], [76.9711589, 28.4661633]]}, "properties": {"line_id": "SWD-WORK-135", "source_id": "18", "work_status": "Work Completed", "size_text": "[1200*900]", "height_m": 1.2, "width_m": 2.43, "sec_w_m": 2.43, "sec_h_m": 1.2, "depth_crown_m": -1.05, "depth_invert_m": -2.25}}, {"type": "Feature", "geometry": {"type": "LineString", "coordinates": [[76.9785079, 28.4630189], [76.9773444, 28.4637993], [76.9764526, 28.4644027], [76.9753662, 28.4651507], [76.9743244, 28.4658476], [76.9730764, 28.4666937], [76.9721733, 28.4672827]]}, "properties": {"line_id": "SWD-WORK-136", "source_id": "196", "work_status": "Work in progress", "size_text": "[ 1200*900 ,C]", "height_m": 0.0, "width_m": 0.0, "sec_w_m": 0.6, "sec_h_m": 0.6, "depth_crown_m": -1.05, "depth_invert_m": -1.65}}, {"type": "Feature", "geometry": {"type": "LineString", "coordinates": [[76.9538166, 28.4646969], [76.9552332, 28.4658924], [76.9585022, 28.4686509], [76.9587172, 28.4688323], [76.9594546, 28.4694586], [76.9605739, 28.4688002], [76.961395, 28.4683089]]}, "properties": {"line_id": "SWD-WORK-137", "source_id": "274", "work_status": "Work Completed", "size_text": "[1750*1500,C]", "height_m": 1.75, "width_m": 0.5, "sec_w_m": 0.5, "sec_h_m": 1.75, "depth_crown_m": -1.05, "depth_invert_m": -2.8}}, {"type": "Feature", "geometry": {"type": "LineString", "coordinates": [[76.9638901, 28.4555179], [76.962695, 28.4577961], [76.9599909, 28.4629487], [76.961395, 28.4683089], [76.9619956, 28.470618], [76.9625494, 28.4726115], [76.9626695, 28.4730182], [76.9628737, 28.4733011], [76.9629992, 28.4735519], [76.9587927, 28.4802977]]}, "properties": {"line_id": "SWD-WORK-138", "source_id": "155", "work_status": "Work Completed", "size_text": "[ 3(N)*6700*2730,C ]", "height_m": 6.7, "width_m": 2.73, "sec_w_m": 2.73, "sec_h_m": 6.7, "depth_crown_m": -1.05, "depth_invert_m": -7.75}}, {"type": "Feature", "geometry": {"type": "LineString", "coordinates": [[76.9721733, 28.4672827], [76.9684984, 28.4696015], [76.9625494, 28.4726115]]}, "properties": {"line_id": "SWD-WORK-139", "source_id": "31", "work_status": "Work Completed", "size_text": "[ 1200*900 ,C]", "height_m": 1.2, "width_m": 0.9, "sec_w_m": 0.9, "sec_h_m": 1.2, "depth_crown_m": -1.05, "depth_invert_m": -2.25}}, {"type": "Feature", "geometry": {"type": "LineString", "coordinates": [[76.9711589, 28.4661633], [76.9739179, 28.4692079], [76.9764595, 28.4719664], [76.978981, 28.4741364]]}, "properties": {"line_id": "SWD-WORK-140", "source_id": "153", "work_status": "Work Completed", "size_text": "[ 1200*900 ,C]", "height_m": 1.2, "width_m": 0.9, "sec_w_m": 0.9, "sec_h_m": 1.2, "depth_crown_m": -1.05, "depth_invert_m": -2.25}}, {"type": "Feature", "geometry": {"type": "LineString", "coordinates": [[76.9724386, 28.4697776], [76.9749513, 28.4722333], [76.9769501, 28.4743462], [76.9798261, 28.4767022]]}, "properties": {"line_id": "SWD-WORK-141", "source_id": "177", "work_status": "Work Completed", "size_text": "[ 1200*900 ,C]", "height_m": 1.2, "width_m": 0.9, "sec_w_m": 0.9, "sec_h_m": 1.2, "depth_crown_m": -1.05, "depth_invert_m": -2.25}}, {"type": "Feature", "geometry": {"type": "LineString", "coordinates": [[76.978981, 28.4741364], [76.9808967, 28.4757849]]}, "properties": {"line_id": "SWD-WORK-142", "source_id": "102", "work_status": "Work in progress", "size_text": "[ 1200*900 ,C]", "height_m": 1.2, "width_m": 0.9, "sec_w_m": 0.9, "sec_h_m": 1.2, "depth_crown_m": -1.05, "depth_invert_m": -2.25}}, {"type": "Feature", "geometry": {"type": "LineString", "coordinates": [[76.9972197, 28.4483244], [76.9969379, 28.4488343], [76.9958361, 28.4508655], [76.9945911, 28.4530421], [76.9937989, 28.4544433]]}, "properties": {"line_id": "SWD-WORK-143", "source_id": "133", "work_status": "Work Completed", "size_text": "[3650*1375,C ]", "height_m": 3.65, "width_m": 1.375, "sec_w_m": 1.38, "sec_h_m": 3.65, "depth_crown_m": -1.05, "depth_invert_m": -4.7}}, {"type": "Feature", "geometry": {"type": "LineString", "coordinates": [[76.9937989, 28.4544433], [76.9936231, 28.4545772], [76.9933795, 28.4546977], [76.9916857, 28.4554197], [76.9910751, 28.455708], [76.9908912, 28.4558396], [76.9907857, 28.4559749], [76.9906884, 28.4562604], [76.9905878, 28.456663], [76.9904589, 28.4569896], [76.9903473, 28.4572323], [76.9902239, 28.4574149], [76.9901839, 28.4574165], [76.9910493, 28.4597875], [76.9909231, 28.4611264], [76.9898846, 28.4633763]]}, "properties": {"line_id": "SWD-WORK-144", "source_id": "88", "work_status": "Work Completed", "size_text": "[ 2440*1375,C ]", "height_m": 2.44, "width_m": 1.375, "sec_w_m": 1.38, "sec_h_m": 2.44, "depth_crown_m": -1.05, "depth_invert_m": -3.49}}, {"type": "Feature", "geometry": {"type": "LineString", "coordinates": [[76.9898846, 28.4633763], [76.9898267, 28.4635231], [76.9883468, 28.4673046]]}, "properties": {"line_id": "SWD-WORK-145", "source_id": "134", "work_status": "Work Completed", "size_text": "[3050*370,C ]", "height_m": 3.05, "width_m": 0.37, "sec_w_m": 0.37, "sec_h_m": 3.05, "depth_crown_m": -1.05, "depth_invert_m": -4.1}}, {"type": "Feature", "geometry": {"type": "LineString", "coordinates": [[77.0103515, 28.4580055], [77.0083796, 28.4623522], [77.005464, 28.4689087], [77.0021632, 28.4763304], [77.0021632, 28.4763305], [77.0005531, 28.4757554], [76.9993957, 28.475329], [76.9989931, 28.4754027]]}, "properties": {"line_id": "SWD-WORK-146", "source_id": "85", "work_status": "Work Completed", "size_text": "[ 1800*1200 ,C]", "height_m": 1.8, "width_m": 1.2, "sec_w_m": 1.2, "sec_h_m": 1.8, "depth_crown_m": -1.05, "depth_invert_m": -2.85}}, {"type": "Feature", "geometry": {"type": "LineString", "coordinates": [[77.0179347, 28.4734174], [77.0178871, 28.4735221], [77.0068596, 28.4695253], [77.005464, 28.4689087], [77.005312, 28.4688415], [77.0033783, 28.4683161], [76.9898267, 28.4635231]]}, "properties": {"line_id": "SWD-WORK-147", "source_id": "87", "work_status": "Work Completed", "size_text": "[ 900*600 ,C]", "height_m": 0.9, "width_m": 0.6, "sec_w_m": 0.6, "sec_h_m": 0.9, "depth_crown_m": -1.05, "depth_invert_m": -1.95}}, {"type": "Feature", "geometry": {"type": "LineString", "coordinates": [[76.9883413, 28.4672886], [76.9882318, 28.4674657], [76.987663, 28.4681107], [76.9817938, 28.4747674], [76.9808967, 28.4757849]]}, "properties": {"line_id": "SWD-WORK-148", "source_id": "176", "work_status": "Work Completed", "size_text": "[ 2(N)*4000*1500 ,C]", "height_m": 2.4, "width_m": 1.5, "sec_w_m": 1.5, "sec_h_m": 2.4, "depth_crown_m": -1.05, "depth_invert_m": -3.45}}, {"type": "Feature", "geometry": {"type": "LineString", "coordinates": [[77.0125946, 28.4800558], [77.014545, 28.4807524], [77.0021632, 28.4763305], [77.0021632, 28.4763304]]}, "properties": {"line_id": "SWD-WORK-149", "source_id": "86", "work_status": "Work Completed", "size_text": "[ 900*600 ,C]", "height_m": 0.9, "width_m": 0.6, "sec_w_m": 0.6, "sec_h_m": 0.9, "depth_crown_m": -1.05, "depth_invert_m": -1.95}}, {"type": "Feature", "geometry": {"type": "LineString", "coordinates": [[76.9881659, 28.4820396], [76.9897161, 28.4833733], [76.9992372, 28.4930388]]}, "properties": {"line_id": "SWD-WORK-150", "source_id": "101", "work_status": "Work in progress", "size_text": "[ 1200*900 ,C]", "height_m": 1.2, "width_m": 0.9, "sec_w_m": 0.9, "sec_h_m": 1.2, "depth_crown_m": -1.05, "depth_invert_m": -2.25}}, {"type": "Feature", "geometry": {"type": "LineString", "coordinates": [[76.9871246, 28.482967], [76.9886594, 28.4841805], [76.9915147, 28.4866433], [76.993228, 28.4883922], [76.9957978, 28.4911048], [76.9983375, 28.4934697]]}, "properties": {"line_id": "SWD-WORK-151", "source_id": "175", "work_status": "Work in progress", "size_text": "[ 1200*1000 ,C]", "height_m": 1.2, "width_m": 1.0, "sec_w_m": 1.0, "sec_h_m": 1.2, "depth_crown_m": -1.05, "depth_invert_m": -2.25}}, {"type": "Feature", "geometry": {"type": "LineString", "coordinates": [[77.0108486, 28.4891067], [77.0108894, 28.4891544], [76.9992372, 28.4930388]]}, "properties": {"line_id": "SWD-WORK-152", "source_id": "142", "work_status": "Work in progress", "size_text": "[ 1200*1000 ,C]", "height_m": 1.2, "width_m": 1.0, "sec_w_m": 1.0, "sec_h_m": 1.2, "depth_crown_m": -1.05, "depth_invert_m": -2.25}}, {"type": "Feature", "geometry": {"type": "LineString", "coordinates": [[76.9636753, 28.4749027], [76.9664989, 28.480545], [76.9690871, 28.4859037]]}, "properties": {"line_id": "SWD-WORK-153", "source_id": "156", "work_status": "Work Completed", "size_text": "[ 1200*900 ,C]", "height_m": 1.2, "width_m": 0.9, "sec_w_m": 0.9, "sec_h_m": 1.2, "depth_crown_m": -1.05, "depth_invert_m": -2.25}}, {"type": "Feature", "geometry": {"type": "LineString", "coordinates": [[76.9808967, 28.4757849], [76.9690871, 28.4859037]]}, "properties": {"line_id": "SWD-WORK-154", "source_id": "76", "work_status": "Work Completed", "size_text": "[2(N)*4000*1800,C ]", "height_m": 2.1, "width_m": 1.8, "sec_w_m": 1.8, "sec_h_m": 2.1, "depth_crown_m": -1.05, "depth_invert_m": -3.15}}, {"type": "Feature", "geometry": {"type": "LineString", "coordinates": [[76.9860169, 28.4801906], [76.9713725, 28.4901095], [76.9713725, 28.4901096]]}, "properties": {"line_id": "SWD-WORK-155", "source_id": "151", "work_status": "Work Completed", "size_text": "[ 1200*1500 ,C]", "height_m": 1.2, "width_m": 1.5, "sec_w_m": 1.5, "sec_h_m": 1.2, "depth_crown_m": -1.05, "depth_invert_m": -2.25}}, {"type": "Feature", "geometry": {"type": "LineString", "coordinates": [[76.9690871, 28.4859037], [76.9699722, 28.4877361], [76.9713725, 28.4901096]]}, "properties": {"line_id": "SWD-WORK-156", "source_id": "152", "work_status": "Work Completed", "size_text": "[ 2(N)*4250*800 ,C]", "height_m": 4.25, "width_m": 0.8, "sec_w_m": 0.8, "sec_h_m": 4.25, "depth_crown_m": -1.05, "depth_invert_m": -5.3}}, {"type": "Feature", "geometry": {"type": "LineString", "coordinates": [[76.9587927, 28.4802977], [76.9540338, 28.4951693], [76.9490369, 28.5024267], [76.9470258, 28.5047791]]}, "properties": {"line_id": "SWD-WORK-157", "source_id": "154", "work_status": "Khachha Drain Running", "size_text": "[3050*1375]", "height_m": 0.0, "width_m": 0.0, "sec_w_m": 0.6, "sec_h_m": 0.6, "depth_crown_m": -1.05, "depth_invert_m": -1.65}}, {"type": "Feature", "geometry": {"type": "LineString", "coordinates": [[76.9713725, 28.4901096], [76.9722236, 28.4914594], [76.9744209, 28.494944], [76.977066, 28.4991386], [76.9836903, 28.506925], [76.9848061, 28.5077302], [76.9852149, 28.5080251]]}, "properties": {"line_id": "SWD-WORK-158", "source_id": "77", "work_status": "Work Completed", "size_text": "[ 2(N)*5000*1800 ,C]", "height_m": 2.5, "width_m": 1.8, "sec_w_m": 1.8, "sec_h_m": 2.5, "depth_crown_m": -1.05, "depth_invert_m": -3.55}}, {"type": "Feature", "geometry": {"type": "LineString", "coordinates": [[76.9852149, 28.5080251], [76.984631, 28.5083445], [76.9842713, 28.5080583], [76.9834314, 28.5084679], [76.9807119, 28.5092028], [76.9790441, 28.5092806], [76.9782609, 28.5094906], [76.9773314, 28.5074184], [76.9761904, 28.507924], [76.9745954, 28.5086577], [76.9651779, 28.5129428]]}, "properties": {"line_id": "SWD-WORK-159", "source_id": "149", "work_status": "Work Completed", "size_text": "[3(N)*7000*2100,C ]", "height_m": 0.7, "width_m": 2.1, "sec_w_m": 2.1, "sec_h_m": 0.7, "depth_crown_m": -1.05, "depth_invert_m": -1.75}}, {"type": "Feature", "geometry": {"type": "LineString", "coordinates": [[77.0027796, 28.4964832], [77.0062348, 28.4996888]]}, "properties": {"line_id": "SWD-WORK-160", "source_id": "100", "work_status": "Work in progress", "size_text": "[ 1200*900 ,C]", "height_m": 1.2, "width_m": 0.9, "sec_w_m": 0.9, "sec_h_m": 1.2, "depth_crown_m": -1.05, "depth_invert_m": -2.25}}, {"type": "Feature", "geometry": {"type": "LineString", "coordinates": [[77.0015085, 28.4968155], [77.0034358, 28.4984216], [77.004873, 28.4997056]]}, "properties": {"line_id": "SWD-WORK-161", "source_id": "174", "work_status": "Work in progress", "size_text": "[ 1200*900 ,C]", "height_m": 1.2, "width_m": 0.9, "sec_w_m": 0.9, "sec_h_m": 1.2, "depth_crown_m": -1.05, "depth_invert_m": -2.25}}, {"type": "Feature", "geometry": {"type": "LineString", "coordinates": [[77.0182811, 28.4972785], [77.0177934, 28.4976478], [77.0162378, 28.4977091], [77.0163008, 28.4996564], [77.0104472, 28.4997279], [77.0084221, 28.4996585], [77.007056, 28.4996787], [77.0044293, 28.4997111]]}, "properties": {"line_id": "SWD-WORK-162", "source_id": "270", "work_status": "Work Completed", "size_text": "[2(N)*4500*2100,C ]", "height_m": 4.5, "width_m": 2.1, "sec_w_m": 2.1, "sec_h_m": 4.5, "depth_crown_m": -1.05, "depth_invert_m": -5.55}}, {"type": "Feature", "geometry": {"type": "LineString", "coordinates": [[76.9992372, 28.4930388], [76.9983375, 28.4934697], [76.9979321, 28.4937526], [76.9950375, 28.4958962], [76.9946218, 28.4962126], [76.9948025, 28.4969119], [76.9948916, 28.4976221], [76.9948757, 28.5000541], [76.9918677, 28.500144], [76.9906388, 28.5014838], [76.9891315, 28.5027359], [76.9883766, 28.5035262], [76.9884401, 28.5041442], [76.9883064, 28.5043982], [76.9873787, 28.5051987], [76.9865578, 28.5056997], [76.9864057, 28.5058929], [76.9863162, 28.5061922], [76.9863302, 28.5064747], [76.9862526, 28.5069495], [76.9861485, 28.5070709], [76.9854336, 28.5075573], [76.9852149, 28.5080251]]}, "properties": {"line_id": "SWD-WORK-163", "source_id": "96", "work_status": "Work in progress", "size_text": "[ 2500*1500,C ]", "height_m": 2.5, "width_m": 1.5, "sec_w_m": 1.5, "sec_h_m": 2.5, "depth_crown_m": -1.05, "depth_invert_m": -3.55}}, {"type": "Feature", "geometry": {"type": "LineString", "coordinates": [[77.0044293, 28.4997111], [77.0007787, 28.499756], [77.0002676, 28.5001684], [76.9983635, 28.5019307], [76.9975309, 28.5027222], [76.9958872, 28.5036174], [76.995851, 28.5038395], [76.994056, 28.5045076], [76.9922356, 28.5042898], [76.9893459, 28.5060817], [76.9880639, 28.5063586], [76.9852149, 28.5080251]]}, "properties": {"line_id": "SWD-WORK-164", "source_id": "29", "work_status": "Work Completed", "size_text": "[2(N)*4500*2100,C ]", "height_m": 4.5, "width_m": 2.1, "sec_w_m": 2.1, "sec_h_m": 4.5, "depth_crown_m": -1.05, "depth_invert_m": -5.55}}, {"type": "Feature", "geometry": {"type": "LineString", "coordinates": [[77.0073557, 28.5026195], [76.995028, 28.5155606]]}, "properties": {"line_id": "SWD-WORK-165", "source_id": "98", "work_status": "Work in progress", "size_text": "[ 1500*1500 ,C]", "height_m": 1.5, "width_m": 1.5, "sec_w_m": 1.5, "sec_h_m": 1.5, "depth_crown_m": -1.05, "depth_invert_m": -2.55}}, {"type": "Feature", "geometry": {"type": "LineString", "coordinates": [[77.0103848, 28.5035217], [77.0148241, 28.5076296], [77.0191039, 28.5127964], [77.0209022, 28.5149672], [77.0233423, 28.5179125], [77.0235462, 28.5181586]]}, "properties": {"line_id": "SWD-WORK-166", "source_id": "103", "work_status": "Work in progress", "size_text": "[ 1200*900 ,C]", "height_m": 1.2, "width_m": 0.9, "sec_w_m": 0.9, "sec_h_m": 1.2, "depth_crown_m": -1.05, "depth_invert_m": -2.25}}, {"type": "Feature", "geometry": {"type": "LineString", "coordinates": [[76.995028, 28.5155606], [76.9928441, 28.5135296], [76.9903971, 28.511764], [76.9852149, 28.5080251]]}, "properties": {"line_id": "SWD-WORK-167", "source_id": "148", "work_status": "Work in progress", "size_text": "[ 2(N)*1500 ,C]", "height_m": 2.0, "width_m": 1.5, "sec_w_m": 1.5, "sec_h_m": 2.0, "depth_crown_m": -1.05, "depth_invert_m": -3.05}}, {"type": "Feature", "geometry": {"type": "LineString", "coordinates": [[77.0093964, 28.5040252], [77.0134653, 28.5079156], [77.0161422, 28.5108781], [77.0232857, 28.5191388]]}, "properties": {"line_id": "SWD-WORK-168", "source_id": "173", "work_status": "Work in progress", "size_text": "[ 1200*1000 ,C]", "height_m": 1.2, "width_m": 1.0, "sec_w_m": 1.0, "sec_h_m": 1.2, "depth_crown_m": -1.05, "depth_invert_m": -2.25}}, {"type": "Feature", "geometry": {"type": "LineString", "coordinates": [[77.0412957, 28.5103158], [77.0402639, 28.5106821], [77.0384646, 28.5107758], [77.0316601, 28.5108948]]}, "properties": {"line_id": "SWD-WORK-169", "source_id": "271", "work_status": "Work Completed", "size_text": "[ 3354*1830,C ]", "height_m": 3.354, "width_m": 1.83, "sec_w_m": 1.83, "sec_h_m": 3.35, "depth_crown_m": -1.05, "depth_invert_m": -4.4}}, {"type": "Feature", "geometry": {"type": "LineString", "coordinates": [[77.0316569, 28.5108981], [77.0311076, 28.5109077], [77.0293623, 28.5108101]]}, "properties": {"line_id": "SWD-WORK-170", "source_id": "254", "work_status": "Work Completed", "size_text": "[ 2200*6000,C ]", "height_m": 0.0, "width_m": 0.0, "sec_w_m": 0.6, "sec_h_m": 0.6, "depth_crown_m": -1.05, "depth_invert_m": -1.65}}, {"type": "Feature", "geometry": {"type": "LineString", "coordinates": [[77.0293623, 28.5108101], [77.028935, 28.5109446], [77.0288511, 28.5109879], [77.0284935, 28.5111726], [77.0283621, 28.5112162], [77.0279676, 28.5113358], [77.0277833, 28.5113127], [77.0275084, 28.511319], [77.0271418, 28.5113852], [77.02599, 28.5114558], [77.0256811, 28.5115864], [77.0245321, 28.5148682], [77.0239385, 28.5168493], [77.0237489, 28.5175331]]}, "properties": {"line_id": "SWD-WORK-171", "source_id": "251", "work_status": "Work Completed", "size_text": "[2(N)*3300*2000,C ]", "height_m": 3.3, "width_m": 2.0, "sec_w_m": 2.0, "sec_h_m": 3.3, "depth_crown_m": -1.05, "depth_invert_m": -4.35}}, {"type": "Feature", "geometry": {"type": "LineString", "coordinates": [[77.0325998, 28.5161963], [77.0258869, 28.5209195]]}, "properties": {"line_id": "SWD-WORK-172", "source_id": "225", "work_status": "Work Completed", "size_text": "[ 1200*900 ,C]", "height_m": 1.2, "width_m": 0.9, "sec_w_m": 0.9, "sec_h_m": 1.2, "depth_crown_m": -1.05, "depth_invert_m": -2.25}}, {"type": "Feature", "geometry": {"type": "LineString", "coordinates": [[77.0329037, 28.5292539], [77.0297835, 28.5254437], [77.0287847, 28.5242645], [77.0276278, 28.5229086], [77.025859, 28.5208876], [77.0235462, 28.5181586]]}, "properties": {"line_id": "SWD-WORK-173", "source_id": "104", "work_status": "Work in progress", "size_text": "[ 1200*900 ,C]", "height_m": 1.2, "width_m": 0.9, "sec_w_m": 0.9, "sec_h_m": 1.2, "depth_crown_m": -1.05, "depth_invert_m": -2.25}}, {"type": "Feature", "geometry": {"type": "LineString", "coordinates": [[77.0321321, 28.5296877], [77.0232857, 28.5191388]]}, "properties": {"line_id": "SWD-WORK-174", "source_id": "172", "work_status": "Work Completed", "size_text": "[ 1200*900 ,C]", "height_m": 1.2, "width_m": 0.9, "sec_w_m": 0.9, "sec_h_m": 1.2, "depth_crown_m": -1.05, "depth_invert_m": -2.25}}, {"type": "Feature", "geometry": {"type": "LineString", "coordinates": [[77.0207636, 28.528264], [77.0184608, 28.5352628]]}, "properties": {"line_id": "SWD-WORK-175", "source_id": "146", "work_status": "Work in progress", "size_text": "[ 1200*900 ,C]", "height_m": 1.2, "width_m": 0.9, "sec_w_m": 0.9, "sec_h_m": 1.2, "depth_crown_m": -1.05, "depth_invert_m": -2.25}}, {"type": "Feature", "geometry": {"type": "LineString", "coordinates": [[77.0142048, 28.5172922], [77.01841, 28.5134506], [77.0183426, 28.5133723]]}, "properties": {"line_id": "SWD-WORK-176", "source_id": "194", "work_status": "Work in progress", "size_text": "[ 1200*900 ,C]", "height_m": 1.2, "width_m": 0.9, "sec_w_m": 0.9, "sec_h_m": 1.2, "depth_crown_m": -1.05, "depth_invert_m": -2.25}}, {"type": "Feature", "geometry": {"type": "LineString", "coordinates": [[76.9970172, 28.5174105], [76.9961869, 28.5166384], [76.9958677, 28.5163415], [76.995028, 28.5155606]]}, "properties": {"line_id": "SWD-WORK-177", "source_id": "99", "work_status": "Work in progress", "size_text": "[ 1200*900 ,C]", "height_m": 1.2, "width_m": 0.9, "sec_w_m": 0.9, "sec_h_m": 1.2, "depth_crown_m": -1.05, "depth_invert_m": -2.25}}, {"type": "Feature", "geometry": {"type": "LineString", "coordinates": [[77.0237489, 28.5175331], [77.0235462, 28.5181586], [77.0228994, 28.5205929], [77.0223337, 28.5221992], [77.0205721, 28.5222009], [77.0205337, 28.5225029], [77.0195726, 28.522565], [77.0186319, 28.5225694], [77.016245, 28.5227099], [77.0152663, 28.5236798], [77.0143354, 28.5244814], [77.0130841, 28.5248962], [77.0124038, 28.5251218], [77.011417, 28.5254236], [77.0109646, 28.525554], [77.0106002, 28.5256589], [77.0101364, 28.5258287], [77.0085694, 28.5269066], [77.0067483, 28.5279784], [77.004326, 28.5293024]]}, "properties": {"line_id": "SWD-WORK-178", "source_id": "252", "work_status": "Work Completed", "size_text": "[ 2(N)*3600*2000 ,C]", "height_m": 3.6, "width_m": 2.0, "sec_w_m": 2.0, "sec_h_m": 3.6, "depth_crown_m": -1.05, "depth_invert_m": -4.65}}, {"type": "Feature", "geometry": {"type": "LineString", "coordinates": [[77.004326, 28.5293024], [77.0033168, 28.5299119], [77.0009464, 28.531385]]}, "properties": {"line_id": "SWD-WORK-179", "source_id": "145", "work_status": "Work in progress", "size_text": "[ 2(N)*3900*2000 ,C]", "height_m": 2.0, "width_m": 3.9, "sec_w_m": 3.9, "sec_h_m": 2.0, "depth_crown_m": -1.05, "depth_invert_m": -3.05}}, {"type": "Feature", "geometry": {"type": "LineString", "coordinates": [[77.0184608, 28.5352628], [77.0106002, 28.5256589]]}, "properties": {"line_id": "SWD-WORK-180", "source_id": "94", "work_status": "Work in progress", "size_text": "[ 1500*1500 ,C]", "height_m": 1.5, "width_m": 1.5, "sec_w_m": 1.5, "sec_h_m": 1.5, "depth_crown_m": -1.05, "depth_invert_m": -2.55}}, {"type": "Feature", "geometry": {"type": "LineString", "coordinates": [[77.0125545, 28.5403758], [77.0124191, 28.5393009], [77.0129377, 28.5385941], [77.0099509, 28.5357505], [77.0081598, 28.5330037], [77.004326, 28.5293024]]}, "properties": {"line_id": "SWD-WORK-181", "source_id": "93", "work_status": "Work in progress", "size_text": "[ 1200*900 ,C]", "height_m": 1.2, "width_m": 0.9, "sec_w_m": 0.9, "sec_h_m": 1.2, "depth_crown_m": -1.05, "depth_invert_m": -2.25}}, {"type": "Feature", "geometry": {"type": "LineString", "coordinates": [[77.0152664, 28.5404369], [77.0171857, 28.538981], [77.0184608, 28.5352628]]}, "properties": {"line_id": "SWD-WORK-182", "source_id": "141", "work_status": "Work in progress", "size_text": "[ 1200*900 ,C]", "height_m": 1.2, "width_m": 0.9, "sec_w_m": 0.9, "sec_h_m": 1.2, "depth_crown_m": -1.05, "depth_invert_m": -2.25}}]}