{"type": "FeatureCollection", "features": [{"type": "Feature", "geometry": {"type": "Point", "coordinates": [77.041417, 28.4406197]}, "properties": {"rank": 1.0, "onset_min": 236.8, "peak_min": 236.8, "peak_fill_ratio": 5516.168848621439, "peak_storage_depth_m": 2.1048126220703125, "peak_volume_m3": 21102.2, "peak_cumulative_backflow_m3": 21102.2, "storage_capacity_m3": 3.825517416000366, "receiver_persistence_min": 537.7, "receiver_max_depth_m": 0.809, "kind": "manhole"}}, {"type": "Feature", "geometry": {"type": "Point", "coordinates": [76.9896288, 28.4210451]}, "properties": {"rank": 2.0, "onset_min": 31.3, "peak_min": 31.3, "peak_fill_ratio": 390.2324433664531, "peak_storage_depth_m": 3.1128997802734375, "peak_volume_m3": 11371.1, "peak_cumulative_backflow_m3": 11371.1, "storage_capacity_m3": 29.139299392700195, "receiver_persistence_min": 695.7, "receiver_max_depth_m": 0.77, "kind": "manhole"}}, {"type": "Feature", "geometry": {"type": "Point", "coordinates": [77.0425374, 28.5107652]}, "properties": {"rank": 3.0, "onset_min": 2.8, "peak_min": 2.8, "peak_fill_ratio": 889.289120447908, "peak_storage_depth_m": 0.7620000243186951, "peak_volume_m3": 10087.1, "peak_cumulative_backflow_m3": 10087.1, "storage_capacity_m3": 11.342880249023438, "receiver_persistence_min": 522.2, "receiver_max_depth_m": 0.488, "kind": "manhole"}}, {"type": "Feature", "geometry": {"type": "Point", "coordinates": [77.0535962, 28.5094976]}, "properties": {"rank": 4.0, "onset_min": 0.7, "peak_min": 0.7, "peak_fill_ratio": 21442.944886066754, "peak_storage_depth_m": 2.437999963760376, "peak_volume_m3": 6736.5, "peak_cumulative_backflow_m3": 6736.5, "storage_capacity_m3": 0.3141592741012573, "receiver_persistence_min": 269.5, "receiver_max_depth_m": 0.698, "kind": "manhole"}}, {"type": "Feature", "geometry": {"type": "Point", "coordinates": [77.0383499, 28.5189132]}, "properties": {"rank": 5.0, "onset_min": 6.1, "peak_min": 6.1, "peak_fill_ratio": 576.632500138589, "peak_storage_depth_m": 0.6100000143051147, "peak_volume_m3": 8441.9, "peak_cumulative_backflow_m3": 8441.9, "storage_capacity_m3": 14.640000343322754, "receiver_persistence_min": 717.0, "receiver_max_depth_m": 0.551, "kind": "manhole"}}, {"type": "Feature", "geometry": {"type": "Point", "coordinates": [77.0380016, 28.4459136]}, "properties": {"rank": 6.0, "onset_min": 123.3, "peak_min": 123.3, "peak_fill_ratio": 821.5290331279259, "peak_storage_depth_m": 1.2677001953125, "peak_volume_m3": 4703.9, "peak_cumulative_backflow_m3": 4703.9, "storage_capacity_m3": 5.7257866859436035, "receiver_persistence_min": 670.2, "receiver_max_depth_m": 0.665, "kind": "manhole"}}, {"type": "Feature", "geometry": {"type": "Point", "coordinates": [77.0553192, 28.4495083]}, "properties": {"rank": 7.0, "onset_min": 141.0, "peak_min": 141.0, "peak_fill_ratio": 966.1174526137024, "peak_storage_depth_m": 0.654327392578125, "peak_volume_m3": 3781.7, "peak_cumulative_backflow_m3": 3781.7, "storage_capacity_m3": 3.914327383041382, "receiver_persistence_min": 651.1, "receiver_max_depth_m": 0.789, "kind": "manhole"}}, {"type": "Feature", "geometry": {"type": "Point", "coordinates": [77.0559138, 28.4891824]}, "properties": {"rank": 8.0, "onset_min": 8.3, "peak_min": 8.3, "peak_fill_ratio": 4.061080433895765, "peak_storage_depth_m": 0.8999999761581421, "peak_volume_m3": 6908.4, "peak_cumulative_backflow_m3": 6908.4, "storage_capacity_m3": 1701.1236572265625, "receiver_persistence_min": 717.3, "receiver_max_depth_m": 0.494, "kind": "manhole"}}, {"type": "Feature", "geometry": {"type": "Point", "coordinates": [77.143718, 28.4256647]}, "properties": {"rank": 9.0, "onset_min": 192.2, "peak_min": 192.2, "peak_fill_ratio": 390.32836962076294, "peak_storage_depth_m": 2.17327880859375, "peak_volume_m3": 2852.2, "peak_cumulative_backflow_m3": 2852.2, "storage_capacity_m3": 7.307180881500244, "receiver_persistence_min": 698.3, "receiver_max_depth_m": 1.165, "kind": "manhole"}}, {"type": "Feature", "geometry": {"type": "Point", "coordinates": [77.0761202, 28.424617]}, "properties": {"rank": 10.0, "onset_min": 10.4, "peak_min": 10.4, "peak_fill_ratio": 206.81872100664694, "peak_storage_depth_m": 1.3683319091796875, "peak_volume_m3": 3782.9, "peak_cumulative_backflow_m3": 3782.9, "storage_capacity_m3": 18.290897369384766, "receiver_persistence_min": 714.6, "receiver_max_depth_m": 0.552, "kind": "manhole"}}, {"type": "Feature", "geometry": {"type": "Point", "coordinates": [77.0595958, 28.5112024]}, "properties": {"rank": 11.0, "onset_min": 497.6, "peak_min": 497.6, "peak_fill_ratio": 447.7592969882204, "peak_storage_depth_m": 0.7620000243186951, "peak_volume_m3": 2333.5, "peak_cumulative_backflow_m3": 2333.5, "storage_capacity_m3": 5.21150541305542, "receiver_persistence_min": 498.4, "receiver_max_depth_m": 1.028, "kind": "manhole"}}, {"type": "Feature", "geometry": {"type": "Point", "coordinates": [77.0779277, 28.4498258]}, "properties": {"rank": 12.0, "onset_min": 6.3, "peak_min": 6.3, "peak_fill_ratio": 72.53202180520778, "peak_storage_depth_m": 1.115631103515625, "peak_volume_m3": 1857.4, "peak_cumulative_backflow_m3": 1857.4, "storage_capacity_m3": 25.607999801635742, "receiver_persistence_min": 713.9, "receiver_max_depth_m": 0.585, "kind": "manhole"}}, {"type": "Feature", "geometry": {"type": "Point", "coordinates": [77.0584369, 28.4278228]}, "properties": {"rank": 13.0, "onset_min": 485.5, "peak_min": 485.5, "peak_fill_ratio": 11.761561343041928, "peak_storage_depth_m": 1.490478515625, "peak_volume_m3": 3178.6, "peak_cumulative_backflow_m3": 3178.6, "storage_capacity_m3": 270.25323486328125, "receiver_persistence_min": 394.5, "receiver_max_depth_m": 0.513, "kind": "manhole"}}, {"type": "Feature", "geometry": {"type": "Point", "coordinates": [77.073091, 28.4680141]}, "properties": {"rank": 14.0, "onset_min": 12.6, "peak_min": 12.6, "peak_fill_ratio": 21.900054938462876, "peak_storage_depth_m": 1.0772857666015625, "peak_volume_m3": 12600.7, "peak_cumulative_backflow_m3": 12600.7, "storage_capacity_m3": 575.3729858398438, "receiver_persistence_min": 404.4, "receiver_max_depth_m": 0.305, "kind": "manhole"}}, {"type": "Feature", "geometry": {"type": "Point", "coordinates": [76.9964745, 28.4271893]}, "properties": {"rank": 15.0, "onset_min": 3.1, "peak_min": 3.1, "peak_fill_ratio": 1.1758749824603343, "peak_storage_depth_m": 3.049999952316284, "peak_volume_m3": 5524.0, "peak_cumulative_backflow_m3": 5524.0, "storage_capacity_m3": 4697.7783203125, "receiver_persistence_min": 94.9, "receiver_max_depth_m": 0.56, "kind": "manhole"}}, {"type": "Feature", "geometry": {"type": "Point", "coordinates": [77.0256362, 28.4507093]}, "properties": {"rank": 16.0, "onset_min": 297.6, "peak_min": 297.6, "peak_fill_ratio": 302.85152422804754, "peak_storage_depth_m": 0.817657470703125, "peak_volume_m3": 1268.2, "peak_cumulative_backflow_m3": 1268.2, "storage_capacity_m3": 4.187530517578125, "receiver_persistence_min": 656.9, "receiver_max_depth_m": 0.705, "kind": "manhole"}}, {"type": "Feature", "geometry": {"type": "Point", "coordinates": [77.0419017, 28.4298743]}, "properties": {"rank": 17.0, "onset_min": 481.2, "peak_min": 481.2, "peak_fill_ratio": 1401.78392808888, "peak_storage_depth_m": 1.214324951171875, "peak_volume_m3": 2733.9, "peak_cumulative_backflow_m3": 2733.9, "storage_capacity_m3": 1.9503005743026733, "receiver_persistence_min": 526.4, "receiver_max_depth_m": 0.477, "kind": "manhole"}}, {"type": "Feature", "geometry": {"type": "Point", "coordinates": [77.0494197, 28.4067603]}, "properties": {"rank": 18.0, "onset_min": 489.7, "peak_min": 489.7, "peak_fill_ratio": 615.5753764553366, "peak_storage_depth_m": 0.5, "peak_volume_m3": 1050.7, "peak_cumulative_backflow_m3": 1050.7, "storage_capacity_m3": 1.7068583965301514, "receiver_persistence_min": 647.5, "receiver_max_depth_m": 0.729, "kind": "manhole"}}, {"type": "Feature", "geometry": {"type": "Point", "coordinates": [77.0298498, 28.5090763]}, "properties": {"rank": 19.0, "onset_min": 165.3, "peak_min": 165.3, "peak_fill_ratio": 997.3709910056526, "peak_storage_depth_m": 0.41400146484375, "peak_volume_m3": 1410.0, "peak_cumulative_backflow_m3": 1410.0, "storage_capacity_m3": 1.4137166738510132, "receiver_persistence_min": 686.2, "receiver_max_depth_m": 0.542, "kind": "manhole"}}, {"type": "Feature", "geometry": {"type": "Point", "coordinates": [77.0763171, 28.4131023]}, "properties": {"rank": 20.0, "onset_min": 123.4, "peak_min": 123.4, "peak_fill_ratio": 1245.8496954926493, "peak_storage_depth_m": 0.725738525390625, "peak_volume_m3": 2998.7, "peak_cumulative_backflow_m3": 2998.7, "storage_capacity_m3": 2.406951665878296, "receiver_persistence_min": 589.3, "receiver_max_depth_m": 0.44, "kind": "manhole"}}, {"type": "Feature", "geometry": {"type": "Point", "coordinates": [77.0779034, 28.4146324]}, "properties": {"rank": 21.0, "onset_min": 33.1, "peak_min": 33.1, "peak_fill_ratio": 995.3618846366649, "peak_storage_depth_m": 2.338531494140625, "peak_volume_m3": 3916.0, "peak_cumulative_backflow_m3": 3916.0, "storage_capacity_m3": 3.9342474937438965, "receiver_persistence_min": 390.6, "receiver_max_depth_m": 0.402, "kind": "manhole"}}, {"type": "Feature", "geometry": {"type": "Point", "coordinates": [77.0172404, 28.4799691]}, "properties": {"rank": 22.0, "onset_min": 32.4, "peak_min": 32.4, "peak_fill_ratio": 1449.689532793601, "peak_storage_depth_m": 0.5, "peak_volume_m3": 4045.1, "peak_cumulative_backflow_m3": 4045.1, "storage_capacity_m3": 2.7903215885162354, "receiver_persistence_min": 699.3, "receiver_max_depth_m": 0.391, "kind": "manhole"}}, {"type": "Feature", "geometry": {"type": "Point", "coordinates": [77.0715962, 28.4781138]}, "properties": {"rank": 23.0, "onset_min": 48.8, "peak_min": 48.8, "peak_fill_ratio": 6.39344343655482, "peak_storage_depth_m": 0.8999999761581421, "peak_volume_m3": 4604.4, "peak_cumulative_backflow_m3": 4604.4, "storage_capacity_m3": 720.17529296875, "receiver_persistence_min": 709.6, "receiver_max_depth_m": 0.339, "kind": "manhole"}}, {"type": "Feature", "geometry": {"type": "Point", "coordinates": [76.9038583, 28.5301732]}, "properties": {"rank": 24.0, "onset_min": 598.3, "peak_min": 598.3, "peak_fill_ratio": 0.0631192807084598, "peak_storage_depth_m": 1.375, "peak_volume_m3": 1074.4, "peak_cumulative_backflow_m3": 1074.4, "storage_capacity_m3": 17021.740234375, "receiver_persistence_min": 291.2, "receiver_max_depth_m": 1.412, "kind": "manhole"}}, {"type": "Feature", "geometry": {"type": "Point", "coordinates": [77.0284312, 28.5027404]}, "properties": {"rank": 25.0, "onset_min": 266.9, "peak_min": 266.9, "peak_fill_ratio": 444.21917387757634, "peak_storage_depth_m": 0.30000001192092896, "peak_volume_m3": 628.0, "peak_cumulative_backflow_m3": 628.0, "storage_capacity_m3": 1.4137165546417236, "receiver_persistence_min": 548.5, "receiver_max_depth_m": 0.622, "kind": "manhole"}}, {"type": "Feature", "geometry": {"type": "Point", "coordinates": [77.0402519, 28.4414177]}, "properties": {"rank": 26.0, "onset_min": 474.4, "peak_min": 474.4, "peak_fill_ratio": 6.37640343388451, "peak_storage_depth_m": 1.310302734375, "peak_volume_m3": 3057.3, "peak_cumulative_backflow_m3": 3057.3, "storage_capacity_m3": 479.4709167480469, "receiver_persistence_min": 282.6, "receiver_max_depth_m": 0.463, "kind": "manhole"}}, {"type": "Feature", "geometry": {"type": "Point", "coordinates": [77.0375327, 28.4462522]}, "properties": {"rank": 27.0, "onset_min": 292.1, "peak_min": 292.1, "peak_fill_ratio": 386.0729272181641, "peak_storage_depth_m": 1.2621917724609375, "peak_volume_m3": 1400.5, "peak_cumulative_backflow_m3": 1400.5, "storage_capacity_m3": 3.6275529861450195, "receiver_persistence_min": 536.2, "receiver_max_depth_m": 0.483, "kind": "manhole"}}, {"type": "Feature", "geometry": {"type": "Point", "coordinates": [77.0199652, 28.4314357]}, "properties": {"rank": 28.0, "onset_min": 348.2, "peak_min": 348.2, "peak_fill_ratio": 88.98773715541586, "peak_storage_depth_m": 1.0688934326171875, "peak_volume_m3": 1486.8, "peak_cumulative_backflow_m3": 1486.8, "storage_capacity_m3": 16.70792007446289, "receiver_persistence_min": 571.2, "receiver_max_depth_m": 0.468, "kind": "manhole"}}, {"type": "Feature", "geometry": {"type": "Point", "coordinates": [77.0660306, 28.4346806]}, "properties": {"rank": 29.0, "onset_min": 523.9, "peak_min": 523.9, "peak_fill_ratio": 315.41487677254514, "peak_storage_depth_m": 1.8520965576171875, "peak_volume_m3": 1332.6, "peak_cumulative_backflow_m3": 1332.6, "storage_capacity_m3": 4.224911689758301, "receiver_persistence_min": 464.7, "receiver_max_depth_m": 0.477, "kind": "manhole"}}, {"type": "Feature", "geometry": {"type": "Point", "coordinates": [77.0305117, 28.506903]}, "properties": {"rank": 30.0, "onset_min": 515.2, "peak_min": 515.2, "peak_fill_ratio": 368.67362010349177, "peak_storage_depth_m": 0.30000001192092896, "peak_volume_m3": 521.2, "peak_cumulative_backflow_m3": 521.2, "storage_capacity_m3": 1.4137165546417236, "receiver_persistence_min": 492.8, "receiver_max_depth_m": 0.66, "kind": "manhole"}}, {"type": "Feature", "geometry": {"type": "Point", "coordinates": [77.016227, 28.4797111]}, "properties": {"rank": 31.0, "onset_min": 43.5, "peak_min": 43.5, "peak_fill_ratio": 962.1313929525351, "peak_storage_depth_m": 0.656982421875, "peak_volume_m3": 2418.1, "peak_cumulative_backflow_m3": 2418.1, "storage_capacity_m3": 2.5132741928100586, "receiver_persistence_min": 700.1, "receiver_max_depth_m": 0.378, "kind": "manhole"}}, {"type": "Feature", "geometry": {"type": "Point", "coordinates": [77.0150428, 28.4958629]}, "properties": {"rank": 32.0, "onset_min": 104.8, "peak_min": 104.8, "peak_fill_ratio": 1490.1147018812112, "peak_storage_depth_m": 1.118499755859375, "peak_volume_m3": 1053.3, "peak_cumulative_backflow_m3": 1053.3, "storage_capacity_m3": 0.7068583369255066, "receiver_persistence_min": 682.4, "receiver_max_depth_m": 0.487, "kind": "manhole"}}, {"type": "Feature", "geometry": {"type": "Point", "coordinates": [77.0722176, 28.421234]}, "properties": {"rank": 33.0, "onset_min": 491.6, "peak_min": 491.6, "peak_fill_ratio": 736.4651977681906, "peak_storage_depth_m": 2.06573486328125, "peak_volume_m3": 1749.6, "peak_cumulative_backflow_m3": 1749.6, "storage_capacity_m3": 2.3756723403930664, "receiver_persistence_min": 641.8, "receiver_max_depth_m": 0.417, "kind": "manhole"}}, {"type": "Feature", "geometry": {"type": "Point", "coordinates": [77.051281, 28.4807116]}, "properties": {"rank": 34.0, "onset_min": 89.8, "peak_min": 89.8, "peak_fill_ratio": 728.551257543257, "peak_storage_depth_m": 2.0157928466796875, "peak_volume_m3": 1522.3, "peak_cumulative_backflow_m3": 1522.3, "storage_capacity_m3": 2.089489221572876, "receiver_persistence_min": 473.1, "receiver_max_depth_m": 0.412, "kind": "manhole"}}, {"type": "Feature", "geometry": {"type": "Point", "coordinates": [77.0407214, 28.4419092]}, "properties": {"rank": 35.0, "onset_min": 507.0, "peak_min": 507.0, "peak_fill_ratio": 348.72616919559346, "peak_storage_depth_m": 1.3213653564453125, "peak_volume_m3": 493.0, "peak_cumulative_backflow_m3": 493.0, "storage_capacity_m3": 1.4137166738510132, "receiver_persistence_min": 407.9, "receiver_max_depth_m": 0.562, "kind": "manhole"}}, {"type": "Feature", "geometry": {"type": "Point", "coordinates": [77.0343666, 28.4734763]}, "properties": {"rank": 36.0, "onset_min": 505.6, "peak_min": 505.6, "peak_fill_ratio": 226.79382165655224, "peak_storage_depth_m": 3.118255615234375, "peak_volume_m3": 360.7, "peak_cumulative_backflow_m3": 360.7, "storage_capacity_m3": 1.5904313325881958, "receiver_persistence_min": 694.2, "receiver_max_depth_m": 0.627, "kind": "manhole"}}, {"type": "Feature", "geometry": {"type": "Point", "coordinates": [77.0804616, 28.4144151]}, "properties": {"rank": 37.0, "onset_min": 1.4, "peak_min": 1.4, "peak_fill_ratio": 54.19652832671876, "peak_storage_depth_m": 2.119999885559082, "peak_volume_m3": 7681.0, "peak_cumulative_backflow_m3": 7681.0, "storage_capacity_m3": 141.72494506835938, "receiver_persistence_min": 99.6, "receiver_max_depth_m": 0.4, "kind": "manhole"}}, {"type": "Feature", "geometry": {"type": "Point", "coordinates": [77.0435391, 28.4796507]}, "properties": {"rank": 38.0, "onset_min": 554.4, "peak_min": 554.4, "peak_fill_ratio": 368.26670391264173, "peak_storage_depth_m": 1.42205810546875, "peak_volume_m3": 332.7, "peak_cumulative_backflow_m3": 332.7, "storage_capacity_m3": 0.9034213423728943, "receiver_persistence_min": 380.1, "receiver_max_depth_m": 0.629, "kind": "manhole"}}, {"type": "Feature", "geometry": {"type": "Point", "coordinates": [77.0986983, 28.48133]}, "properties": {"rank": 39.0, "onset_min": 492.6, "peak_min": 492.6, "peak_fill_ratio": 352.34113603637064, "peak_storage_depth_m": 0.724395751953125, "peak_volume_m3": 539.8, "peak_cumulative_backflow_m3": 539.8, "storage_capacity_m3": 1.5320379734039307, "receiver_persistence_min": 295.5, "receiver_max_depth_m": 1.007, "kind": "manhole"}}, {"type": "Feature", "geometry": {"type": "Point", "coordinates": [77.0557984, 28.5071047]}, "properties": {"rank": 40.0, "onset_min": 519.4, "peak_min": 519.4, "peak_fill_ratio": 55.574016743828125, "peak_storage_depth_m": 1.0361328125, "peak_volume_m3": 448.5, "peak_cumulative_backflow_m3": 448.5, "storage_capacity_m3": 8.070318222045898, "receiver_persistence_min": 616.8, "receiver_max_depth_m": 0.555, "kind": "manhole"}}, {"type": "Feature", "geometry": {"type": "Point", "coordinates": [77.0655403, 28.4348595]}, "properties": {"rank": 41.0, "onset_min": 535.0, "peak_min": 535.0, "peak_fill_ratio": 342.88397096852384, "peak_storage_depth_m": 1.9313201904296875, "peak_volume_m3": 773.0, "peak_cumulative_backflow_m3": 773.0, "storage_capacity_m3": 2.2544069290161133, "receiver_persistence_min": 496.8, "receiver_max_depth_m": 0.481, "kind": "manhole"}}, {"type": "Feature", "geometry": {"type": "Point", "coordinates": [77.0423888, 28.4301603]}, "properties": {"rank": 42.0, "onset_min": 511.0, "peak_min": 511.0, "peak_fill_ratio": 475.63453419439253, "peak_storage_depth_m": 1.5658416748046875, "peak_volume_m3": 1195.4, "peak_cumulative_backflow_m3": 1195.4, "storage_capacity_m3": 2.5132741928100586, "receiver_persistence_min": 628.3, "receiver_max_depth_m": 0.425, "kind": "manhole"}}, {"type": "Feature", "geometry": {"type": "Point", "coordinates": [77.0149233, 28.4864147]}, "properties": {"rank": 43.0, "onset_min": 469.2, "peak_min": 469.2, "peak_fill_ratio": 1103.2620348119556, "peak_storage_depth_m": 1.3689117431640625, "peak_volume_m3": 346.6, "peak_cumulative_backflow_m3": 346.6, "storage_capacity_m3": 0.3141592741012573, "receiver_persistence_min": 653.3, "receiver_max_depth_m": 0.588, "kind": "manhole"}}, {"type": "Feature", "geometry": {"type": "Point", "coordinates": [77.0390246, 28.4294212]}, "properties": {"rank": 44.0, "onset_min": 464.6, "peak_min": 464.6, "peak_fill_ratio": 482.95566137289075, "peak_storage_depth_m": 1.6098175048828125, "peak_volume_m3": 1213.8, "peak_cumulative_backflow_m3": 1213.8, "storage_capacity_m3": 2.5132741928100586, "receiver_persistence_min": 548.4, "receiver_max_depth_m": 0.4, "kind": "manhole"}}, {"type": "Feature", "geometry": {"type": "Point", "coordinates": [77.1013169, 28.4193712]}, "properties": {"rank": 45.0, "onset_min": 227.3, "peak_min": 227.3, "peak_fill_ratio": 622.0539607571907, "peak_storage_depth_m": 2.986236572265625, "peak_volume_m3": 610.7, "peak_cumulative_backflow_m3": 610.7, "storage_capacity_m3": 0.9817476272583008, "receiver_persistence_min": 284.0, "receiver_max_depth_m": 0.558, "kind": "manhole"}}, {"type": "Feature", "geometry": {"type": "Point", "coordinates": [77.0305383, 28.5088878]}, "properties": {"rank": 46.0, "onset_min": 492.5, "peak_min": 492.5, "peak_fill_ratio": 383.59878611515273, "peak_storage_depth_m": 0.5366363525390625, "peak_volume_m3": 542.3, "peak_cumulative_backflow_m3": 542.3, "storage_capacity_m3": 1.4137166738510132, "receiver_persistence_min": 582.1, "receiver_max_depth_m": 0.502, "kind": "manhole"}}, {"type": "Feature", "geometry": {"type": "Point", "coordinates": [77.0589214, 28.4065109]}, "properties": {"rank": 47.0, "onset_min": 616.4, "peak_min": 616.4, "peak_fill_ratio": 0.030197780781855733, "peak_storage_depth_m": 2.5, "peak_volume_m3": 188.0, "peak_cumulative_backflow_m3": 188.0, "storage_capacity_m3": 6225.623046875, "receiver_persistence_min": 718.7, "receiver_max_depth_m": 0.522, "kind": "manhole"}}, {"type": "Feature", "geometry": {"type": "Point", "coordinates": [77.0486077, 28.5160631]}, "properties": {"rank": 48.0, "onset_min": 528.1, "peak_min": 528.1, "peak_fill_ratio": 59.953769244390465, "peak_storage_depth_m": 0.952423095703125, "peak_volume_m3": 509.2, "peak_cumulative_backflow_m3": 509.2, "storage_capacity_m3": 8.493210792541504, "receiver_persistence_min": 267.7, "receiver_max_depth_m": 0.858, "kind": "manhole"}}, {"type": "Feature", "geometry": {"type": "Point", "coordinates": [77.0472489, 28.4496007]}, "properties": {"rank": 49.0, "onset_min": 526.5, "peak_min": 526.5, "peak_fill_ratio": 105.73736318133565, "peak_storage_depth_m": 1.5757293701171875, "peak_volume_m3": 332.3, "peak_cumulative_backflow_m3": 332.3, "storage_capacity_m3": 3.1426923274993896, "receiver_persistence_min": 551.7, "receiver_max_depth_m": 0.565, "kind": "manhole"}}, {"type": "Feature", "geometry": {"type": "Point", "coordinates": [77.1004774, 28.4622159]}, "properties": {"rank": 50.0, "onset_min": 586.5, "peak_min": 586.5, "peak_fill_ratio": 124.20581239475159, "peak_storage_depth_m": 1.6046142578125, "peak_volume_m3": 239.0, "peak_cumulative_backflow_m3": 239.0, "storage_capacity_m3": 1.9242255687713623, "receiver_persistence_min": 617.1, "receiver_max_depth_m": 0.832, "kind": "manhole"}}, {"type": "Feature", "geometry": {"type": "Point", "coordinates": [77.0341114, 28.5046429]}, "properties": {"rank": 51.0, "onset_min": 532.7, "peak_min": 532.7, "peak_fill_ratio": 274.17091922963897, "peak_storage_depth_m": 0.3598785400390625, "peak_volume_m3": 387.6, "peak_cumulative_backflow_m3": 387.6, "storage_capacity_m3": 1.4137166738510132, "receiver_persistence_min": 654.2, "receiver_max_depth_m": 0.534, "kind": "manhole"}}, {"type": "Feature", "geometry": {"type": "Point", "coordinates": [77.0390481, 28.4372668]}, "properties": {"rank": 52.0, "onset_min": 359.1, "peak_min": 359.1, "peak_fill_ratio": 481.40390072092646, "peak_storage_depth_m": 0.98834228515625, "peak_volume_m3": 1209.9, "peak_cumulative_backflow_m3": 1209.9, "storage_capacity_m3": 2.5132741928100586, "receiver_persistence_min": 528.4, "receiver_max_depth_m": 0.378, "kind": "manhole"}}, {"type": "Feature", "geometry": {"type": "Point", "coordinates": [77.1002962, 28.4252499]}, "properties": {"rank": 53.0, "onset_min": 595.6, "peak_min": 595.6, "peak_fill_ratio": 705.3746881544412, "peak_storage_depth_m": 2.021759033203125, "peak_volume_m3": 221.6, "peak_cumulative_backflow_m3": 221.6, "storage_capacity_m3": 0.3141592741012573, "receiver_persistence_min": 390.0, "receiver_max_depth_m": 0.892, "kind": "manhole"}}, {"type": "Feature", "geometry": {"type": "Point", "coordinates": [77.1014129, 28.413958]}, "properties": {"rank": 54.0, "onset_min": 3.3, "peak_min": 3.3, "peak_fill_ratio": 58.1078695422058, "peak_storage_depth_m": 1.2000000476837158, "peak_volume_m3": 1055.2, "peak_cumulative_backflow_m3": 1055.2, "storage_capacity_m3": 18.159330368041992, "receiver_persistence_min": 208.0, "receiver_max_depth_m": 0.538, "kind": "manhole"}}, {"type": "Feature", "geometry": {"type": "Point", "coordinates": [77.0290976, 28.5015032]}, "properties": {"rank": 55.0, "onset_min": 467.7, "peak_min": 467.7, "peak_fill_ratio": 63.43369880684892, "peak_storage_depth_m": 1.228973388671875, "peak_volume_m3": 1885.2, "peak_cumulative_backflow_m3": 1885.2, "storage_capacity_m3": 29.719219207763672, "receiver_persistence_min": 664.5, "receiver_max_depth_m": 0.314, "kind": "manhole"}}, {"type": "Feature", "geometry": {"type": "Point", "coordinates": [77.0820407, 28.4402725]}, "properties": {"rank": 56.0, "onset_min": 183.0, "peak_min": 183.0, "peak_fill_ratio": 1897.4451787403539, "peak_storage_depth_m": 1.3701324462890625, "peak_volume_m3": 596.1, "peak_cumulative_backflow_m3": 596.1, "storage_capacity_m3": 0.3141592741012573, "receiver_persistence_min": 280.9, "receiver_max_depth_m": 0.534, "kind": "manhole"}}, {"type": "Feature", "geometry": {"type": "Point", "coordinates": [77.0998463, 28.4244673]}, "properties": {"rank": 57.0, "onset_min": 604.0, "peak_min": 604.0, "peak_fill_ratio": 135.24633580161756, "peak_storage_depth_m": 4.529266357421875, "peak_volume_m3": 191.2, "peak_cumulative_backflow_m3": 191.2, "storage_capacity_m3": 1.4137166738510132, "receiver_persistence_min": 418.9, "receiver_max_depth_m": 0.684, "kind": "manhole"}}, {"type": "Feature", "geometry": {"type": "Point", "coordinates": [77.0810266, 28.4396744]}, "properties": {"rank": 58.0, "onset_min": 586.8, "peak_min": 586.8, "peak_fill_ratio": 315.9225532460663, "peak_storage_depth_m": 1.4365081787109375, "peak_volume_m3": 198.5, "peak_cumulative_backflow_m3": 198.5, "storage_capacity_m3": 0.6283185482025146, "receiver_persistence_min": 594.8, "receiver_max_depth_m": 0.664, "kind": "manhole"}}, {"type": "Feature", "geometry": {"type": "Point", "coordinates": [77.0828987, 28.4419896]}, "properties": {"rank": 59.0, "onset_min": 362.0, "peak_min": 362.0, "peak_fill_ratio": 737.8673350569667, "peak_storage_depth_m": 0.9360198974609375, "peak_volume_m3": 1071.3, "peak_cumulative_backflow_m3": 1071.3, "storage_capacity_m3": 1.4518870115280151, "receiver_persistence_min": 469.4, "receiver_max_depth_m": 0.376, "kind": "manhole"}}, {"type": "Feature", "geometry": {"type": "Point", "coordinates": [77.096823, 28.4835246]}, "properties": {"rank": 60.0, "onset_min": 310.2, "peak_min": 310.2, "peak_fill_ratio": 543.4331590055566, "peak_storage_depth_m": 1.643951416015625, "peak_volume_m3": 539.5, "peak_cumulative_backflow_m3": 539.5, "storage_capacity_m3": 0.9927623867988586, "receiver_persistence_min": 601.5, "receiver_max_depth_m": 0.465, "kind": "manhole"}}, {"type": "Feature", "geometry": {"type": "Point", "coordinates": [77.0688033, 28.4509642]}, "properties": {"rank": 61.0, "onset_min": 527.5, "peak_min": 527.5, "peak_fill_ratio": 239.22754660634064, "peak_storage_depth_m": 2.4021453857421875, "peak_volume_m3": 338.2, "peak_cumulative_backflow_m3": 338.2, "storage_capacity_m3": 1.4137167930603027, "receiver_persistence_min": 283.4, "receiver_max_depth_m": 0.653, "kind": "manhole"}}, {"type": "Feature", "geometry": {"type": "Point", "coordinates": [77.0346531, 28.4724727]}, "properties": {"rank": 62.0, "onset_min": 531.4, "peak_min": 531.4, "peak_fill_ratio": 979.757802409463, "peak_storage_depth_m": 0.8188323974609375, "peak_volume_m3": 307.8, "peak_cumulative_backflow_m3": 307.8, "storage_capacity_m3": 0.3141592741012573, "receiver_persistence_min": 293.9, "receiver_max_depth_m": 0.631, "kind": "manhole"}}, {"type": "Feature", "geometry": {"type": "Point", "coordinates": [77.0441806, 28.4681518]}, "properties": {"rank": 63.0, "onset_min": 167.7, "peak_min": 167.7, "peak_fill_ratio": 945.3868253137678, "peak_storage_depth_m": 0.3356781005859375, "peak_volume_m3": 897.8, "peak_cumulative_backflow_m3": 897.8, "storage_capacity_m3": 0.9496641755104065, "receiver_persistence_min": 646.6, "receiver_max_depth_m": 0.391, "kind": "manhole"}}, {"type": "Feature", "geometry": {"type": "Point", "coordinates": [77.0434936, 28.4593191]}, "properties": {"rank": 64.0, "onset_min": 528.1, "peak_min": 528.1, "peak_fill_ratio": 225.2219315859573, "peak_storage_depth_m": 1.013214111328125, "peak_volume_m3": 318.4, "peak_cumulative_backflow_m3": 318.4, "storage_capacity_m3": 1.4137166738510132, "receiver_persistence_min": 287.4, "receiver_max_depth_m": 0.594, "kind": "manhole"}}, {"type": "Feature", "geometry": {"type": "Point", "coordinates": [77.0500421, 28.4060877]}, "properties": {"rank": 65.0, "onset_min": 595.6, "peak_min": 595.6, "peak_fill_ratio": 101.70732402459923, "peak_storage_depth_m": 0.5, "peak_volume_m3": 173.6, "peak_cumulative_backflow_m3": 173.6, "storage_capacity_m3": 1.7068583965301514, "receiver_persistence_min": 686.0, "receiver_max_depth_m": 0.657, "kind": "manhole"}}, {"type": "Feature", "geometry": {"type": "Point", "coordinates": [77.0166401, 28.46843]}, "properties": {"rank": 66.0, "onset_min": 537.0, "peak_min": 537.0, "peak_fill_ratio": 412.2059563651469, "peak_storage_depth_m": 1.5696258544921875, "peak_volume_m3": 333.7, "peak_cumulative_backflow_m3": 333.7, "storage_capacity_m3": 0.8095467686653137, "receiver_persistence_min": 293.7, "receiver_max_depth_m": 0.575, "kind": "manhole"}}, {"type": "Feature", "geometry": {"type": "Point", "coordinates": [77.0356835, 28.4538461]}, "properties": {"rank": 67.0, "onset_min": 380.2, "peak_min": 380.2, "peak_fill_ratio": 218.62420527218413, "peak_storage_depth_m": 1.0563507080078125, "peak_volume_m3": 872.5, "peak_cumulative_backflow_m3": 872.5, "storage_capacity_m3": 3.9908664226531982, "receiver_persistence_min": 578.9, "receiver_max_depth_m": 0.381, "kind": "manhole"}}, {"type": "Feature", "geometry": {"type": "Point", "coordinates": [77.0345019, 28.3945224]}, "properties": {"rank": 68.0, "onset_min": 424.5, "peak_min": 424.5, "peak_fill_ratio": 463.968498317011, "peak_storage_depth_m": 0.8628387451171875, "peak_volume_m3": 455.5, "peak_cumulative_backflow_m3": 455.5, "storage_capacity_m3": 0.9817476868629456, "receiver_persistence_min": 677.3, "receiver_max_depth_m": 0.465, "kind": "manhole"}}, {"type": "Feature", "geometry": {"type": "Point", "coordinates": [77.0263402, 28.48867]}, "properties": {"rank": 69.0, "onset_min": 159.6, "peak_min": 159.6, "peak_fill_ratio": 539.813380263427, "peak_storage_depth_m": 1.7667694091796875, "peak_volume_m3": 1890.8, "peak_cumulative_backflow_m3": 1890.8, "storage_capacity_m3": 3.5026919841766357, "receiver_persistence_min": 295.1, "receiver_max_depth_m": 0.338, "kind": "manhole"}}, {"type": "Feature", "geometry": {"type": "Point", "coordinates": [77.0907258, 28.4327175]}, "properties": {"rank": 70.0, "onset_min": 562.9, "peak_min": 562.9, "peak_fill_ratio": 170.5433659088389, "peak_storage_depth_m": 0.7344512939453125, "peak_volume_m3": 241.1, "peak_cumulative_backflow_m3": 241.1, "storage_capacity_m3": 1.4137166738510132, "receiver_persistence_min": 298.0, "receiver_max_depth_m": 0.67, "kind": "manhole"}}, {"type": "Feature", "geometry": {"type": "Point", "coordinates": [77.0398171, 28.4295943]}, "properties": {"rank": 71.0, "onset_min": 460.8, "peak_min": 460.8, "peak_fill_ratio": 450.0395117382004, "peak_storage_depth_m": 1.5706329345703125, "peak_volume_m3": 1225.8, "peak_cumulative_backflow_m3": 1225.8, "storage_capacity_m3": 2.7237608432769775, "receiver_persistence_min": 602.3, "receiver_max_depth_m": 0.319, "kind": "manhole"}}, {"type": "Feature", "geometry": {"type": "Point", "coordinates": [77.0750559, 28.4499418]}, "properties": {"rank": 72.0, "onset_min": 571.4, "peak_min": 571.4, "peak_fill_ratio": 171.25072122160887, "peak_storage_depth_m": 2.401153564453125, "peak_volume_m3": 242.1, "peak_cumulative_backflow_m3": 242.1, "storage_capacity_m3": 1.4137166738510132, "receiver_persistence_min": 523.7, "receiver_max_depth_m": 0.53, "kind": "manhole"}}, {"type": "Feature", "geometry": {"type": "Point", "coordinates": [77.0268296, 28.4552642]}, "properties": {"rank": 73.0, "onset_min": 536.0, "peak_min": 536.0, "peak_fill_ratio": 557.6549441237177, "peak_storage_depth_m": 0.8455352783203125, "peak_volume_m3": 230.4, "peak_cumulative_backflow_m3": 230.4, "storage_capacity_m3": 0.41315871477127075, "receiver_persistence_min": 555.1, "receiver_max_depth_m": 0.539, "kind": "manhole"}}, {"type": "Feature", "geometry": {"type": "Point", "coordinates": [77.0341195, 28.4574136]}, "properties": {"rank": 74.0, "onset_min": 261.4, "peak_min": 261.4, "peak_fill_ratio": 888.4382728390777, "peak_storage_depth_m": 2.139312744140625, "peak_volume_m3": 628.0, "peak_cumulative_backflow_m3": 628.0, "storage_capacity_m3": 0.7068583369255066, "receiver_persistence_min": 405.6, "receiver_max_depth_m": 0.399, "kind": "manhole"}}, {"type": "Feature", "geometry": {"type": "Point", "coordinates": [77.0747844, 28.4240035]}, "properties": {"rank": 75.0, "onset_min": 50.9, "peak_min": 50.9, "peak_fill_ratio": 417.6225590517269, "peak_storage_depth_m": 2.2150421142578125, "peak_volume_m3": 1049.6, "peak_cumulative_backflow_m3": 1049.6, "storage_capacity_m3": 2.5132741928100586, "receiver_persistence_min": 614.7, "receiver_max_depth_m": 0.327, "kind": "manhole"}}, {"type": "Feature", "geometry": {"type": "Point", "coordinates": [77.0385779, 28.5062002]}, "properties": {"rank": 76.0, "onset_min": 493.1, "peak_min": 493.1, "peak_fill_ratio": 229.34970694432693, "peak_storage_depth_m": 0.7820587158203125, "peak_volume_m3": 606.1, "peak_cumulative_backflow_m3": 606.1, "storage_capacity_m3": 2.6426892280578613, "receiver_persistence_min": 563.6, "receiver_max_depth_m": 0.403, "kind": "manhole"}}, {"type": "Feature", "geometry": {"type": "Point", "coordinates": [77.0271078, 28.5078855]}, "properties": {"rank": 77.0, "onset_min": 465.2, "peak_min": 465.2, "peak_fill_ratio": 82.8510343613096, "peak_storage_depth_m": 0.6725311279296875, "peak_volume_m3": 475.6, "peak_cumulative_backflow_m3": 475.6, "storage_capacity_m3": 5.740423202514648, "receiver_persistence_min": 401.0, "receiver_max_depth_m": 0.417, "kind": "manhole"}}, {"type": "Feature", "geometry": {"type": "Point", "coordinates": [77.0141422, 28.4962439]}, "properties": {"rank": 78.0, "onset_min": 537.1, "peak_min": 537.1, "peak_fill_ratio": 317.0366511834989, "peak_storage_depth_m": 1.1856842041015625, "peak_volume_m3": 224.1, "peak_cumulative_backflow_m3": 224.1, "storage_capacity_m3": 0.7068583369255066, "receiver_persistence_min": 540.2, "receiver_max_depth_m": 0.495, "kind": "manhole"}}, {"type": "Feature", "geometry": {"type": "Point", "coordinates": [77.0427748, 28.4416821]}, "properties": {"rank": 79.0, "onset_min": 503.9, "peak_min": 503.9, "peak_fill_ratio": 510.85200688246977, "peak_storage_depth_m": 1.3185577392578125, "peak_volume_m3": 722.2, "peak_cumulative_backflow_m3": 722.2, "storage_capacity_m3": 1.4137166738510132, "receiver_persistence_min": 273.3, "receiver_max_depth_m": 0.425, "kind": "manhole"}}, {"type": "Feature", "geometry": {"type": "Point", "coordinates": [77.0397689, 28.5076102]}, "properties": {"rank": 80.0, "onset_min": 468.9, "peak_min": 468.9, "peak_fill_ratio": 418.5433081207786, "peak_storage_depth_m": 0.8495330810546875, "peak_volume_m3": 563.3, "peak_cumulative_backflow_m3": 563.3, "storage_capacity_m3": 1.3458583354949951, "receiver_persistence_min": 561.1, "receiver_max_depth_m": 0.37, "kind": "manhole"}}, {"type": "Feature", "geometry": {"type": "Point", "coordinates": [77.0576732, 28.4491456]}, "properties": {"rank": 81.0, "onset_min": 662.8, "peak_min": 662.8, "peak_fill_ratio": 95.49296722394546, "peak_storage_depth_m": 0.9462738037109375, "peak_volume_m3": 135.0, "peak_cumulative_backflow_m3": 135.0, "storage_capacity_m3": 1.4137166738510132, "receiver_persistence_min": 558.7, "receiver_max_depth_m": 0.557, "kind": "manhole"}}, {"type": "Feature", "geometry": {"type": "Point", "coordinates": [77.0328467, 28.4191613]}, "properties": {"rank": 82.0, "onset_min": 186.8, "peak_min": 186.8, "peak_fill_ratio": 759.133721664728, "peak_storage_depth_m": 1.4039764404296875, "peak_volume_m3": 536.6, "peak_cumulative_backflow_m3": 536.6, "storage_capacity_m3": 0.7068583369255066, "receiver_persistence_min": 662.2, "receiver_max_depth_m": 0.368, "kind": "manhole"}}, {"type": "Feature", "geometry": {"type": "Point", "coordinates": [77.0176756, 28.5025103]}, "properties": {"rank": 83.0, "onset_min": 51.8, "peak_min": 51.8, "peak_fill_ratio": 55.23949862646411, "peak_storage_depth_m": 1.2652740478515625, "peak_volume_m3": 867.7, "peak_cumulative_backflow_m3": 867.7, "storage_capacity_m3": 15.707962989807129, "receiver_persistence_min": 681.4, "receiver_max_depth_m": 0.302, "kind": "manhole"}}, {"type": "Feature", "geometry": {"type": "Point", "coordinates": [77.0426555, 28.4568841]}, "properties": {"rank": 84.0, "onset_min": 388.0, "peak_min": 388.0, "peak_fill_ratio": 509.08361860054487, "peak_storage_depth_m": 1.4588775634765625, "peak_volume_m3": 719.7, "peak_cumulative_backflow_m3": 719.7, "storage_capacity_m3": 1.4137166738510132, "receiver_persistence_min": 586.0, "receiver_max_depth_m": 0.327, "kind": "manhole"}}, {"type": "Feature", "geometry": {"type": "Point", "coordinates": [77.0544256, 28.4802378]}, "properties": {"rank": 85.0, "onset_min": 490.1, "peak_min": 490.1, "peak_fill_ratio": 271.05900873140445, "peak_storage_depth_m": 1.682708740234375, "peak_volume_m3": 668.4, "peak_cumulative_backflow_m3": 668.4, "storage_capacity_m3": 2.465883731842041, "receiver_persistence_min": 282.3, "receiver_max_depth_m": 0.408, "kind": "manhole"}}, {"type": "Feature", "geometry": {"type": "Point", "coordinates": [77.0267628, 28.4963856]}, "properties": {"rank": 86.0, "onset_min": 250.2, "peak_min": 250.2, "peak_fill_ratio": 642.9334120400204, "peak_storage_depth_m": 2.198150634765625, "peak_volume_m3": 1414.2, "peak_cumulative_backflow_m3": 1414.2, "storage_capacity_m3": 2.199605703353882, "receiver_persistence_min": 274.9, "receiver_max_depth_m": 0.316, "kind": "manhole"}}, {"type": "Feature", "geometry": {"type": "Point", "coordinates": [77.0150333, 28.4917392]}, "properties": {"rank": 87.0, "onset_min": 77.8, "peak_min": 77.8, "peak_fill_ratio": 3279.8649759672217, "peak_storage_depth_m": 1.84613037109375, "peak_volume_m3": 1030.4, "peak_cumulative_backflow_m3": 1030.4, "storage_capacity_m3": 0.3141592741012573, "receiver_persistence_min": 293.8, "receiver_max_depth_m": 0.339, "kind": "manhole"}}, {"type": "Feature", "geometry": {"type": "Point", "coordinates": [77.0394652, 28.4474347]}, "properties": {"rank": 88.0, "onset_min": 669.3, "peak_min": 669.3, "peak_fill_ratio": 53.834158002761676, "peak_storage_depth_m": 1.3414306640625, "peak_volume_m3": 135.3, "peak_cumulative_backflow_m3": 135.3, "storage_capacity_m3": 2.5132741928100586, "receiver_persistence_min": 455.6, "receiver_max_depth_m": 0.539, "kind": "manhole"}}, {"type": "Feature", "geometry": {"type": "Point", "coordinates": [77.0161534, 28.4928303]}, "properties": {"rank": 89.0, "onset_min": 512.1, "peak_min": 512.1, "peak_fill_ratio": 38.83684858728531, "peak_storage_depth_m": 0.756622314453125, "peak_volume_m3": 402.5, "peak_cumulative_backflow_m3": 402.5, "storage_capacity_m3": 10.363868713378906, "receiver_persistence_min": 620.0, "receiver_max_depth_m": 0.394, "kind": "manhole"}}, {"type": "Feature", "geometry": {"type": "Point", "coordinates": [77.0897193, 28.4620636]}, "properties": {"rank": 90.0, "onset_min": 578.2, "peak_min": 578.2, "peak_fill_ratio": 20.007266190192666, "peak_storage_depth_m": 1.2515106201171875, "peak_volume_m3": 290.5, "peak_cumulative_backflow_m3": 290.5, "storage_capacity_m3": 14.51972484588623, "receiver_persistence_min": 488.8, "receiver_max_depth_m": 0.432, "kind": "manhole"}}, {"type": "Feature", "geometry": {"type": "Point", "coordinates": [77.0475853, 28.5044901]}, "properties": {"rank": 91.0, "onset_min": 455.8, "peak_min": 455.8, "peak_fill_ratio": 220.04137286096747, "peak_storage_depth_m": 0.5, "peak_volume_m3": 577.6, "peak_cumulative_backflow_m3": 577.6, "storage_capacity_m3": 2.6249608993530273, "receiver_persistence_min": 291.1, "receiver_max_depth_m": 0.406, "kind": "manhole"}}, {"type": "Feature", "geometry": {"type": "Point", "coordinates": [77.032614, 28.513585]}, "properties": {"rank": 92.0, "onset_min": 445.5, "peak_min": 445.5, "peak_fill_ratio": 703.1819164246236, "peak_storage_depth_m": 0.613037109375, "peak_volume_m3": 994.1, "peak_cumulative_backflow_m3": 994.1, "storage_capacity_m3": 1.4137166738510132, "receiver_persistence_min": 285.6, "receiver_max_depth_m": 0.335, "kind": "manhole"}}, {"type": "Feature", "geometry": {"type": "Point", "coordinates": [77.0491467, 28.4265643]}, "properties": {"rank": 93.0, "onset_min": 537.9, "peak_min": 537.9, "peak_fill_ratio": 36.062520366720314, "peak_storage_depth_m": 0.5151519775390625, "peak_volume_m3": 201.0, "peak_cumulative_backflow_m3": 201.0, "storage_capacity_m3": 5.573653697967529, "receiver_persistence_min": 282.9, "receiver_max_depth_m": 0.549, "kind": "manhole"}}, {"type": "Feature", "geometry": {"type": "Point", "coordinates": [77.043494, 28.4301369]}, "properties": {"rank": 94.0, "onset_min": 554.3, "peak_min": 554.3, "peak_fill_ratio": 7.836650021505528, "peak_storage_depth_m": 1.2219085693359375, "peak_volume_m3": 356.0, "peak_cumulative_backflow_m3": 356.0, "storage_capacity_m3": 45.427574157714844, "receiver_persistence_min": 547.9, "receiver_max_depth_m": 0.394, "kind": "manhole"}}, {"type": "Feature", "geometry": {"type": "Point", "coordinates": [77.0592044, 28.4489375]}, "properties": {"rank": 95.0, "onset_min": 557.0, "peak_min": 557.0, "peak_fill_ratio": 390.88452935634194, "peak_storage_depth_m": 1.8355560302734375, "peak_volume_m3": 245.6, "peak_cumulative_backflow_m3": 245.6, "storage_capacity_m3": 0.6283185482025146, "receiver_persistence_min": 494.4, "receiver_max_depth_m": 0.441, "kind": "manhole"}}, {"type": "Feature", "geometry": {"type": "Point", "coordinates": [77.0428882, 28.4381522]}, "properties": {"rank": 96.0, "onset_min": 526.7, "peak_min": 526.7, "peak_fill_ratio": 251.86269043420648, "peak_storage_depth_m": 0.916778564453125, "peak_volume_m3": 633.0, "peak_cumulative_backflow_m3": 633.0, "storage_capacity_m3": 2.5132741928100586, "receiver_persistence_min": 450.9, "receiver_max_depth_m": 0.312, "kind": "manhole"}}, {"type": "Feature", "geometry": {"type": "Point", "coordinates": [76.995809, 28.4811269]}, "properties": {"rank": 97.0, "onset_min": 592.1, "peak_min": 592.1, "peak_fill_ratio": 132.9278260538906, "peak_storage_depth_m": 1.469879150390625, "peak_volume_m3": 490.9, "peak_cumulative_backflow_m3": 490.9, "storage_capacity_m3": 3.692981481552124, "receiver_persistence_min": 523.3, "receiver_max_depth_m": 0.343, "kind": "manhole"}}, {"type": "Feature", "geometry": {"type": "Point", "coordinates": [77.0135498, 28.4695022]}, "properties": {"rank": 98.0, "onset_min": 255.2, "peak_min": 255.2, "peak_fill_ratio": 1243.6366907127265, "peak_storage_depth_m": 1.1714019775390625, "peak_volume_m3": 390.7, "peak_cumulative_backflow_m3": 390.7, "storage_capacity_m3": 0.3141592741012573, "receiver_persistence_min": 671.3, "receiver_max_depth_m": 0.369, "kind": "manhole"}}, {"type": "Feature", "geometry": {"type": "Point", "coordinates": [77.0786849, 28.4475651]}, "properties": {"rank": 99.0, "onset_min": 444.0, "peak_min": 444.0, "peak_fill_ratio": 477.60634745563624, "peak_storage_depth_m": 2.3966064453125, "peak_volume_m3": 675.2, "peak_cumulative_backflow_m3": 675.2, "storage_capacity_m3": 1.4137165546417236, "receiver_persistence_min": 278.8, "receiver_max_depth_m": 0.37, "kind": "manhole"}}, {"type": "Feature", "geometry": {"type": "Point", "coordinates": [77.033767, 28.5129158]}, "properties": {"rank": 100.0, "onset_min": 576.9, "peak_min": 576.9, "peak_fill_ratio": 78.87011737385126, "peak_storage_depth_m": 0.3417816162109375, "peak_volume_m3": 111.5, "peak_cumulative_backflow_m3": 111.5, "storage_capacity_m3": 1.4137166738510132, "receiver_persistence_min": 590.1, "receiver_max_depth_m": 0.522, "kind": "manhole"}}, {"type": "Feature", "geometry": {"type": "Point", "coordinates": [77.042967, 28.4303028]}, "properties": {"rank": 101.0, "onset_min": 567.6, "peak_min": 567.6, "peak_fill_ratio": 103.9161472203076, "peak_storage_depth_m": 1.5970001220703125, "peak_volume_m3": 309.7, "peak_cumulative_backflow_m3": 309.7, "storage_capacity_m3": 2.980287551879883, "receiver_persistence_min": 440.8, "receiver_max_depth_m": 0.381, "kind": "manhole"}}, {"type": "Feature", "geometry": {"type": "Point", "coordinates": [77.097844, 28.4228559]}, "properties": {"rank": 102.0, "onset_min": 615.1, "peak_min": 615.1, "peak_fill_ratio": 171.35075802472034, "peak_storage_depth_m": 5.5902099609375, "peak_volume_m3": 157.5, "peak_cumulative_backflow_m3": 157.5, "storage_capacity_m3": 0.9191672205924988, "receiver_persistence_min": 268.6, "receiver_max_depth_m": 0.552, "kind": "manhole"}}, {"type": "Feature", "geometry": {"type": "Point", "coordinates": [77.0739978, 28.4250464]}, "properties": {"rank": 103.0, "onset_min": 504.0, "peak_min": 504.0, "peak_fill_ratio": 291.88170683340957, "peak_storage_depth_m": 2.3274688720703125, "peak_volume_m3": 896.8, "peak_cumulative_backflow_m3": 896.8, "storage_capacity_m3": 3.0724775791168213, "receiver_persistence_min": 275.8, "receiver_max_depth_m": 0.304, "kind": "manhole"}}, {"type": "Feature", "geometry": {"type": "Point", "coordinates": [77.0392338, 28.4276562]}, "properties": {"rank": 104.0, "onset_min": 330.7, "peak_min": 330.7, "peak_fill_ratio": 317.464803411577, "peak_storage_depth_m": 0.7179718017578125, "peak_volume_m3": 473.3, "peak_cumulative_backflow_m3": 473.3, "storage_capacity_m3": 1.49087393283844, "receiver_persistence_min": 269.0, "receiver_max_depth_m": 0.405, "kind": "manhole"}}, {"type": "Feature", "geometry": {"type": "Point", "coordinates": [77.0498054, 28.4572818]}, "properties": {"rank": 105.0, "onset_min": 514.3, "peak_min": 514.3, "peak_fill_ratio": 303.3139581157616, "peak_storage_depth_m": 1.3071136474609375, "peak_volume_m3": 428.8, "peak_cumulative_backflow_m3": 428.8, "storage_capacity_m3": 1.4137166738510132, "receiver_persistence_min": 407.0, "receiver_max_depth_m": 0.324, "kind": "manhole"}}, {"type": "Feature", "geometry": {"type": "Point", "coordinates": [77.0190826, 28.4969083]}, "properties": {"rank": 106.0, "onset_min": 22.0, "peak_min": 22.0, "peak_fill_ratio": 141.53393195145526, "peak_storage_depth_m": 0.457977294921875, "peak_volume_m3": 450.2, "peak_cumulative_backflow_m3": 450.2, "storage_capacity_m3": 3.1808626651763916, "receiver_persistence_min": 364.3, "receiver_max_depth_m": 0.316, "kind": "manhole"}}, {"type": "Feature", "geometry": {"type": "Point", "coordinates": [77.0789329, 28.5108605]}, "properties": {"rank": 107.0, "onset_min": 572.3, "peak_min": 572.3, "peak_fill_ratio": 163.5076119104357, "peak_storage_depth_m": 0.84014892578125, "peak_volume_m3": 203.8, "peak_cumulative_backflow_m3": 203.8, "storage_capacity_m3": 1.2464251518249512, "receiver_persistence_min": 319.7, "receiver_max_depth_m": 0.458, "kind": "manhole"}}, {"type": "Feature", "geometry": {"type": "Point", "coordinates": [77.072517, 28.4422271]}, "properties": {"rank": 108.0, "onset_min": 654.9, "peak_min": 654.9, "peak_fill_ratio": 71.5549938414933, "peak_storage_depth_m": 0.894805908203125, "peak_volume_m3": 142.4, "peak_cumulative_backflow_m3": 142.4, "storage_capacity_m3": 1.9900777339935303, "receiver_persistence_min": 585.1, "receiver_max_depth_m": 0.459, "kind": "manhole"}}, {"type": "Feature", "geometry": {"type": "Point", "coordinates": [77.0336788, 28.4794534]}, "properties": {"rank": 109.0, "onset_min": 330.6, "peak_min": 330.6, "peak_fill_ratio": 1041.1916087333832, "peak_storage_depth_m": 1.4887237548828125, "peak_volume_m3": 327.1, "peak_cumulative_backflow_m3": 327.1, "storage_capacity_m3": 0.3141592741012573, "receiver_persistence_min": 558.5, "receiver_max_depth_m": 0.34, "kind": "manhole"}}, {"type": "Feature", "geometry": {"type": "Point", "coordinates": [77.0760589, 28.4136635]}, "properties": {"rank": 110.0, "onset_min": 578.7, "peak_min": 578.7, "peak_fill_ratio": 62.836281673698, "peak_storage_depth_m": 0.59820556640625, "peak_volume_m3": 165.9, "peak_cumulative_backflow_m3": 165.9, "storage_capacity_m3": 2.6401944160461426, "receiver_persistence_min": 501.5, "receiver_max_depth_m": 0.425, "kind": "manhole"}}, {"type": "Feature", "geometry": {"type": "Point", "coordinates": [77.0528867, 28.4811273]}, "properties": {"rank": 111.0, "onset_min": 516.3, "peak_min": 516.3, "peak_fill_ratio": 417.05669240917223, "peak_storage_depth_m": 1.8472900390625, "peak_volume_m3": 294.8, "peak_cumulative_backflow_m3": 294.8, "storage_capacity_m3": 0.7068583369255066, "receiver_persistence_min": 275.8, "receiver_max_depth_m": 0.428, "kind": "manhole"}}, {"type": "Feature", "geometry": {"type": "Point", "coordinates": [77.0786979, 28.4380204]}, "properties": {"rank": 112.0, "onset_min": 468.7, "peak_min": 468.7, "peak_fill_ratio": 436.4028418139616, "peak_storage_depth_m": 2.20501708984375, "peak_volume_m3": 274.2, "peak_cumulative_backflow_m3": 274.2, "storage_capacity_m3": 0.6283185482025146, "receiver_persistence_min": 363.6, "receiver_max_depth_m": 0.352, "kind": "manhole"}}, {"type": "Feature", "geometry": {"type": "Point", "coordinates": [77.0408615, 28.5238316]}, "properties": {"rank": 113.0, "onset_min": 537.3, "peak_min": 537.3, "peak_fill_ratio": 10.482169776712563, "peak_storage_depth_m": 0.6100000143051147, "peak_volume_m3": 294.3, "peak_cumulative_backflow_m3": 294.3, "storage_capacity_m3": 28.076248168945312, "receiver_persistence_min": 492.2, "receiver_max_depth_m": 0.341, "kind": "manhole"}}, {"type": "Feature", "geometry": {"type": "Point", "coordinates": [77.0103703, 28.3843951]}, "properties": {"rank": 114.0, "onset_min": 487.6, "peak_min": 487.6, "peak_fill_ratio": 85.18437865757187, "peak_storage_depth_m": 0.5, "peak_volume_m3": 257.3, "peak_cumulative_backflow_m3": 257.3, "storage_capacity_m3": 3.0205068588256836, "receiver_persistence_min": 616.1, "receiver_max_depth_m": 0.352, "kind": "manhole"}}, {"type": "Feature", "geometry": {"type": "Point", "coordinates": [77.0490884, 28.4509446]}, "properties": {"rank": 115.0, "onset_min": 537.6, "peak_min": 537.6, "peak_fill_ratio": 73.75357715640027, "peak_storage_depth_m": 1.9462738037109375, "peak_volume_m3": 234.6, "peak_cumulative_backflow_m3": 234.6, "storage_capacity_m3": 3.1808626651763916, "receiver_persistence_min": 517.8, "receiver_max_depth_m": 0.361, "kind": "manhole"}}, {"type": "Feature", "geometry": {"type": "Point", "coordinates": [77.0501954, 28.4043799]}, "properties": {"rank": 116.0, "onset_min": 557.8, "peak_min": 557.8, "peak_fill_ratio": 178.819438146897, "peak_storage_depth_m": 1.3890228271484375, "peak_volume_m3": 252.8, "peak_cumulative_backflow_m3": 252.8, "storage_capacity_m3": 1.4137165546417236, "receiver_persistence_min": 364.3, "receiver_max_depth_m": 0.344, "kind": "manhole"}}, {"type": "Feature", "geometry": {"type": "Point", "coordinates": [77.048085, 28.462882]}, "properties": {"rank": 117.0, "onset_min": 598.2, "peak_min": 598.2, "peak_fill_ratio": 97.81020646146933, "peak_storage_depth_m": 1.438751220703125, "peak_volume_m3": 177.4, "peak_cumulative_backflow_m3": 177.4, "storage_capacity_m3": 1.8137166500091553, "receiver_persistence_min": 348.9, "receiver_max_depth_m": 0.393, "kind": "manhole"}}, {"type": "Feature", "geometry": {"type": "Point", "coordinates": [77.0845224, 28.4474149]}, "properties": {"rank": 118.0, "onset_min": 511.2, "peak_min": 511.2, "peak_fill_ratio": 176.02143158511726, "peak_storage_depth_m": 1.243408203125, "peak_volume_m3": 559.9, "peak_cumulative_backflow_m3": 559.9, "storage_capacity_m3": 3.1808626651763916, "receiver_persistence_min": 267.3, "receiver_max_depth_m": 0.317, "kind": "manhole"}}, {"type": "Feature", "geometry": {"type": "Point", "coordinates": [77.0728921, 28.5152525]}, "properties": {"rank": 119.0, "onset_min": 547.5, "peak_min": 547.5, "peak_fill_ratio": 452.1415159225626, "peak_storage_depth_m": 0.532440185546875, "peak_volume_m3": 159.8, "peak_cumulative_backflow_m3": 159.8, "storage_capacity_m3": 0.3534291684627533, "receiver_persistence_min": 670.9, "receiver_max_depth_m": 0.386, "kind": "manhole"}}, {"type": "Feature", "geometry": {"type": "Point", "coordinates": [77.0762387, 28.4680112]}, "properties": {"rank": 120.0, "onset_min": 10.4, "peak_min": 10.4, "peak_fill_ratio": 3.182836749501681, "peak_storage_depth_m": 0.9091644287109375, "peak_volume_m3": 171.0, "peak_cumulative_backflow_m3": 171.0, "storage_capacity_m3": 53.72565841674805, "receiver_persistence_min": 708.5, "receiver_max_depth_m": 0.374, "kind": "manhole"}}, {"type": "Feature", "geometry": {"type": "Point", "coordinates": [77.0984815, 28.4227739]}, "properties": {"rank": 121.0, "onset_min": 656.0, "peak_min": 656.0, "peak_fill_ratio": 283.90013530018575, "peak_storage_depth_m": 1.2913055419921875, "peak_volume_m3": 137.3, "peak_cumulative_backflow_m3": 137.3, "storage_capacity_m3": 0.4836207628250122, "receiver_persistence_min": 243.6, "receiver_max_depth_m": 0.51, "kind": "manhole"}}, {"type": "Feature", "geometry": {"type": "Point", "coordinates": [77.1137253, 28.4195806]}, "properties": {"rank": 122.0, "onset_min": 533.7, "peak_min": 533.7, "peak_fill_ratio": 257.39463852109185, "peak_storage_depth_m": 0.74462890625, "peak_volume_m3": 175.3, "peak_cumulative_backflow_m3": 175.3, "storage_capacity_m3": 0.6810553669929504, "receiver_persistence_min": 204.9, "receiver_max_depth_m": 0.499, "kind": "manhole"}}, {"type": "Feature", "geometry": {"type": "Point", "coordinates": [77.0692699, 28.4506142]}, "properties": {"rank": 123.0, "onset_min": 704.8, "peak_min": 704.8, "peak_fill_ratio": 75.89922506021739, "peak_storage_depth_m": 2.4120330810546875, "peak_volume_m3": 107.3, "peak_cumulative_backflow_m3": 107.3, "storage_capacity_m3": 1.4137166738510132, "receiver_persistence_min": 235.7, "receiver_max_depth_m": 0.538, "kind": "manhole"}}, {"type": "Feature", "geometry": {"type": "Point", "coordinates": [77.0878006, 28.4385329]}, "properties": {"rank": 124.0, "onset_min": 499.1, "peak_min": 499.1, "peak_fill_ratio": 670.968585978652, "peak_storage_depth_m": 1.4912109375, "peak_volume_m3": 452.7, "peak_cumulative_backflow_m3": 452.7, "storage_capacity_m3": 0.6746962666511536, "receiver_persistence_min": 251.8, "receiver_max_depth_m": 0.33, "kind": "manhole"}}, {"type": "Feature", "geometry": {"type": "Point", "coordinates": [77.0725466, 28.4498943]}, "properties": {"rank": 125.0, "onset_min": 599.9, "peak_min": 599.9, "peak_fill_ratio": 147.90799590019998, "peak_storage_depth_m": 2.315582275390625, "peak_volume_m3": 209.1, "peak_cumulative_backflow_m3": 209.1, "storage_capacity_m3": 1.4137166738510132, "receiver_persistence_min": 254.7, "receiver_max_depth_m": 0.428, "kind": "manhole"}}, {"type": "Feature", "geometry": {"type": "Point", "coordinates": [77.0386401, 28.4722708]}, "properties": {"rank": 126.0, "onset_min": 533.5, "peak_min": 533.5, "peak_fill_ratio": 316.2185680490038, "peak_storage_depth_m": 1.79248046875, "peak_volume_m3": 183.9, "peak_cumulative_backflow_m3": 183.9, "storage_capacity_m3": 0.5815597772598267, "receiver_persistence_min": 314.7, "receiver_max_depth_m": 0.379, "kind": "manhole"}}, {"type": "Feature", "geometry": {"type": "Point", "coordinates": [77.1027337, 28.4192411]}, "properties": {"rank": 127.0, "onset_min": 570.7, "peak_min": 570.7, "peak_fill_ratio": 537.6253828036332, "peak_storage_depth_m": 1.4144744873046875, "peak_volume_m3": 168.9, "peak_cumulative_backflow_m3": 168.9, "storage_capacity_m3": 0.3141592741012573, "receiver_persistence_min": 269.2, "receiver_max_depth_m": 0.413, "kind": "manhole"}}, {"type": "Feature", "geometry": {"type": "Point", "coordinates": [77.0319467, 28.5072515]}, "properties": {"rank": 128.0, "onset_min": 570.9, "peak_min": 570.9, "peak_fill_ratio": 93.51237234818954, "peak_storage_depth_m": 0.5195159912109375, "peak_volume_m3": 132.2, "peak_cumulative_backflow_m3": 132.2, "storage_capacity_m3": 1.4137166738510132, "receiver_persistence_min": 530.0, "receiver_max_depth_m": 0.362, "kind": "manhole"}}, {"type": "Feature", "geometry": {"type": "Point", "coordinates": [77.0253349, 28.5002758]}, "properties": {"rank": 129.0, "onset_min": 51.0, "peak_min": 51.0, "peak_fill_ratio": 40.982351156666745, "peak_storage_depth_m": 0.64849853515625, "peak_volume_m3": 207.1, "peak_cumulative_backflow_m3": 207.1, "storage_capacity_m3": 5.053394794464111, "receiver_persistence_min": 558.0, "receiver_max_depth_m": 0.301, "kind": "manhole"}}, {"type": "Feature", "geometry": {"type": "Point", "coordinates": [77.0158517, 28.4805491]}, "properties": {"rank": 130.0, "onset_min": 700.4, "peak_min": 700.4, "peak_fill_ratio": 42.13627001103076, "peak_storage_depth_m": 0.700927734375, "peak_volume_m3": 105.9, "peak_cumulative_backflow_m3": 105.9, "storage_capacity_m3": 2.5132741928100586, "receiver_persistence_min": 643.8, "receiver_max_depth_m": 0.389, "kind": "manhole"}}, {"type": "Feature", "geometry": {"type": "Point", "coordinates": [77.031814, 28.5134887]}, "properties": {"rank": 131.0, "onset_min": 487.8, "peak_min": 487.8, "peak_fill_ratio": 132.34617901926072, "peak_storage_depth_m": 0.887542724609375, "peak_volume_m3": 187.1, "peak_cumulative_backflow_m3": 187.1, "storage_capacity_m3": 1.4137166738510132, "receiver_persistence_min": 499.2, "receiver_max_depth_m": 0.311, "kind": "manhole"}}, {"type": "Feature", "geometry": {"type": "Point", "coordinates": [77.0802472, 28.4475773]}, "properties": {"rank": 132.0, "onset_min": 630.2, "peak_min": 630.2, "peak_fill_ratio": 14.609059489574078, "peak_storage_depth_m": 1.0, "peak_volume_m3": 114.1, "peak_cumulative_backflow_m3": 114.1, "storage_capacity_m3": 7.810222148895264, "receiver_persistence_min": 273.4, "receiver_max_depth_m": 0.455, "kind": "manhole"}}, {"type": "Feature", "geometry": {"type": "Point", "coordinates": [77.1034694, 28.4200892]}, "properties": {"rank": 133.0, "onset_min": 551.6, "peak_min": 551.6, "peak_fill_ratio": 188.6973208456024, "peak_storage_depth_m": 5.2859954833984375, "peak_volume_m3": 222.8, "peak_cumulative_backflow_m3": 222.8, "storage_capacity_m3": 1.1807268857955933, "receiver_persistence_min": 267.5, "receiver_max_depth_m": 0.354, "kind": "manhole"}}, {"type": "Feature", "geometry": {"type": "Point", "coordinates": [77.0796252, 28.4378032]}, "properties": {"rank": 134.0, "onset_min": 591.7, "peak_min": 591.7, "peak_fill_ratio": 294.91410134254954, "peak_storage_depth_m": 1.5114288330078125, "peak_volume_m3": 185.3, "peak_cumulative_backflow_m3": 185.3, "storage_capacity_m3": 0.6283185482025146, "receiver_persistence_min": 296.2, "receiver_max_depth_m": 0.359, "kind": "manhole"}}, {"type": "Feature", "geometry": {"type": "Point", "coordinates": [77.0718278, 28.4499143]}, "properties": {"rank": 135.0, "onset_min": 637.2, "peak_min": 637.2, "peak_fill_ratio": 97.19061997459339, "peak_storage_depth_m": 2.371978759765625, "peak_volume_m3": 137.4, "peak_cumulative_backflow_m3": 137.4, "storage_capacity_m3": 1.4137166738510132, "receiver_persistence_min": 288.9, "receiver_max_depth_m": 0.408, "kind": "manhole"}}, {"type": "Feature", "geometry": {"type": "Point", "coordinates": [77.0486877, 28.4113417]}, "properties": {"rank": 136.0, "onset_min": 533.0, "peak_min": 533.0, "peak_fill_ratio": 135.8612816372637, "peak_storage_depth_m": 0.9761505126953125, "peak_volume_m3": 260.0, "peak_cumulative_backflow_m3": 260.0, "storage_capacity_m3": 1.9137166738510132, "receiver_persistence_min": 273.8, "receiver_max_depth_m": 0.31, "kind": "manhole"}}, {"type": "Feature", "geometry": {"type": "Point", "coordinates": [77.1028113, 28.4200023]}, "properties": {"rank": 137.0, "onset_min": 712.4, "peak_min": 712.4, "peak_fill_ratio": 144.2115006616408, "peak_storage_depth_m": 0.9675140380859375, "peak_volume_m3": 102.6, "peak_cumulative_backflow_m3": 102.6, "storage_capacity_m3": 0.7114550471305847, "receiver_persistence_min": 265.9, "receiver_max_depth_m": 0.419, "kind": "manhole"}}, {"type": "Feature", "geometry": {"type": "Point", "coordinates": [77.0985302, 28.4220716]}, "properties": {"rank": 138.0, "onset_min": 533.0, "peak_min": 533.0, "peak_fill_ratio": 1018.2733941631286, "peak_storage_depth_m": 1.17144775390625, "peak_volume_m3": 319.9, "peak_cumulative_backflow_m3": 319.9, "storage_capacity_m3": 0.31415924429893494, "receiver_persistence_min": 218.9, "receiver_max_depth_m": 0.33, "kind": "manhole"}}, {"type": "Feature", "geometry": {"type": "Point", "coordinates": [77.0404008, 28.4455482]}, "properties": {"rank": 139.0, "onset_min": 640.3, "peak_min": 640.3, "peak_fill_ratio": 76.54457433641437, "peak_storage_depth_m": 1.7418365478515625, "peak_volume_m3": 212.0, "peak_cumulative_backflow_m3": 212.0, "storage_capacity_m3": 2.7696280479431152, "receiver_persistence_min": 264.6, "receiver_max_depth_m": 0.333, "kind": "manhole"}}, {"type": "Feature", "geometry": {"type": "Point", "coordinates": [77.0402611, 28.5071449]}, "properties": {"rank": 140.0, "onset_min": 560.4, "peak_min": 560.4, "peak_fill_ratio": 109.21566950111114, "peak_storage_depth_m": 0.6360931396484375, "peak_volume_m3": 154.4, "peak_cumulative_backflow_m3": 154.4, "storage_capacity_m3": 1.4137165546417236, "receiver_persistence_min": 321.9, "receiver_max_depth_m": 0.316, "kind": "manhole"}}, {"type": "Feature", "geometry": {"type": "Point", "coordinates": [77.082682, 28.4403439]}, "properties": {"rank": 141.0, "onset_min": 580.3, "peak_min": 580.3, "peak_fill_ratio": 621.9775002950263, "peak_storage_depth_m": 1.258941650390625, "peak_volume_m3": 195.4, "peak_cumulative_backflow_m3": 195.4, "storage_capacity_m3": 0.3141592741012573, "receiver_persistence_min": 265.5, "receiver_max_depth_m": 0.333, "kind": "manhole"}}, {"type": "Feature", "geometry": {"type": "Point", "coordinates": [77.0649313, 28.4342552]}, "properties": {"rank": 142.0, "onset_min": 632.5, "peak_min": 632.5, "peak_fill_ratio": 48.979932373539995, "peak_storage_depth_m": 2.01336669921875, "peak_volume_m3": 123.1, "peak_cumulative_backflow_m3": 123.1, "storage_capacity_m3": 2.5132741928100586, "receiver_persistence_min": 294.7, "receiver_max_depth_m": 0.369, "kind": "manhole"}}, {"type": "Feature", "geometry": {"type": "Point", "coordinates": [77.0924021, 28.4022106]}, "properties": {"rank": 143.0, "onset_min": 545.3, "peak_min": 545.3, "peak_fill_ratio": 0.11249425685647917, "peak_storage_depth_m": 1.730438232421875, "peak_volume_m3": 160.5, "peak_cumulative_backflow_m3": 160.5, "storage_capacity_m3": 1426.739501953125, "receiver_persistence_min": 242.6, "receiver_max_depth_m": 0.382, "kind": "manhole"}}, {"type": "Feature", "geometry": {"type": "Point", "coordinates": [77.0265527, 28.497052]}, "properties": {"rank": 144.0, "onset_min": 563.9, "peak_min": 563.9, "peak_fill_ratio": 319.7422717739784, "peak_storage_depth_m": 1.5474395751953125, "peak_volume_m3": 200.9, "peak_cumulative_backflow_m3": 200.9, "storage_capacity_m3": 0.6283185482025146, "receiver_persistence_min": 274.9, "receiver_max_depth_m": 0.316, "kind": "manhole"}}, {"type": "Feature", "geometry": {"type": "Point", "coordinates": [76.9586703, 28.4700715]}, "properties": {"rank": 145.0, "onset_min": 691.2, "peak_min": 691.2, "peak_fill_ratio": 4.52452527746968, "peak_storage_depth_m": 1.0670000314712524, "peak_volume_m3": 154.6, "peak_cumulative_backflow_m3": 154.6, "storage_capacity_m3": 34.16933059692383, "receiver_persistence_min": 274.0, "receiver_max_depth_m": 0.347, "kind": "manhole"}}, {"type": "Feature", "geometry": {"type": "Point", "coordinates": [77.0700543, 28.4506226]}, "properties": {"rank": 146.0, "onset_min": 648.9, "peak_min": 648.9, "peak_fill_ratio": 108.08389179125088, "peak_storage_depth_m": 2.3236846923828125, "peak_volume_m3": 152.8, "peak_cumulative_backflow_m3": 152.8, "storage_capacity_m3": 1.4137166738510132, "receiver_persistence_min": 213.9, "receiver_max_depth_m": 0.4, "kind": "manhole"}}, {"type": "Feature", "geometry": {"type": "Point", "coordinates": [77.0903669, 28.4625409]}, "properties": {"rank": 147.0, "onset_min": 678.1, "peak_min": 678.1, "peak_fill_ratio": 63.869854765703444, "peak_storage_depth_m": 1.640228271484375, "peak_volume_m3": 122.9, "peak_cumulative_backflow_m3": 122.9, "storage_capacity_m3": 1.9242254495620728, "receiver_persistence_min": 284.9, "receiver_max_depth_m": 0.355, "kind": "manhole"}}, {"type": "Feature", "geometry": {"type": "Point", "coordinates": [77.0024589, 28.3880693]}, "properties": {"rank": 148.0, "onset_min": 565.9, "peak_min": 565.9, "peak_fill_ratio": 62.150003547903715, "peak_storage_depth_m": 1.447662353515625, "peak_volume_m3": 156.2, "peak_cumulative_backflow_m3": 156.2, "storage_capacity_m3": 2.5132741928100586, "receiver_persistence_min": 273.6, "receiver_max_depth_m": 0.323, "kind": "manhole"}}, {"type": "Feature", "geometry": {"type": "Point", "coordinates": [77.0818075, 28.4381104]}, "properties": {"rank": 149.0, "onset_min": 615.9, "peak_min": 615.9, "peak_fill_ratio": 514.7070716361603, "peak_storage_depth_m": 1.50836181640625, "peak_volume_m3": 161.7, "peak_cumulative_backflow_m3": 161.7, "storage_capacity_m3": 0.3141592741012573, "receiver_persistence_min": 239.7, "receiver_max_depth_m": 0.338, "kind": "manhole"}}, {"type": "Feature", "geometry": {"type": "Point", "coordinates": [77.0275182, 28.4719431]}, "properties": {"rank": 150.0, "onset_min": 676.1, "peak_min": 676.1, "peak_fill_ratio": 208.34736898310925, "peak_storage_depth_m": 1.8344573974609375, "peak_volume_m3": 122.8, "peak_cumulative_backflow_m3": 122.8, "storage_capacity_m3": 0.5894002914428711, "receiver_persistence_min": 291.3, "receiver_max_depth_m": 0.306, "kind": "manhole"}}, {"type": "Feature", "geometry": {"type": "Point", "coordinates": [77.0296863, 28.3878445]}, "properties": {"rank": 151.0, "onset_min": 619.7, "peak_min": 619.7, "peak_fill_ratio": 2.559347142342329, "peak_storage_depth_m": 0.8999999761581421, "peak_volume_m3": 124.0, "peak_cumulative_backflow_m3": 124.0, "storage_capacity_m3": 48.44985580444336, "receiver_persistence_min": 231.6, "receiver_max_depth_m": 0.346, "kind": "manhole"}}, {"type": "Feature", "geometry": {"type": "Point", "coordinates": [77.073734, 28.4511328]}, "properties": {"rank": 152.0, "onset_min": 673.7, "peak_min": 673.7, "peak_fill_ratio": 81.55806756237712, "peak_storage_depth_m": 2.349822998046875, "peak_volume_m3": 115.3, "peak_cumulative_backflow_m3": 115.3, "storage_capacity_m3": 1.4137166738510132, "receiver_persistence_min": 248.7, "receiver_max_depth_m": 0.317, "kind": "manhole"}}]}