{"type": "FeatureCollection", "features": [{"type": "Feature", "geometry": {"type": "Point", "coordinates": [77.097505, 28.4244884]}, "properties": {"outfall_id": "PO-001", "outfall_class": "probable nallah/creek connection", "city_side": "eastern side", "terrain_elev_m": 241.91, "basis": "1 CREEKS", "pt_kind": "outfall"}}, {"type": "Feature", "geometry": {"type": "Point", "coordinates": [77.0975911, 28.424636]}, "properties": {"outfall_id": "PO-002", "outfall_class": "probable nallah/creek connection", "city_side": "eastern side", "terrain_elev_m": 241.966, "basis": "1 CREEKS", "pt_kind": "outfall"}}, {"type": "Feature", "geometry": {"type": "Point", "coordinates": [77.1003271, 28.4263631]}, "properties": {"outfall_id": "PO-003", "outfall_class": "probable nallah/creek connection", "city_side": "eastern side", "terrain_elev_m": 242.0, "basis": "1 CREEKS", "pt_kind": "outfall"}}, {"type": "Feature", "geometry": {"type": "Point", "coordinates": [77.1017102, 28.426976]}, "properties": {"outfall_id": "PO-004", "outfall_class": "probable nallah/creek connection", "city_side": "eastern side", "terrain_elev_m": 243.0, "basis": "1 CREEKS", "pt_kind": "outfall"}}, {"type": "Feature", "geometry": {"type": "Point", "coordinates": [77.1022206, 28.4276202]}, "properties": {"outfall_id": "PO-005", "outfall_class": "probable nallah/creek connection", "city_side": "eastern side", "terrain_elev_m": 244.561, "basis": "1 CREEKS", "pt_kind": "outfall"}}, {"type": "Feature", "geometry": {"type": "Point", "coordinates": [77.0913087, 28.4298903]}, "properties": {"outfall_id": "PO-006", "outfall_class": "probable trunk-drain connection", "city_side": "eastern side", "terrain_elev_m": 240.703, "basis": "2 END POINT LAST GMDA", "pt_kind": "outfall"}}, {"type": "Feature", "geometry": {"type": "Point", "coordinates": [77.0946649, 28.4309045]}, "properties": {"outfall_id": "PO-007", "outfall_class": "probable trunk-drain connection", "city_side": "eastern side", "terrain_elev_m": 243.869, "basis": "2 END POINT LAST GMDA", "pt_kind": "outfall"}}, {"type": "Feature", "geometry": {"type": "Point", "coordinates": [77.1089892, 28.4309228]}, "properties": {"outfall_id": "PO-008", "outfall_class": "probable nallah/creek connection", "city_side": "eastern side", "terrain_elev_m": 250.5, "basis": "1 CREEKS", "pt_kind": "outfall"}}, {"type": "Feature", "geometry": {"type": "Point", "coordinates": [77.0909671, 28.4314928]}, "properties": {"outfall_id": "PO-009", "outfall_class": "probable trunk-drain connection", "city_side": "eastern side", "terrain_elev_m": 243.337, "basis": "2 END POINT LAST GMDA", "pt_kind": "outfall"}}, {"type": "Feature", "geometry": {"type": "Point", "coordinates": [77.0906851, 28.4501461]}, "properties": {"outfall_id": "PO-010", "outfall_class": "probable nallah/creek connection", "city_side": "eastern side", "terrain_elev_m": 244.702, "basis": "1 CREEKS", "pt_kind": "outfall"}}, {"type": "Feature", "geometry": {"type": "Point", "coordinates": [77.0896209, 28.4559016]}, "properties": {"outfall_id": "PO-011", "outfall_class": "probable nallah/creek connection", "city_side": "eastern side", "terrain_elev_m": 249.179, "basis": "1 CREEKS", "pt_kind": "outfall"}}, {"type": "Feature", "geometry": {"type": "Point", "coordinates": [77.0967847, 28.459066]}, "properties": {"outfall_id": "PO-012", "outfall_class": "probable trunk-drain connection", "city_side": "eastern side", "terrain_elev_m": 250.0, "basis": "1 GMDA LINE NOT SHOWN", "pt_kind": "outfall"}}, {"type": "Feature", "geometry": {"type": "Point", "coordinates": [77.0688687, 28.4549409]}, "properties": {"outfall_id": "PO-013", "outfall_class": "probable trunk-drain connection", "city_side": "central city", "terrain_elev_m": 245.209, "basis": "1 GMDA LINE NOT SHOWN", "pt_kind": "outfall"}}, {"type": "Feature", "geometry": {"type": "Point", "coordinates": [77.089835, 28.4624635]}, "properties": {"outfall_id": "PO-014", "outfall_class": "probable nallah/creek connection", "city_side": "eastern side", "terrain_elev_m": 247.828, "basis": "1 (CREEKS)", "pt_kind": "outfall"}}, {"type": "Feature", "geometry": {"type": "Point", "coordinates": [77.0924238, 28.4625358]}, "properties": {"outfall_id": "PO-015", "outfall_class": "probable nallah/creek connection", "city_side": "eastern side", "terrain_elev_m": 248.98, "basis": "1 CREEKS", "pt_kind": "outfall"}}, {"type": "Feature", "geometry": {"type": "Point", "coordinates": [77.0878841, 28.4678184]}, "properties": {"outfall_id": "PO-016", "outfall_class": "probable nallah/creek connection", "city_side": "eastern side", "terrain_elev_m": 246.67, "basis": "1 (CREEKS)", "pt_kind": "outfall"}}, {"type": "Feature", "geometry": {"type": "Point", "coordinates": [77.0882749, 28.4680551]}, "properties": {"outfall_id": "PO-017", "outfall_class": "probable trunk-drain connection", "city_side": "eastern side", "terrain_elev_m": 245.804, "basis": "1 (PIPE DRAIN GMDA SIZE 1200 MM)", "pt_kind": "outfall"}}, {"type": "Feature", "geometry": {"type": "Point", "coordinates": [77.0877326, 28.4681184]}, "properties": {"outfall_id": "PO-018", "outfall_class": "probable nallah/creek connection", "city_side": "eastern side", "terrain_elev_m": 247.152, "basis": "1 (CREEKS)", "pt_kind": "outfall"}}, {"type": "Feature", "geometry": {"type": "Point", "coordinates": [77.0256849, 28.3752681]}, "properties": {"outfall_id": "PO-019", "outfall_class": "probable pond connection", "city_side": "central city", "terrain_elev_m": 231.18, "basis": "2 IN POND", "pt_kind": "outfall"}}, {"type": "Feature", "geometry": {"type": "Point", "coordinates": [77.0321448, 28.4489066]}, "properties": {"outfall_id": "PO-020", "outfall_class": "probable trunk-drain connection", "city_side": "central city", "terrain_elev_m": 226.256, "basis": "1 GMDA LINE NOT SHOWN", "pt_kind": "outfall"}}, {"type": "Feature", "geometry": {"type": "Point", "coordinates": [77.0286807, 28.4565973]}, "properties": {"outfall_id": "PO-021", "outfall_class": "probable trunk-drain connection", "city_side": "central city", "terrain_elev_m": 226.356, "basis": "1 GMDA LINE NOT SHOWN", "pt_kind": "outfall"}}, {"type": "Feature", "geometry": {"type": "Point", "coordinates": [77.0277583, 28.4578613]}, "properties": {"outfall_id": "PO-022", "outfall_class": "probable trunk-drain connection", "city_side": "central city", "terrain_elev_m": 224.838, "basis": "1 GMDA LINE NOT SHOWN", "pt_kind": "outfall"}}, {"type": "Feature", "geometry": {"type": "Point", "coordinates": [77.0159994, 28.456928]}, "properties": {"outfall_id": "PO-023", "outfall_class": "probable trunk-drain connection", "city_side": "western side", "terrain_elev_m": 223.5, "basis": "1 GMDA LINE NOT SHOWN", "pt_kind": "outfall"}}, {"type": "Feature", "geometry": {"type": "Point", "coordinates": [76.9795774, 28.4625185]}, "properties": {"outfall_id": "PO-024", "outfall_class": "probable open-drain exit", "city_side": "western side", "terrain_elev_m": 219.571, "basis": "2 END POINT", "pt_kind": "outfall"}}, {"type": "Feature", "geometry": {"type": "Point", "coordinates": [76.9604953, 28.4700746]}, "properties": {"outfall_id": "PO-025", "outfall_class": "probable trunk-drain connection", "city_side": "western side", "terrain_elev_m": 215.193, "basis": "1 CONNECTED TO GMDA LEG-3 THROUGH ROAD SIDE DRAIN", "pt_kind": "outfall"}}, {"type": "Feature", "geometry": {"type": "Point", "coordinates": [77.0230841, 28.4702811]}, "properties": {"outfall_id": "PO-026", "outfall_class": "probable trunk-drain connection", "city_side": "western side", "terrain_elev_m": 222.148, "basis": "1 GMDA LINE NOT SHOWN", "pt_kind": "outfall"}}, {"type": "Feature", "geometry": {"type": "Point", "coordinates": [77.0198277, 28.4725771]}, "properties": {"outfall_id": "PO-027", "outfall_class": "probable trunk-drain connection", "city_side": "western side", "terrain_elev_m": 221.745, "basis": "1 GMDA LINE NOT SHOWN", "pt_kind": "outfall"}}, {"type": "Feature", "geometry": {"type": "Point", "coordinates": [77.0210772, 28.4776148]}, "properties": {"outfall_id": "PO-028", "outfall_class": "probable trunk-drain connection", "city_side": "western side", "terrain_elev_m": 220.085, "basis": "1 GMDA LINE", "pt_kind": "outfall"}}, {"type": "Feature", "geometry": {"type": "Point", "coordinates": [77.0226348, 28.4798982]}, "properties": {"outfall_id": "PO-029", "outfall_class": "probable trunk-drain connection", "city_side": "western side", "terrain_elev_m": 220.155, "basis": "1 GMDA LINE", "pt_kind": "outfall"}}, {"type": "Feature", "geometry": {"type": "Point", "coordinates": [77.0234519, 28.4816604]}, "properties": {"outfall_id": "PO-030", "outfall_class": "probable trunk-drain connection", "city_side": "western side", "terrain_elev_m": 219.008, "basis": "1 (LEG-2)", "pt_kind": "outfall"}}, {"type": "Feature", "geometry": {"type": "Point", "coordinates": [77.052796, 28.5057761]}, "properties": {"outfall_id": "PO-031", "outfall_class": "probable trunk-drain connection", "city_side": "central city", "terrain_elev_m": 225.983, "basis": "1 (LEG 1)", "pt_kind": "outfall"}}, {"type": "Feature", "geometry": {"type": "Point", "coordinates": [77.0521515, 28.5061715]}, "properties": {"outfall_id": "PO-032", "outfall_class": "probable trunk-drain connection", "city_side": "central city", "terrain_elev_m": 225.808, "basis": "1 (LEG 1)", "pt_kind": "outfall"}}, {"type": "Feature", "geometry": {"type": "Point", "coordinates": [77.0517375, 28.5064309]}, "properties": {"outfall_id": "PO-033", "outfall_class": "probable trunk-drain connection", "city_side": "central city", "terrain_elev_m": 225.258, "basis": "1 (LEG 1)", "pt_kind": "outfall"}}, {"type": "Feature", "geometry": {"type": "Point", "coordinates": [77.049054, 28.5076227]}, "properties": {"outfall_id": "PO-034", "outfall_class": "probable trunk-drain connection", "city_side": "central city", "terrain_elev_m": 225.094, "basis": "1 (LEG 1)", "pt_kind": "outfall"}}, {"type": "Feature", "geometry": {"type": "Point", "coordinates": [77.0480708, 28.5079702]}, "properties": {"outfall_id": "PO-035", "outfall_class": "probable trunk-drain connection", "city_side": "central city", "terrain_elev_m": 221.953, "basis": "1 (LEG 1)", "pt_kind": "outfall"}}, {"type": "Feature", "geometry": {"type": "Point", "coordinates": [77.0465013, 28.5085145]}, "properties": {"outfall_id": "PO-036", "outfall_class": "probable trunk-drain connection", "city_side": "central city", "terrain_elev_m": 222.783, "basis": "1 (LEG 1)", "pt_kind": "outfall"}}, {"type": "Feature", "geometry": {"type": "Point", "coordinates": [77.0565902, 28.5034477]}, "properties": {"outfall_id": "PO-037", "outfall_class": "probable trunk-drain connection", "city_side": "central city", "terrain_elev_m": 227.56, "basis": "1 (LEG 1)", "pt_kind": "outfall"}}, {"type": "Feature", "geometry": {"type": "Point", "coordinates": [76.9906419, 28.5014297]}, "properties": {"outfall_id": "PO-038", "outfall_class": "probable open-drain exit", "city_side": "western side", "terrain_elev_m": 215.797, "basis": "2 END POINT", "pt_kind": "outfall"}}, {"type": "Feature", "geometry": {"type": "Point", "coordinates": [77.0295228, 28.5108219]}, "properties": {"outfall_id": "PO-039", "outfall_class": "probable trunk-drain connection", "city_side": "central city", "terrain_elev_m": 217.411, "basis": "1 (LEG 1)", "pt_kind": "outfall"}}, {"type": "Feature", "geometry": {"type": "Point", "coordinates": [77.0308942, 28.5108935]}, "properties": {"outfall_id": "PO-040", "outfall_class": "probable trunk-drain connection", "city_side": "central city", "terrain_elev_m": 217.868, "basis": "1 (LEG 1)", "pt_kind": "outfall"}}, {"type": "Feature", "geometry": {"type": "Point", "coordinates": [77.0440191, 28.5093739]}, "properties": {"outfall_id": "PO-041", "outfall_class": "probable trunk-drain connection", "city_side": "central city", "terrain_elev_m": 220.749, "basis": "1 (LEG 1)", "pt_kind": "outfall"}}, {"type": "Feature", "geometry": {"type": "Point", "coordinates": [77.0429537, 28.509741]}, "properties": {"outfall_id": "PO-042", "outfall_class": "probable trunk-drain connection", "city_side": "central city", "terrain_elev_m": 219.77, "basis": "1 (LEG 1)", "pt_kind": "outfall"}}, {"type": "Feature", "geometry": {"type": "Point", "coordinates": [77.0423497, 28.5108104]}, "properties": {"outfall_id": "PO-043", "outfall_class": "probable trunk-drain connection", "city_side": "central city", "terrain_elev_m": 220.849, "basis": "2 GMDA LINE", "pt_kind": "outfall"}}, {"type": "Feature", "geometry": {"type": "Point", "coordinates": [77.0442193, 28.5129669]}, "properties": {"outfall_id": "PO-044", "outfall_class": "probable trunk-drain connection", "city_side": "central city", "terrain_elev_m": 220.916, "basis": "2 GMDA LINE", "pt_kind": "outfall"}}, {"type": "Feature", "geometry": {"type": "Point", "coordinates": [77.044768, 28.513614]}, "properties": {"outfall_id": "PO-045", "outfall_class": "probable trunk-drain connection", "city_side": "central city", "terrain_elev_m": 220.969, "basis": "2 GMDA LINE", "pt_kind": "outfall"}}, {"type": "Feature", "geometry": {"type": "Point", "coordinates": [77.1126756, 28.4325609]}, "properties": {"outfall_id": "PO-046", "outfall_class": "probable nallah/creek connection", "city_side": "eastern side", "terrain_elev_m": 253.404, "basis": "Creeks", "pt_kind": "outfall"}}, {"type": "Feature", "geometry": {"type": "Point", "coordinates": [77.0879823, 28.4165187]}, "properties": {"outfall_id": "PO-047", "outfall_class": "probable nallah/creek connection", "city_side": "eastern side", "terrain_elev_m": 235.66, "basis": "Creeks", "pt_kind": "outfall"}}, {"type": "Feature", "geometry": {"type": "Point", "coordinates": [77.1057696, 28.4429195]}, "properties": {"outfall_id": "PO-048", "outfall_class": "probable nallah/creek connection", "city_side": "eastern side", "terrain_elev_m": 253.05, "basis": "Creeks", "pt_kind": "outfall"}}, {"type": "Feature", "geometry": {"type": "Point", "coordinates": [77.0932749, 28.4399505]}, "properties": {"outfall_id": "PO-049", "outfall_class": "probable nallah/creek connection", "city_side": "eastern side", "terrain_elev_m": 245.827, "basis": "Creeks", "pt_kind": "outfall"}}, {"type": "Feature", "geometry": {"type": "Point", "coordinates": [77.1157854, 28.4538061]}, "properties": {"outfall_id": "PO-050", "outfall_class": "probable nallah/creek connection", "city_side": "eastern side", "terrain_elev_m": 278.193, "basis": "Creeks", "pt_kind": "outfall"}}, {"type": "Feature", "geometry": {"type": "Point", "coordinates": [77.0879552, 28.4500303]}, "properties": {"outfall_id": "PO-051", "outfall_class": "probable nallah/creek connection", "city_side": "eastern side", "terrain_elev_m": 245.369, "basis": "Creeks", "pt_kind": "outfall"}}, {"type": "Feature", "geometry": {"type": "Point", "coordinates": [77.0972551, 28.4628908]}, "properties": {"outfall_id": "PO-052", "outfall_class": "probable nallah/creek connection", "city_side": "eastern side", "terrain_elev_m": 251.323, "basis": "Creeks", "pt_kind": "outfall"}}, {"type": "Feature", "geometry": {"type": "Point", "coordinates": [77.0898036, 28.4623787]}, "properties": {"outfall_id": "PO-053", "outfall_class": "probable nallah/creek connection", "city_side": "eastern side", "terrain_elev_m": 248.305, "basis": "Creeks", "pt_kind": "outfall"}}, {"type": "Feature", "geometry": {"type": "Point", "coordinates": [76.9587927, 28.4802977]}, "properties": {"outfall_id": "PO-054", "outfall_class": "probable nallah/creek connection", "city_side": "western side", "terrain_elev_m": 213.198, "basis": "Khachha Drain Running", "pt_kind": "outfall"}}, {"type": "Feature", "geometry": {"type": "Point", "coordinates": [76.9470258, 28.5047791]}, "properties": {"outfall_id": "PO-055", "outfall_class": "probable nallah/creek connection", "city_side": "western side", "terrain_elev_m": 211.429, "basis": "Khachha Drain Running", "pt_kind": "outfall"}}, {"type": "Feature", "geometry": {"type": "Point", "coordinates": [76.9995309, 28.466711]}, "properties": {"outfall_id": "PO-056", "outfall_class": "probable open-drain exit", "city_side": "western side", "terrain_elev_m": 215.136, "basis": "OPEN DRAIN terminal on western side", "pt_kind": "outfall"}}, {"type": "Feature", "geometry": {"type": "Point", "coordinates": [76.9954193, 28.4655013]}, "properties": {"outfall_id": "PO-057", "outfall_class": "probable open-drain exit", "city_side": "western side", "terrain_elev_m": 214.785, "basis": "OPEN DRAIN terminal on western side", "pt_kind": "outfall"}}, {"type": "Feature", "geometry": {"type": "Point", "coordinates": [77.0063871, 28.4731542]}, "properties": {"outfall_id": "PO-058", "outfall_class": "probable open-drain exit", "city_side": "western side", "terrain_elev_m": 218.645, "basis": "OPEN DRAIN terminal on western side", "pt_kind": "outfall"}}, {"type": "Feature", "geometry": {"type": "Point", "coordinates": [77.0039507, 28.4723114]}, "properties": {"outfall_id": "PO-059", "outfall_class": "probable open-drain exit", "city_side": "western side", "terrain_elev_m": 216.76, "basis": "OPEN DRAIN terminal on western side", "pt_kind": "outfall"}}, {"type": "Feature", "geometry": {"type": "Point", "coordinates": [77.0105679, 28.4738184]}, "properties": {"outfall_id": "PO-060", "outfall_class": "probable open-drain exit", "city_side": "western side", "terrain_elev_m": 217.362, "basis": "OPEN DRAIN terminal on western side", "pt_kind": "outfall"}}, {"type": "Feature", "geometry": {"type": "Point", "coordinates": [77.0067341, 28.4723795]}, "properties": {"outfall_id": "PO-061", "outfall_class": "probable open-drain exit", "city_side": "western side", "terrain_elev_m": 217.48, "basis": "OPEN DRAIN terminal on western side", "pt_kind": "outfall"}}, {"type": "Feature", "geometry": {"type": "Point", "coordinates": [77.0059069, 28.4742416]}, "properties": {"outfall_id": "PO-062", "outfall_class": "probable open-drain exit", "city_side": "western side", "terrain_elev_m": 218.157, "basis": "OPEN DRAIN terminal on western side", "pt_kind": "outfall"}}, {"type": "Feature", "geometry": {"type": "Point", "coordinates": [77.0117844, 28.4713105]}, "properties": {"outfall_id": "PO-063", "outfall_class": "probable open-drain exit", "city_side": "western side", "terrain_elev_m": 220.003, "basis": "OPEN DRAIN terminal on western side", "pt_kind": "outfall"}}, {"type": "Feature", "geometry": {"type": "Point", "coordinates": [77.0093314, 28.4754856]}, "properties": {"outfall_id": "PO-064", "outfall_class": "probable open-drain exit", "city_side": "western side", "terrain_elev_m": 217.235, "basis": "OPEN DRAIN terminal on western side", "pt_kind": "outfall"}}, {"type": "Feature", "geometry": {"type": "Point", "coordinates": [77.015678, 28.4731524]}, "properties": {"outfall_id": "PO-065", "outfall_class": "probable open-drain exit", "city_side": "western side", "terrain_elev_m": 219.593, "basis": "OPEN DRAIN terminal on western side", "pt_kind": "outfall"}}, {"type": "Feature", "geometry": {"type": "Point", "coordinates": [77.0148903, 28.4748322]}, "properties": {"outfall_id": "PO-066", "outfall_class": "probable open-drain exit", "city_side": "western side", "terrain_elev_m": 220.879, "basis": "OPEN DRAIN terminal on western side", "pt_kind": "outfall"}}, {"type": "Feature", "geometry": {"type": "Point", "coordinates": [77.0109706, 28.4730984]}, "properties": {"outfall_id": "PO-067", "outfall_class": "probable open-drain exit", "city_side": "western side", "terrain_elev_m": 217.804, "basis": "OPEN DRAIN terminal on western side", "pt_kind": "outfall"}}]}