{"type": "FeatureCollection", "features": [{"type": "Feature", "geometry": {"type": "Point", "coordinates": [77.001353, 28.425089]}, "properties": {"pump_id": "MCG-ACTUAL-PUMP-001", "ward_source": "", "department": "GMDA", "pump_location_name": "NH 48 Narsingpur (LHS) DG No. 1", "pump_type": "160 KVA/70 HP", "assigned_capacity_lps": 83.33333333333333, "capacity_lpm_total": 5000.0, "actual_pump_count": 1.0, "activation_depth_m": 0.25, "stop_depth_m": 0.15, "outlet_discharge_point": "Leg- III NH48", "nearest_landmark": "NH 48 Narsingpur (LHS) DG No. 1", "kind": "pump"}}, {"type": "Feature", "geometry": {"type": "Point", "coordinates": [77.000815, 28.424463]}, "properties": {"pump_id": "MCG-ACTUAL-PUMP-002", "ward_source": "", "department": "GMDA", "pump_location_name": "NH 48 Narsingpur (LHS) DG No. 2", "pump_type": "125 KVA/50 HP", "assigned_capacity_lps": 50.0, "capacity_lpm_total": 3000.0, "actual_pump_count": 1.0, "activation_depth_m": 0.25, "stop_depth_m": 0.15, "outlet_discharge_point": "Leg- III NH48", "nearest_landmark": "NH 48 Narsingpur (LHS) DG No. 2", "kind": "pump"}}, {"type": "Feature", "geometry": {"type": "Point", "coordinates": [76.99647, 28.416853]}, "properties": {"pump_id": "MCG-ACTUAL-PUMP-003", "ward_source": "", "department": "GMDA", "pump_location_name": "NH 48 Narsingpur T Point (LHS)", "pump_type": "160 KVA/65 HP", "assigned_capacity_lps": 66.66666666666667, "capacity_lpm_total": 4000.0, "actual_pump_count": 1.0, "activation_depth_m": 0.25, "stop_depth_m": 0.15, "outlet_discharge_point": "Leg- III NH48", "nearest_landmark": "NH 48 Narsingpur T Point (LHS)", "kind": "pump"}}, {"type": "Feature", "geometry": {"type": "Point", "coordinates": [77.036925, 28.443247]}, "properties": {"pump_id": "MCG-ACTUAL-PUMP-004", "ward_source": "", "department": "GMDA", "pump_location_name": "TDL Stadium", "pump_type": "125 KVA/50 HP", "assigned_capacity_lps": 50.0, "capacity_lpm_total": 3000.0, "actual_pump_count": 1.0, "activation_depth_m": 0.25, "stop_depth_m": 0.15, "outlet_discharge_point": "Master drain", "nearest_landmark": "TDL Stadium", "kind": "pump"}}, {"type": "Feature", "geometry": {"type": "Point", "coordinates": [77.03538, 28.441367]}, "properties": {"pump_id": "MCG-ACTUAL-PUMP-005", "ward_source": "", "department": "GMDA", "pump_location_name": "TDL Stadium", "pump_type": "62 KVA/20 HP", "assigned_capacity_lps": 11.666666666666666, "capacity_lpm_total": 700.0, "actual_pump_count": 1.0, "activation_depth_m": 0.25, "stop_depth_m": 0.15, "outlet_discharge_point": "Master drain", "nearest_landmark": "TDL Stadium", "kind": "pump"}}, {"type": "Feature", "geometry": {"type": "Point", "coordinates": [76.963565, 28.422714]}, "properties": {"pump_id": "MCG-ACTUAL-PUMP-006", "ward_source": "", "department": "GMDA", "pump_location_name": "Box Drain (near Dwarka road Sector 36 B", "pump_type": "125 KVA/50 HP+20 HP", "assigned_capacity_lps": 61.666666666666664, "capacity_lpm_total": 3700.0, "actual_pump_count": 2.0, "activation_depth_m": 0.25, "stop_depth_m": 0.15, "outlet_discharge_point": "CETP Channel Manesar", "nearest_landmark": "Box Drain (near Dwarka road Sector 36 B", "kind": "pump"}}, {"type": "Feature", "geometry": {"type": "Point", "coordinates": [76.998159, 28.420961]}, "properties": {"pump_id": "MCG-ACTUAL-PUMP-007", "ward_source": "", "department": "GMDA", "pump_location_name": "ABD wine Factory (RHS)", "pump_type": "160 KVA/70 HP", "assigned_capacity_lps": 83.33333333333333, "capacity_lpm_total": 5000.0, "actual_pump_count": 1.0, "activation_depth_m": 0.25, "stop_depth_m": 0.15, "outlet_discharge_point": "Leg- III NH48", "nearest_landmark": "ABD wine Factory (RHS)", "kind": "pump"}}, {"type": "Feature", "geometry": {"type": "Point", "coordinates": [77.000815, 28.424463]}, "properties": {"pump_id": "MCG-ACTUAL-PUMP-008", "ward_source": "", "department": "GMDA", "pump_location_name": "NH-48 Narsingpur near Sunbeam Factory DG No. 3", "pump_type": "125 KVA/50 HP", "assigned_capacity_lps": 50.0, "capacity_lpm_total": 3000.0, "actual_pump_count": 1.0, "activation_depth_m": 0.25, "stop_depth_m": 0.15, "outlet_discharge_point": "Leg- III NH48", "nearest_landmark": "NH-48 Narsingpur near Sunbeam Factory DG No. 3", "kind": "pump"}}, {"type": "Feature", "geometry": {"type": "Point", "coordinates": [77.00081, 28.42446]}, "properties": {"pump_id": "MCG-ACTUAL-PUMP-009", "ward_source": "", "department": "GMDA", "pump_location_name": "NH-48 Narsingpur DG No. 3", "pump_type": "160 KVA/70 HP", "assigned_capacity_lps": 83.33333333333333, "capacity_lpm_total": 5000.0, "actual_pump_count": 1.0, "activation_depth_m": 0.25, "stop_depth_m": 0.15, "outlet_discharge_point": "Leg- III NH48", "nearest_landmark": "NH-48 Narsingpur DG No. 3", "kind": "pump"}}, {"type": "Feature", "geometry": {"type": "Point", "coordinates": [77.007338, 28.437806]}, "properties": {"pump_id": "MCG-ACTUAL-PUMP-010", "ward_source": "", "department": "GMDA", "pump_location_name": "Khandsa Chowk", "pump_type": "160 KVA/70 HP", "assigned_capacity_lps": 83.33333333333333, "capacity_lpm_total": 5000.0, "actual_pump_count": 1.0, "activation_depth_m": 0.25, "stop_depth_m": 0.15, "outlet_discharge_point": "Basai drain", "nearest_landmark": "Khandsa Chowk", "kind": "pump"}}, {"type": "Feature", "geometry": {"type": "Point", "coordinates": [77.007338, 28.437806]}, "properties": {"pump_id": "MCG-ACTUAL-PUMP-011", "ward_source": "", "department": "GMDA", "pump_location_name": "Khandsa Chowk", "pump_type": "62 KVA/20 HP", "assigned_capacity_lps": 11.666666666666666, "capacity_lpm_total": 700.0, "actual_pump_count": 1.0, "activation_depth_m": 0.25, "stop_depth_m": 0.15, "outlet_discharge_point": "Basai drain", "nearest_landmark": "Khandsa Chowk", "kind": "pump"}}, {"type": "Feature", "geometry": {"type": "Point", "coordinates": [77.007338, 28.437806]}, "properties": {"pump_id": "MCG-ACTUAL-PUMP-012", "ward_source": "", "department": "GMDA", "pump_location_name": "Khandsa Chowk", "pump_type": "125 KVA/50 HP", "assigned_capacity_lps": 50.0, "capacity_lpm_total": 3000.0, "actual_pump_count": 1.0, "activation_depth_m": 0.25, "stop_depth_m": 0.15, "outlet_discharge_point": "Basai drain", "nearest_landmark": "Khandsa Chowk", "kind": "pump"}}, {"type": "Feature", "geometry": {"type": "Point", "coordinates": [76.996959, 28.418577]}, "properties": {"pump_id": "MCG-ACTUAL-PUMP-013", "ward_source": "", "department": "GMDA", "pump_location_name": "Mohamadpur RHS", "pump_type": "62 KVA/20 HP", "assigned_capacity_lps": 11.666666666666666, "capacity_lpm_total": 700.0, "actual_pump_count": 1.0, "activation_depth_m": 0.25, "stop_depth_m": 0.15, "outlet_discharge_point": "Leg - via kacha drain", "nearest_landmark": "Mohamadpur RHS", "kind": "pump"}}, {"type": "Feature", "geometry": {"type": "Point", "coordinates": [76.996959, 28.418577]}, "properties": {"pump_id": "MCG-ACTUAL-PUMP-014", "ward_source": "", "department": "GMDA", "pump_location_name": "Mohamadpur RHS DG No.1", "pump_type": "125 KVA/50 HP", "assigned_capacity_lps": 50.0, "capacity_lpm_total": 3000.0, "actual_pump_count": 1.0, "activation_depth_m": 0.25, "stop_depth_m": 0.15, "outlet_discharge_point": "Leg - via kacha drain", "nearest_landmark": "Mohamadpur RHS DG No.1", "kind": "pump"}}, {"type": "Feature", "geometry": {"type": "Point", "coordinates": [77.054796, 28.389972]}, "properties": {"pump_id": "MCG-ACTUAL-PUMP-015", "ward_source": "", "department": "GMDA", "pump_location_name": "Sector 67 (near Bestech", "pump_type": "125 KVA/50 HP", "assigned_capacity_lps": 50.0, "capacity_lpm_total": 3000.0, "actual_pump_count": 1.0, "activation_depth_m": 0.25, "stop_depth_m": 0.15, "outlet_discharge_point": "Master drain", "nearest_landmark": "Sector 67 (near Bestech", "kind": "pump"}}, {"type": "Feature", "geometry": {"type": "Point", "coordinates": [77.09205, 28.511971]}, "properties": {"pump_id": "MCG-ACTUAL-PUMP-016", "ward_source": "", "department": "GMDA", "pump_location_name": "Delhi toll", "pump_type": "62 KVA/20 HP", "assigned_capacity_lps": 11.666666666666666, "capacity_lpm_total": 700.0, "actual_pump_count": 1.0, "activation_depth_m": 0.25, "stop_depth_m": 0.15, "outlet_discharge_point": "Open land", "nearest_landmark": "Delhi toll", "kind": "pump"}}, {"type": "Feature", "geometry": {"type": "Point", "coordinates": [77.01131, 28.429891]}, "properties": {"pump_id": "MCG-ACTUAL-PUMP-017", "ward_source": "", "department": "GMDA", "pump_location_name": "Leg-III Sector 34 Inside", "pump_type": "125 KVA/20 HP+20 HP", "assigned_capacity_lps": 23.333333333333332, "capacity_lpm_total": 1400.0, "actual_pump_count": 2.0, "activation_depth_m": 0.25, "stop_depth_m": 0.15, "outlet_discharge_point": "Leg- III", "nearest_landmark": "Leg-III Sector 34 Inside", "kind": "pump"}}, {"type": "Feature", "geometry": {"type": "Point", "coordinates": [77.00603, 28.430781]}, "properties": {"pump_id": "MCG-ACTUAL-PUMP-018", "ward_source": "", "department": "GMDA", "pump_location_name": "Khandsa Culvet Leg No. 3", "pump_type": "125 KVA/20 HP+20 HP", "assigned_capacity_lps": 23.333333333333332, "capacity_lpm_total": 1400.0, "actual_pump_count": 2.0, "activation_depth_m": 0.25, "stop_depth_m": 0.15, "outlet_discharge_point": "Leg- III", "nearest_landmark": "Khandsa Culvet Leg No. 3", "kind": "pump"}}, {"type": "Feature", "geometry": {"type": "Point", "coordinates": [76.99647, 28.416853]}, "properties": {"pump_id": "MCG-ACTUAL-PUMP-019", "ward_source": "", "department": "GMDA", "pump_location_name": "NH 48 Narsingpur (LHS) 1st sump well", "pump_type": "125 KVA/50 HP", "assigned_capacity_lps": 50.0, "capacity_lpm_total": 3000.0, "actual_pump_count": 1.0, "activation_depth_m": 0.25, "stop_depth_m": 0.15, "outlet_discharge_point": "Leg- III", "nearest_landmark": "NH 48 Narsingpur (LHS) 1st sump well", "kind": "pump"}}, {"type": "Feature", "geometry": {"type": "Point", "coordinates": [76.996959, 28.418577]}, "properties": {"pump_id": "MCG-ACTUAL-PUMP-020", "ward_source": "", "department": "GMDA", "pump_location_name": "Narsingpur Mohamadpur RHS DG No. 2", "pump_type": "125 KVA/50 HP", "assigned_capacity_lps": 50.0, "capacity_lpm_total": 3000.0, "actual_pump_count": 1.0, "activation_depth_m": 0.25, "stop_depth_m": 0.15, "outlet_discharge_point": "Leg- III via kacha drain", "nearest_landmark": "Narsingpur Mohamadpur RHS DG No. 2", "kind": "pump"}}, {"type": "Feature", "geometry": {"type": "Point", "coordinates": [76.988813, 28.46734]}, "properties": {"pump_id": "MCG-ACTUAL-PUMP-021", "ward_source": "", "department": "GMDA", "pump_location_name": "Sector 9A near Railway line", "pump_type": "62 KVA/20 HP", "assigned_capacity_lps": 11.666666666666666, "capacity_lpm_total": 700.0, "actual_pump_count": 1.0, "activation_depth_m": 0.25, "stop_depth_m": 0.15, "outlet_discharge_point": "Basai drain", "nearest_landmark": "Sector 9A near Railway line", "kind": "pump"}}, {"type": "Feature", "geometry": {"type": "Point", "coordinates": [76.996105, 28.450727]}, "properties": {"pump_id": "MCG-ACTUAL-PUMP-022", "ward_source": "", "department": "GMDA", "pump_location_name": "City Bus Stand Sector 10", "pump_type": "125 KVA/50 HP", "assigned_capacity_lps": 50.0, "capacity_lpm_total": 3000.0, "actual_pump_count": 1.0, "activation_depth_m": 0.25, "stop_depth_m": 0.15, "outlet_discharge_point": "Basai drain", "nearest_landmark": "City Bus Stand Sector 10", "kind": "pump"}}, {"type": "Feature", "geometry": {"type": "Point", "coordinates": [77.03538, 28.441367]}, "properties": {"pump_id": "MCG-ACTUAL-PUMP-023", "ward_source": "", "department": "GMDA", "pump_location_name": "TDL Stadium", "pump_type": "250 KVA/70 HP+35 HP", "assigned_capacity_lps": 103.33333333333333, "capacity_lpm_total": 6200.0, "actual_pump_count": 2.0, "activation_depth_m": 0.25, "stop_depth_m": 0.15, "outlet_discharge_point": "Master drain", "nearest_landmark": "TDL Stadium", "kind": "pump"}}, {"type": "Feature", "geometry": {"type": "Point", "coordinates": [77.0334711, 28.463796]}, "properties": {"pump_id": "MCG-ACTUAL-PUMP-025", "ward_source": "", "department": "PWD & BR", "pump_location_name": "Mahavir Chowk", "pump_type": "D.G Set", "assigned_capacity_lps": 11.666666666666666, "capacity_lpm_total": 700.0, "actual_pump_count": 2.0, "activation_depth_m": 0.25, "stop_depth_m": 0.15, "outlet_discharge_point": "Road side drain", "nearest_landmark": "Mahavir Chowk", "kind": "pump"}}, {"type": "Feature", "geometry": {"type": "Point", "coordinates": [77.036883, 28.427858]}, "properties": {"pump_id": "MCG-ACTUAL-PUMP-026", "ward_source": "", "department": "NHAI(PD Rewari)", "pump_location_name": "Subhash Chowk, Ch. 1+950 Subhash Chowk underpass", "pump_type": "Mud/Sewerage pump", "assigned_capacity_lps": 46.666666666666664, "capacity_lpm_total": 2800.0, "actual_pump_count": 4.0, "activation_depth_m": 0.25, "stop_depth_m": 0.15, "outlet_discharge_point": "Highway Storm water drain near Subhash chowk underpass", "nearest_landmark": "Subhash Chowk, Ch. 1+950 Subhash Chowk underpass", "kind": "pump"}}, {"type": "Feature", "geometry": {"type": "Point", "coordinates": [77.044992, 28.401495]}, "properties": {"pump_id": "MCG-ACTUAL-PUMP-027", "ward_source": "", "department": "NHAI(PD Rewari)", "pump_location_name": "Vatika Chowk, Ch. 5+033 Vatika Chowk underpass", "pump_type": "Mud/Sewerage pump", "assigned_capacity_lps": 23.333333333333332, "capacity_lpm_total": 1400.0, "actual_pump_count": 2.0, "activation_depth_m": 0.25, "stop_depth_m": 0.15, "outlet_discharge_point": "Service road/Highway drainage", "nearest_landmark": "Vatika Chowk, Ch. 5+033 Vatika Chowk underpass", "kind": "pump"}}, {"type": "Feature", "geometry": {"type": "Point", "coordinates": [77.050847, 28.388981]}, "properties": {"pump_id": "MCG-ACTUAL-PUMP-028", "ward_source": "", "department": "NHAI(PD Rewari)", "pump_location_name": "Badshahpur, Ch. 6+560 L/S, Kadarpur Mod (Pillar no. 93)", "pump_type": "Mud/Sewerage pump", "assigned_capacity_lps": 11.666666666666666, "capacity_lpm_total": 700.0, "actual_pump_count": 1.0, "activation_depth_m": 0.25, "stop_depth_m": 0.15, "outlet_discharge_point": "Highway Storm water drain", "nearest_landmark": "Badshahpur, Ch. 6+560 L/S, Kadarpur Mod (Pillar no. 93)", "kind": "pump"}}, {"type": "Feature", "geometry": {"type": "Point", "coordinates": [77.050395, 28.388779]}, "properties": {"pump_id": "MCG-ACTUAL-PUMP-029", "ward_source": "", "department": "NHAI(PD Rewari)", "pump_location_name": "Badshahpur, Ch. 6+560 L/S, Kadarpur Mod (Pillar no. 93)", "pump_type": "Mud/Sewerage pump", "assigned_capacity_lps": 15.0, "capacity_lpm_total": 900.0, "actual_pump_count": 1.0, "activation_depth_m": 0.25, "stop_depth_m": 0.15, "outlet_discharge_point": "Highway Storm water drain", "nearest_landmark": "Badshahpur, Ch. 6+560 L/S, Kadarpur Mod (Pillar no. 93)", "kind": "pump"}}, {"type": "Feature", "geometry": {"type": "Point", "coordinates": [77.051794, 28.386596]}, "properties": {"pump_id": "MCG-ACTUAL-PUMP-030", "ward_source": "", "department": "NHAI(PD Rewari)", "pump_location_name": "Badshahpur, Ch. 6+830 R/S, Service road, Badshahpur (Pillar no. 100)", "pump_type": "Mud/Sewerage pump", "assigned_capacity_lps": 15.0, "capacity_lpm_total": 900.0, "actual_pump_count": 1.0, "activation_depth_m": 0.25, "stop_depth_m": 0.15, "outlet_discharge_point": "Highway Storm water drain", "nearest_landmark": "Badshahpur, Ch. 6+830 R/S, Service road, Badshahpur (Pillar no. 100)", "kind": "pump"}}, {"type": "Feature", "geometry": {"type": "Point", "coordinates": [77.052858, 28.384713]}, "properties": {"pump_id": "MCG-ACTUAL-PUMP-031", "ward_source": "", "department": "NHAI(PD Rewari)", "pump_location_name": "Badshahpur, Ch. 7+080 L/S, Service road, Badshahpur (Pillar no. 106)", "pump_type": "Mud/Sewerage pump", "assigned_capacity_lps": 5.0, "capacity_lpm_total": 300.0, "actual_pump_count": 1.0, "activation_depth_m": 0.25, "stop_depth_m": 0.15, "outlet_discharge_point": "Highway Storm water drain", "nearest_landmark": "Badshahpur, Ch. 7+080 L/S, Service road, Badshahpur (Pillar no. 106)", "kind": "pump"}}, {"type": "Feature", "geometry": {"type": "Point", "coordinates": [77.052812, 28.384436]}, "properties": {"pump_id": "MCG-ACTUAL-PUMP-032", "ward_source": "", "department": "NHAI(PD Rewari)", "pump_location_name": "Badshahpur, Ch. 7+120 R/S, Service road, Near Aria mall)", "pump_type": "Mud/Sewerage pump", "assigned_capacity_lps": 11.666666666666666, "capacity_lpm_total": 700.0, "actual_pump_count": 1.0, "activation_depth_m": 0.25, "stop_depth_m": 0.15, "outlet_discharge_point": "Highway Storm water drain", "nearest_landmark": "Badshahpur, Ch. 7+120 R/S, Service road, Near Aria mall)", "kind": "pump"}}, {"type": "Feature", "geometry": {"type": "Point", "coordinates": [77.0100584019288, 28.43597231738567]}, "properties": {"pump_id": "MCG-ACTUAL-PUMP-033", "ward_source": "", "department": "NHAI (PD Dwarka)", "pump_location_name": "Hero Honda Under Pass", "pump_type": "", "assigned_capacity_lps": 93.33333333333333, "capacity_lpm_total": 5600.0, "actual_pump_count": 8.0, "activation_depth_m": 0.25, "stop_depth_m": 0.15, "outlet_discharge_point": "", "nearest_landmark": "Hero Honda Under Pass", "kind": "pump"}}, {"type": "Feature", "geometry": {"type": "Point", "coordinates": [77.0738192068973, 28.478688379564755]}, "properties": {"pump_id": "MCG-ACTUAL-PUMP-034", "ward_source": "", "department": "NHAI (PD Dwarka)", "pump_location_name": "Iffco chowk, MG road under pass", "pump_type": "", "assigned_capacity_lps": 46.666666666666664, "capacity_lpm_total": 2800.0, "actual_pump_count": 4.0, "activation_depth_m": 0.25, "stop_depth_m": 0.15, "outlet_discharge_point": "", "nearest_landmark": "Iffco chowk, MG road under pass", "kind": "pump"}}, {"type": "Feature", "geometry": {"type": "Point", "coordinates": [77.0738192068973, 28.478688379564755]}, "properties": {"pump_id": "MCG-ACTUAL-PUMP-035", "ward_source": "", "department": "NHAI (PD Dwarka)", "pump_location_name": "Iffco Chowk, NMT", "pump_type": "", "assigned_capacity_lps": 11.666666666666666, "capacity_lpm_total": 700.0, "actual_pump_count": 7.0, "activation_depth_m": 0.25, "stop_depth_m": 0.15, "outlet_discharge_point": "", "nearest_landmark": "Iffco Chowk, NMT", "kind": "pump"}}, {"type": "Feature", "geometry": {"type": "Point", "coordinates": [77.05882934149311, 28.467870038267705]}, "properties": {"pump_id": "MCG-ACTUAL-PUMP-036", "ward_source": "", "department": "NHAI (PD Dwarka)", "pump_location_name": "Signature tower Underpass", "pump_type": "", "assigned_capacity_lps": 93.33333333333333, "capacity_lpm_total": 5600.0, "actual_pump_count": 8.0, "activation_depth_m": 0.25, "stop_depth_m": 0.15, "outlet_discharge_point": "", "nearest_landmark": "Signature tower Underpass", "kind": "pump"}}, {"type": "Feature", "geometry": {"type": "Point", "coordinates": [77.03353030308418, 28.446079340603195]}, "properties": {"pump_id": "MCG-ACTUAL-PUMP-038", "ward_source": "", "department": "NHAI (PD Dwarka)", "pump_location_name": "Sohna Road Underpass Rajiv Chowk", "pump_type": "", "assigned_capacity_lps": 93.33333333333333, "capacity_lpm_total": 5600.0, "actual_pump_count": 8.0, "activation_depth_m": 0.25, "stop_depth_m": 0.15, "outlet_discharge_point": "", "nearest_landmark": "Sohna Road Underpass Rajiv Chowk", "kind": "pump"}}, {"type": "Feature", "geometry": {"type": "Point", "coordinates": [77.03353030308418, 28.446079340603195]}, "properties": {"pump_id": "MCG-ACTUAL-PUMP-039", "ward_source": "", "department": "NHAI (PD Dwarka)", "pump_location_name": "Rajeev Chowk NMT Court to Shona road", "pump_type": "", "assigned_capacity_lps": 23.333333333333332, "capacity_lpm_total": 1400.0, "actual_pump_count": 2.0, "activation_depth_m": 0.25, "stop_depth_m": 0.15, "outlet_discharge_point": "", "nearest_landmark": "Rajeev Chowk NMT Court to Shona road", "kind": "pump"}}, {"type": "Feature", "geometry": {"type": "Point", "coordinates": [77.03353030308418, 28.446079340603195]}, "properties": {"pump_id": "MCG-ACTUAL-PUMP-040", "ward_source": "", "department": "NHAI (PD Dwarka)", "pump_location_name": "Rajeev Chowk NMT Court to Shona road", "pump_type": "", "assigned_capacity_lps": 3.3333333333333335, "capacity_lpm_total": 200.0, "actual_pump_count": 2.0, "activation_depth_m": 0.25, "stop_depth_m": 0.15, "outlet_discharge_point": "", "nearest_landmark": "Rajeev Chowk NMT Court to Shona road", "kind": "pump"}}, {"type": "Feature", "geometry": {"type": "Point", "coordinates": [77.03353030308418, 28.446079340603195]}, "properties": {"pump_id": "MCG-ACTUAL-PUMP-041", "ward_source": "", "department": "NHAI (PD Dwarka)", "pump_location_name": "Rajeev Chowk NMT Shona road to Naharpur Rupa", "pump_type": "", "assigned_capacity_lps": 23.333333333333332, "capacity_lpm_total": 1400.0, "actual_pump_count": 2.0, "activation_depth_m": 0.25, "stop_depth_m": 0.15, "outlet_discharge_point": "", "nearest_landmark": "Rajeev Chowk NMT Shona road to Naharpur Rupa", "kind": "pump"}}, {"type": "Feature", "geometry": {"type": "Point", "coordinates": [77.03353030308418, 28.446079340603195]}, "properties": {"pump_id": "MCG-ACTUAL-PUMP-042", "ward_source": "", "department": "NHAI (PD Dwarka)", "pump_location_name": "Rajeev Chowk NMT Shona road to Naharpur Rupa", "pump_type": "", "assigned_capacity_lps": 3.3333333333333335, "capacity_lpm_total": 200.0, "actual_pump_count": 2.0, "activation_depth_m": 0.25, "stop_depth_m": 0.15, "outlet_discharge_point": "", "nearest_landmark": "Rajeev Chowk NMT Shona road to Naharpur Rupa", "kind": "pump"}}, {"type": "Feature", "geometry": {"type": "Point", "coordinates": [77.029466, 28.513934]}, "properties": {"pump_id": "MCG-ACTUAL-PUMP-045", "ward_source": "", "department": "MCG (3A)", "pump_location_name": "Bank Wali Gali Dundahera", "pump_type": "Submersible Pump", "assigned_capacity_lps": 15.0, "capacity_lpm_total": 900.0, "actual_pump_count": 1.0, "activation_depth_m": 0.25, "stop_depth_m": 0.15, "outlet_discharge_point": "Dundahera to Leg I drain", "nearest_landmark": "Bank Wali Gali Dundahera", "kind": "pump"}}, {"type": "Feature", "geometry": {"type": "Point", "coordinates": [77.074989, 28.511875]}, "properties": {"pump_id": "MCG-ACTUAL-PUMP-046", "ward_source": "", "department": "MCG (3A)", "pump_location_name": "Sunaro wali Gali Dundahera", "pump_type": "Submersible Pump", "assigned_capacity_lps": 8.333333333333334, "capacity_lpm_total": 500.0, "actual_pump_count": 1.0, "activation_depth_m": 0.25, "stop_depth_m": 0.15, "outlet_discharge_point": "Dundahera to Leg I drain", "nearest_landmark": "Sunaro wali Gali Dundahera", "kind": "pump"}}, {"type": "Feature", "geometry": {"type": "Point", "coordinates": [77.029466, 28.510632]}, "properties": {"pump_id": "MCG-ACTUAL-PUMP-047", "ward_source": "", "department": "MCG (3A)", "pump_location_name": "D-block behind Red Rose Public School", "pump_type": "Submersible Pump", "assigned_capacity_lps": 11.666666666666666, "capacity_lpm_total": 700.0, "actual_pump_count": 2.0, "activation_depth_m": 0.25, "stop_depth_m": 0.15, "outlet_discharge_point": "GMDA leg 1 drain", "nearest_landmark": "D-block behind Red Rose Public School", "kind": "pump"}}, {"type": "Feature", "geometry": {"type": "Point", "coordinates": [77.036613, 28.445869]}, "properties": {"pump_id": "MCG-ACTUAL-PUMP-048", "ward_source": "", "department": "MCG (3A)", "pump_location_name": "Rajiv Chowk, Sector-32", "pump_type": "Non-clog submersible pump", "assigned_capacity_lps": 11.666666666666666, "capacity_lpm_total": 700.0, "actual_pump_count": 1.0, "activation_depth_m": 0.25, "stop_depth_m": 0.15, "outlet_discharge_point": "GMDA Master Sewer line", "nearest_landmark": "Rajiv Chowk, Sector-32", "kind": "pump"}}, {"type": "Feature", "geometry": {"type": "Point", "coordinates": [77.05796875, 28.4443715]}, "properties": {"pump_id": "MCG-ACTUAL-PUMP-049", "ward_source": "", "department": "MCG (3A)", "pump_location_name": "Sec-40 Cyber Park", "pump_type": "Non-clog submersible pump", "assigned_capacity_lps": 33.333333333333336, "capacity_lpm_total": 2000.0, "actual_pump_count": 2.0, "activation_depth_m": 0.25, "stop_depth_m": 0.15, "outlet_discharge_point": "GMDA Line sec-45,", "nearest_landmark": "Sec-40 Cyber Park", "kind": "pump"}}, {"type": "Feature", "geometry": {"type": "Point", "coordinates": [77.045131, 28.454139]}, "properties": {"pump_id": "MCG-ACTUAL-PUMP-050", "ward_source": "", "department": "MCG (3A)", "pump_location_name": "Sec-31 Jubli Park", "pump_type": "Non-clog submersible pump", "assigned_capacity_lps": 36.666666666666664, "capacity_lpm_total": 2200.0, "actual_pump_count": 2.0, "activation_depth_m": 0.25, "stop_depth_m": 0.15, "outlet_discharge_point": "Near NH-8", "nearest_landmark": "Sec-31 Jubli Park", "kind": "pump"}}, {"type": "Feature", "geometry": {"type": "Point", "coordinates": [77.035124, 28.446814]}, "properties": {"pump_id": "MCG-ACTUAL-PUMP-051", "ward_source": "", "department": "MCG (3A)", "pump_location_name": "Sec-15, Part-I, Rajiv Chowk", "pump_type": "Mono Block Pump", "assigned_capacity_lps": 23.333333333333332, "capacity_lpm_total": 1400.0, "actual_pump_count": 2.0, "activation_depth_m": 0.25, "stop_depth_m": 0.15, "outlet_discharge_point": "Near NH-8", "nearest_landmark": "Sec-15, Part-I, Rajiv Chowk", "kind": "pump"}}, {"type": "Feature", "geometry": {"type": "Point", "coordinates": [77.043016, 28.453893]}, "properties": {"pump_id": "MCG-ACTUAL-PUMP-052", "ward_source": "", "department": "MCG (3A)", "pump_location_name": "Sec-15 Part-II, Citizen Park", "pump_type": "Mono Block Pump", "assigned_capacity_lps": 50.0, "capacity_lpm_total": 3000.0, "actual_pump_count": 1.0, "activation_depth_m": 0.25, "stop_depth_m": 0.15, "outlet_discharge_point": "Near NH-8", "nearest_landmark": "Sec-15 Part-II, Citizen Park", "kind": "pump"}}, {"type": "Feature", "geometry": {"type": "Point", "coordinates": [77.043332, 28.463391]}, "properties": {"pump_id": "MCG-ACTUAL-PUMP-053", "ward_source": "", "department": "MCG (3A)", "pump_location_name": "Sec-15 Part-II, Gulmohar Park", "pump_type": "Mono Block Pump", "assigned_capacity_lps": 136.66666666666666, "capacity_lpm_total": 8200.0, "actual_pump_count": 3.0, "activation_depth_m": 0.25, "stop_depth_m": 0.15, "outlet_discharge_point": "Ghowd Chowk Sukhrali,", "nearest_landmark": "Sec-15 Part-II, Gulmohar Park", "kind": "pump"}}, {"type": "Feature", "geometry": {"type": "Point", "coordinates": [77.04321, 28.463437]}, "properties": {"pump_id": "MCG-ACTUAL-PUMP-054", "ward_source": "", "department": "MCG (3A)", "pump_location_name": "Sec-15 Part-II, Chanden Nagar", "pump_type": "Non-clog submersible pump", "assigned_capacity_lps": 33.333333333333336, "capacity_lpm_total": 2000.0, "actual_pump_count": 2.0, "activation_depth_m": 0.25, "stop_depth_m": 0.15, "outlet_discharge_point": "Main GMDA Line", "nearest_landmark": "Sec-15 Part-II, Chanden Nagar", "kind": "pump"}}]}