{"type": "FeatureCollection", "features": [{"type": "Feature", "geometry": {"type": "LineString", "coordinates": [[76.9461832, 28.5055593], [76.9490369, 28.5024267], [76.9540338, 28.4951693], [76.9587927, 28.4802977], [76.9629992, 28.4735519], [76.9628737, 28.4733011], [76.9626695, 28.4730182], [76.9625494, 28.4726115], [76.9622512, 28.4716008], [76.9619956, 28.470618], [76.961395, 28.4683089], [76.9612911, 28.4615], [76.9615291, 28.4549564], [76.9619483, 28.4531415], [76.9619831, 28.4529909], [76.9620329, 28.4528278], [76.9630552, 28.4494842], [76.963926, 28.4488132], [76.9658106, 28.4474854], [76.9666244, 28.4468858], [76.9676523, 28.4463005], [76.969494, 28.4453868], [76.9715356, 28.4443731], [76.9725873, 28.4439305], [76.9740816, 28.4431977], [76.9748145, 28.4428931], [76.9752237, 28.4427408], [76.9755949, 28.4426456], [76.9765277, 28.4424933], [76.9773367, 28.4423886], [76.9778982, 28.4423315], [76.9787453, 28.4422935], [76.9790118, 28.4424267], [76.9793925, 28.4423411], [76.9796686, 28.4423411], [76.9804681, 28.4422268], [76.981258, 28.4420365], [76.9815287, 28.4417798], [76.9822003, 28.4413322], [76.9827999, 28.4406469], [76.9840658, 28.4395999], [76.98497, 28.438572], [76.9851223, 28.4380771], [76.9853317, 28.4376583], [76.9852555, 28.4371538], [76.9853317, 28.4369254], [76.9856172, 28.4366684], [76.985779, 28.4363163], [76.9859694, 28.4357985], [76.9859884, 28.4352179], [76.9861026, 28.4348657], [76.9866832, 28.4343423], [76.9868355, 28.4342471], [76.9868926, 28.4336379], [76.9873399, 28.4332763], [76.9875017, 28.4322959], [76.9874256, 28.4319818], [76.9889909, 28.4311557], [76.9893089, 28.4309884], [76.9895409, 28.4308754], [76.9896123, 28.4308516], [76.9897075, 28.4307207], [76.989886, 28.4306434], [76.9900704, 28.430459], [76.9901418, 28.430346], [76.9904273, 28.4300783], [76.990808, 28.4298046], [76.9915278, 28.4294061], [76.9918133, 28.4292157], [76.9921584, 28.4290729], [76.992551, 28.4288826], [76.9930566, 28.428722], [76.9935384, 28.4285673], [76.9936396, 28.4285078], [76.9937823, 28.4283294], [76.9949304, 28.4276512], [76.9949899, 28.4277761], [76.9952219, 28.4279546], [76.9961261, 28.4273954], [76.9968518, 28.4269671], [76.9971136, 28.4268957], [76.9972861, 28.4268898], [76.9978155, 28.4274609], [76.9982974, 28.4281568], [76.9991302, 28.4287755], [77.0000225, 28.4291443], [77.0005757, 28.4298522], [77.001117, 28.4306362], [77.001578, 28.4305202], [77.0019409, 28.4304043], [77.0022056, 28.4303507], [77.0023386, 28.4303433], [77.0024636, 28.4304742], [77.0026777, 28.4307003], [77.0027848, 28.4307895], [77.0028383, 28.4308133], [77.002987, 28.4308192], [77.0031952, 28.4308252], [77.0034689, 28.4308311], [77.0037247, 28.4308668], [77.003921, 28.4308906], [77.0041411, 28.4309025], [77.0044028, 28.4309501], [77.0046586, 28.4308847], [77.0049441, 28.4307538], [77.0052713, 28.4305575], [77.0055033, 28.4305634], [77.0057216, 28.4306316], [77.0067097, 28.4303921], [77.007395, 28.4301494], [77.0080089, 28.4299638], [77.0085371, 28.4299067], [77.0092224, 28.4298496], [77.0097078, 28.429921], [77.0105216, 28.429821], [77.0115067, 28.4297211], [77.0122063, 28.4295498], [77.0128202, 28.4292928], [77.0136339, 28.4289359], [77.0141907, 28.4285361], [77.0145905, 28.4279651], [77.0147333, 28.4276367], [77.0151187, 28.4272512], [77.0154756, 28.4269371], [77.0155684, 28.4267944], [77.0156612, 28.4266516], [77.0157017, 28.4265529], [77.0160634, 28.4264767], [77.0166535, 28.4264006], [77.0173388, 28.4263435], [77.0176814, 28.4265909], [77.0197753, 28.4265529], [77.0206319, 28.4262673], [77.0223071, 28.4257153], [77.0233731, 28.4250871], [77.0246865, 28.4244209], [77.0261914, 28.424254], [77.0261915, 28.424254], [77.0312121, 28.4220354], [77.0320176, 28.4212212], [77.0326402, 28.4193604], [77.0326408, 28.4193586], [77.0338161, 28.4158463], [77.0333228, 28.4126449], [77.0343947, 28.4099548], [77.0350431, 28.4092919], [77.036875, 28.4081644], [77.0368975, 28.4059523], [77.0375337, 28.4053354], [77.0375632, 28.404166], [77.0378263, 28.4036922], [77.0391559, 28.4027326], [77.0401257, 28.4026149], [77.0403468, 28.40125], [77.0403812, 28.4012525], [77.0407912, 28.401243], [77.0417269, 28.4009336], [77.042112, 28.4007756], [77.0436588, 28.4008327], [77.0448885, 28.4013135], [77.0460833, 28.4016818], [77.0485129, 28.4024417], [77.0498028, 28.4029227], [77.0516608, 28.4037781], [77.054076, 28.4046847], [77.0562275, 28.4054927], [77.0589217, 28.4065101], [77.0628781, 28.408004], [77.0661776, 28.4092432], [77.0697085, 28.4105743], [77.0719308, 28.4114048], [77.0742071, 28.412232], [77.0743124, 28.4122696], [77.0744986, 28.4123363], [77.0776443, 28.4134616], [77.0796892, 28.4141872], [77.0803165, 28.4143686], [77.0808184, 28.4144827], [77.0837888, 28.4153087], [77.0861026, 28.4159728], [77.0870831, 28.416261], [77.0879823, 28.4165187], [77.0886012, 28.4166961], [77.0899402, 28.417091], [77.0910233, 28.4173728], [77.0911016, 28.4173763], [77.0917933, 28.4173578], [77.092614, 28.4173359], [77.0954056, 28.4173025], [77.0974256, 28.4173024], [77.0976777, 28.4173511], [77.0989921, 28.4177247], [77.0998174, 28.4179609], [77.1002115, 28.4180736], [77.101173, 28.4183352], [77.102188, 28.4186113], [77.102533, 28.4187148], [77.1035735, 28.4190268], [77.1040911, 28.4190799], [77.1044869, 28.4191205], [77.1046333, 28.4191316], [77.1056256, 28.4191656], [77.1059492, 28.419166], [77.106869, 28.4190085], [77.1076825, 28.4187465], [77.1080771, 28.4185926]]}, "properties": {"trunk_id": "TRUNK-LEG-3", "trunk_name": "Leg 3 / Badshahpur Drain", "source_name": "Badshapur Drain (Leg 3)", "model_role": "main downstream carrier; assign capacity and tailwater scenario before coupled runs", "field_status": "source layer present; confirm cross-section, blockage and tailwater in field", "sec_w_m": 0.6, "sec_h_m": 0.6, "depth_crown_m": -1.05, "depth_invert_m": -1.65}}, {"type": "Feature", "geometry": {"type": "LineString", "coordinates": [[77.0885255, 28.4620925], [77.087616, 28.4618814], [77.0863014, 28.4615763], [77.0827405, 28.4607689], [77.0805585, 28.4602651], [77.0786836, 28.4598474], [77.0766349, 28.4593868], [77.0749015, 28.4589947], [77.0748298, 28.4589784], [77.0742981, 28.4589318], [77.0741247, 28.4589166], [77.0737282, 28.4587857], [77.0715314, 28.4580608], [77.0713943, 28.4582601], [77.0710463, 28.4585614], [77.070096, 28.4592897], [77.0696825, 28.4596076], [77.0691312, 28.4600314], [77.0683819, 28.4606074], [77.0682006, 28.4607472], [77.0667077, 28.4618982], [77.0650814, 28.4631525], [77.0641022, 28.4639071], [77.0641018, 28.4639074], [77.0627596, 28.4649369], [77.0601354, 28.4669496], [77.0592462, 28.4676315], [77.0586298, 28.4679259], [77.0579452, 28.4682529], [77.0575052, 28.4687468], [77.0572111, 28.4691226], [77.0568539, 28.4712137], [77.0562207, 28.4724457], [77.05546, 28.4734302], [77.053445, 28.4758669], [77.0502993, 28.4796708], [77.0502076, 28.4798077], [77.0489401, 28.4815746], [77.0486033, 28.4820462], [77.0479385, 28.4817591], [77.0476087, 28.4817106], [77.0471881, 28.4816713], [77.0445947, 28.481105], [77.0422777, 28.4805992], [77.0393876, 28.4793667], [77.0385282, 28.4791688], [77.0354378, 28.4785549], [77.0348345, 28.478524], [77.0335144, 28.4785799], [77.0325963, 28.4787273], [77.0322749, 28.4788359], [77.031435, 28.4791195], [77.0312745, 28.4791736], [77.0302447, 28.4795213], [77.029576, 28.4797198], [77.0291323, 28.4798404], [77.0279682, 28.479973], [77.0275903, 28.4801047], [77.0271734, 28.4802332], [77.0258483, 28.4805776], [77.024461, 28.4812071], [77.0237811, 28.4815156], [77.0236535, 28.4815717], [77.0229763, 28.4818695], [77.0227236, 28.4819955], [77.0221582, 28.4825005], [77.0220461, 28.482618], [77.0219673, 28.4826903], [77.0209034, 28.4838142], [77.0201423, 28.4849371], [77.0196976, 28.4855271], [77.0197285, 28.4862598], [77.0197644, 28.488015], [77.0196487, 28.4899794], [77.0180162, 28.4904954], [77.0165886, 28.4910441], [77.015548, 28.4914441], [77.0160057, 28.4924926], [77.0145937, 28.492991], [77.0167462, 28.4955584], [77.0182799, 28.4973444], [77.0177934, 28.4976478], [77.0162378, 28.4977091], [77.0163008, 28.4996564], [77.0104472, 28.4997279], [77.0099117, 28.4997095], [77.0085642, 28.4996634], [77.0078473, 28.499667], [77.0041576, 28.4997144], [77.0019915, 28.4997411], [77.0015465, 28.4997465], [77.0007787, 28.499756], [76.9975309, 28.5027222], [76.9958872, 28.5036174], [76.995851, 28.5038395], [76.994056, 28.5045076], [76.9922356, 28.5042898], [76.9893459, 28.5060817], [76.9880639, 28.5063586], [76.984631, 28.5083445], [76.9842713, 28.5080583], [76.9834314, 28.5084679], [76.9807734, 28.5091862], [76.9790441, 28.5092806], [76.9782609, 28.5094906], [76.9773314, 28.5074184], [76.9651779, 28.5129428]]}, "properties": {"trunk_id": "TRUNK-LEG-2", "trunk_name": "Leg 2", "source_name": "Leg 2", "model_role": "main downstream carrier; assign capacity and tailwater scenario before coupled runs", "field_status": "source layer present; confirm cross-section, blockage and tailwater in field", "sec_w_m": 0.6, "sec_h_m": 0.6, "depth_crown_m": -1.05, "depth_invert_m": -1.65}}, {"type": "Feature", "geometry": {"type": "MultiLineString", "coordinates": [[[77.0420412, 28.5100554], [77.0436035, 28.5095171], [77.0446368, 28.5091611], [77.0480047, 28.5079931], [77.0480051, 28.5079929], [77.0489209, 28.5076756], [77.0491377, 28.5076004], [77.0507783, 28.5070141], [77.051599, 28.5065166], [77.0528301, 28.5057551], [77.0549818, 28.5044347], [77.0573348, 28.5029907], [77.0582486, 28.5025949], [77.0591852, 28.5026082], [77.0600678, 28.5026207], [77.0610302, 28.5026344], [77.0618926, 28.5026467], [77.0627851, 28.5026593], [77.064778, 28.5026876], [77.0654859, 28.5026977], [77.0662643, 28.5027021], [77.067026, 28.502648], [77.067559, 28.5019628], [77.0674857, 28.501761], [77.0675762, 28.5015063], [77.0681246, 28.5012434], [77.0687365, 28.5009889], [77.0698897, 28.5009949], [77.0713896, 28.5010663], [77.0718774, 28.5009235], [77.0744353, 28.5006082], [77.0747754, 28.5005124], [77.0748577, 28.5004892], [77.0762615, 28.5003643], [77.0770918, 28.5000835], [77.0774822, 28.499936], [77.0777677, 28.4998539], [77.0779381, 28.4998471], [77.0780354, 28.4998432], [77.0782353, 28.4998753], [77.0783781, 28.4998549], [77.0785439, 28.4998185], [77.0786206, 28.4997784], [77.0787032, 28.4997089], [77.0787802, 28.4995981], [77.0789521, 28.4993716], [77.07908, 28.499177], [77.0792513, 28.4990199], [77.0795512, 28.4989271], [77.0797153, 28.4989557], [77.0800151, 28.4988914], [77.080058, 28.4986487], [77.080023, 28.4985206], [77.0799366, 28.4981062], [77.0801627, 28.4977659], [77.0806029, 28.4974685], [77.0810907, 28.496719], [77.0814357, 28.4962312], [77.0822804, 28.4959219], [77.0829867, 28.4955407], [77.0830299, 28.4955174], [77.0834737, 28.4953762], [77.0845658, 28.4950467], [77.0848898, 28.4950797], [77.0854852, 28.4950107], [77.0858042, 28.4949137], [77.0864704, 28.4947041], [77.0868632, 28.4942926], [77.0869542, 28.4941074], [77.0870092, 28.4938797], [77.0870691, 28.493769], [77.0871267, 28.493684], [77.0874762, 28.4931707], [77.0877932, 28.492662], [77.0878476, 28.4924034], [77.087992, 28.4923271], [77.0882259, 28.4922639], [77.0883834, 28.4921516], [77.0884609, 28.4919684], [77.088742, 28.4908062], [77.0887073, 28.4905859], [77.0887688, 28.4904506], [77.0888874, 28.4902996], [77.0892111, 28.4900976], [77.0897898, 28.4898899], [77.0899758, 28.4897247], [77.0906232, 28.4889165], [77.0910045, 28.4887048], [77.0919143, 28.4881995], [77.0921376, 28.4881483], [77.0924272, 28.4881725], [77.0927038, 28.4880769], [77.0930912, 28.4878513], [77.0934556, 28.487603], [77.0935811, 28.4873447], [77.0936608, 28.4871382], [77.0940321, 28.4868697], [77.0946759, 28.4864039], [77.0949197, 28.4861614], [77.0950732, 28.4858606], [77.0951108, 28.4854375], [77.0954007, 28.4850578], [77.095765, 28.4848587], [77.0962202, 28.4845924], [77.0966521, 28.4843892], [77.0973411, 28.4839766], [77.0978345, 28.4836589], [77.0983211, 28.4833031], [77.0991268, 28.4827227], [77.0998483, 28.4823556], [77.0999957, 28.4822805]], [[77.0418827, 28.51011], [77.0420412, 28.5100554]], [[77.0004368, 28.5316939], [77.0033168, 28.5299119], [77.004326, 28.5293024], [77.0085694, 28.5269066], [77.0101364, 28.5258287], [77.0106002, 28.5256589], [77.0109646, 28.525554], [77.011417, 28.5254236], [77.0124038, 28.5251218], [77.0130841, 28.5248962], [77.0143354, 28.5244814], [77.0152663, 28.5236798], [77.016245, 28.5227099], [77.0185322, 28.5225753], [77.0189479, 28.5225679], [77.0195726, 28.522565], [77.0205337, 28.5225029], [77.0205721, 28.5222009], [77.0223337, 28.5221992], [77.0232857, 28.5191388], [77.0235462, 28.5181586], [77.0248663, 28.513753], [77.0256811, 28.5115864], [77.02599, 28.5114558], [77.0266249, 28.5114119], [77.0272471, 28.5113797], [77.0276085, 28.5112826], [77.0281273, 28.5112749], [77.028541, 28.5112], [77.0288864, 28.5109427], [77.0294028, 28.5108089], [77.0308579, 28.5109132], [77.034113, 28.5108416], [77.0387217, 28.5107754], [77.0402607, 28.5106854], [77.0409048, 28.5104465], [77.0420412, 28.5100554]]]}, "properties": {"trunk_id": "TRUNK-LEG-1", "trunk_name": "Leg 1", "source_name": "Leg 1", "model_role": "main downstream carrier; assign capacity and tailwater scenario before coupled runs", "field_status": "source layer present; confirm cross-section, blockage and tailwater in field", "sec_w_m": 0.6, "sec_h_m": 0.6, "depth_crown_m": -1.05, "depth_invert_m": -1.65}}]}